{"version": 0.6, "generator": "Overpass API 0.7.61.2 bd0cdeae", "osm3s": {"timestamp_osm_base": "2023-07-23T11:48:57Z", "copyright": "The data included in this document is from www.openstreetmap.org. The data is made available under ODbL."}, "elements": [{"type": "node", "id": 325686962, "lat": 39.1537176, "lon": -86.4973791}, {"type": "node", "id": 325686963, "lat": 39.1537209, "lon": -86.497118}, {"type": "node", "id": 325686964, "lat": 39.1538242, "lon": -86.4971213}, {"type": "node", "id": 471951774, "lat": 39.166454, "lon": -86.5333833, "tags": {"amenity": "restaurant", "name": "The Trojan Horse", "wheelchair": "limited"}}, {"type": "node", "id": 471951775, "lat": 39.1664509, "lon": -86.5332818, "tags": {"amenity": "cafe", "name": "Uptown Cafe", "opening_hours": "Mo-Th 08:00-21:00; Fr 08:00-22:00; Sa 09:00-14:00,17:00-22:00; Su 09:00-14:00"}}, {"type": "node", "id": 471951781, "lat": 39.1667009, "lon": -86.5353914, "tags": {"entrance": "main", "wheelchair": "limited"}}, {"type": "node", "id": 471951782, "lat": 39.1666967, "lon": -86.5355366, "tags": {"entrance": "main", "wheelchair": "no"}}, {"type": "node", "id": 471951783, "lat": 39.1670705, "lon": -86.5357774}, {"type": "node", "id": 482798886, "lat": 39.1654707, "lon": -86.528548}, {"type": "node", "id": 654381206, "lat": 39.1658024, "lon": -86.5704531}, {"type": "node", "id": 654381244, "lat": 39.1679843, "lon": -86.5717652}, {"type": "node", "id": 654396314, "lat": 39.1688276, "lon": -86.5712842}, {"type": "node", "id": 668770696, "lat": 39.1606502, "lon": -86.5529719, "tags": {"amenity": "fast_food", "brand": "Subway", "brand:wikidata": "Q244457", "brand:wikipedia": "en:Subway (restaurant)", "cuisine": "sandwich", "name": "Subway", "takeaway": "yes"}}, {"type": "node", "id": 668770697, "lat": 39.1604658, "lon": -86.5527343, "tags": {"addr:state": "IN", "amenity": "restaurant", "brand": "Buffalo Wild Wings", "brand:wikidata": "Q509255", "brand:wikipedia": "en:Buffalo Wild Wings", "cuisine": "wings", "name": "Buffalo Wild Wings", "short_name": "BW3"}}, {"type": "node", "id": 668770698, "lat": 39.1641642, "lon": -86.5841391, "tags": {"amenity": "restaurant", "name": "Cloverleaf Restaurant"}}, {"type": "node", "id": 677746622, "lat": 39.2165472, "lon": -86.5932079}, {"type": "node", "id": 677752477, "lat": 39.2103547, "lon": -86.5840182}, {"type": "node", "id": 677752482, "lat": 39.2093456, "lon": -86.5844399, "tags": {"amenity": "restaurant", "name": "El Ranchero"}}, {"type": "node", "id": 678445458, "lat": 39.1211556, "lon": -86.5308816}, {"type": "node", "id": 838089287, "lat": 39.1625542, "lon": -86.5333452, "tags": {"addr:city": "Bloomington", "addr:housenumber": "401", "addr:postcode": "47401", "addr:state": "IN", "addr:street": "South Walnut Street", "amenity": "restaurant", "cuisine": "ice_cream", "name": "The Chocolate Moose", "opening_hours": "Mo-Sa 11:00-22:00; Su 13:00-22:00", "phone": "+1-812-333-0475", "website": "http://www.chocolatemoosebloomington.com"}}, {"type": "node", "id": 901096153, "lat": 39.2163961, "lon": -86.5968532}, {"type": "node", "id": 910641293, "lat": 39.1621075, "lon": -86.4967483}, {"type": "node", "id": 910641294, "lat": 39.1617744, "lon": -86.496709}, {"type": "node", "id": 910641300, "lat": 39.1613215, "lon": -86.4966623}, {"type": "node", "id": 910641362, "lat": 39.1621003, "lon": -86.4953731}, {"type": "node", "id": 910652394, "lat": 39.1612147, "lon": -86.4965603}, {"type": "node", "id": 910652395, "lat": 39.1609804, "lon": -86.4965317}, {"type": "node", "id": 910652396, "lat": 39.1609983, "lon": -86.4962866}, {"type": "node", "id": 910652397, "lat": 39.1612326, "lon": -86.4963152}, {"type": "node", "id": 955949811, "lat": 39.2300981, "lon": -86.6191275, "tags": {"addr:city": "Ellettsville", "addr:housenumber": "309", "addr:postcode": "47429", "addr:state": "IN", "addr:street": "E Temperance St", "amenity": "restaurant", "name": "The Village Inn", "phone": "+1-812-876-2121"}}, {"type": "node", "id": 975942874, "lat": 39.1382596, "lon": -86.529932}, {"type": "node", "id": 976553242, "lat": 39.1829459, "lon": -86.5352679}, {"type": "node", "id": 976732734, "lat": 39.1612063, "lon": -86.5358338}, {"type": "node", "id": 976732737, "lat": 39.1386021, "lon": -86.5310122}, {"type": "node", "id": 976732739, "lat": 39.1361316, "lon": -86.5313434}, {"type": "node", "id": 976742490, "lat": 39.1459498, "lon": -86.5317439}, {"type": "node", "id": 976742499, "lat": 39.1595274, "lon": -86.5341905}, {"type": "node", "id": 977115566, "lat": 39.2240736, "lon": -86.6095712}, {"type": "node", "id": 977115607, "lat": 39.2219708, "lon": -86.6059385}, {"type": "node", "id": 977115610, "lat": 39.2216878, "lon": -86.6071468}, {"type": "node", "id": 980002913, "lat": 39.166089, "lon": -86.5779909, "tags": {"amenity": "fast_food", "brand": "Subway", "brand:wikidata": "Q244457", "brand:wikipedia": "en:Subway (restaurant)", "cuisine": "sandwich", "name": "Subway", "takeaway": "yes"}}, {"type": "node", "id": 980002914, "lat": 39.166089, "lon": -86.578227, "tags": {"amenity": "restaurant", "name": "Casa Brava"}}, {"type": "node", "id": 983924490, "lat": 39.2174422, "lon": -86.5936643, "tags": {"amenity": "fast_food", "brand": "Subway", "brand:wikidata": "Q244457", "brand:wikipedia": "en:Subway (restaurant)", "cuisine": "sandwich", "name": "Subway", "takeaway": "yes"}}, {"type": "node", "id": 983924501, "lat": 39.2174226, "lon": -86.593552, "tags": {"amenity": "restaurant", "brand": "PizzaExpress", "brand:wikidata": "Q662845", "brand:wikipedia": "en:PizzaExpress", "cuisine": "pizza", "name": "PizzaExpress"}}, {"type": "node", "id": 999988690, "lat": 39.1872402, "lon": -86.5338712}, {"type": "node", "id": 1041181556, "lat": 39.2195962, "lon": -86.6040209, "tags": {"addr:city": "Bloomington", "addr:postcode": "47404", "addr:state": "IN", "addr:street": "West State Road 46", "amenity": "fast_food", "brand": "Papa John's", "brand:wikidata": "Q2759586", "brand:wikipedia": "en:Papa John's Pizza", "cuisine": "pizza", "name": "Papa John's", "takeaway": "yes"}}, {"type": "node", "id": 1059468834, "lat": 39.168503, "lon": -86.5731418, "tags": {"addr:city": "Bloomington", "addr:housenumber": "284", "addr:postcode": "47404", "addr:state": "IN", "addr:street": "North Jacob Drive", "amenity": "cafe", "brand": "Starbucks", "brand:wikidata": "Q37158", "brand:wikipedia": "en:Starbucks", "contact:website": "https://www.starbucks.com/store-locator/store/17712/jacobs-dr-284-n-jacob-drive-bloomington-in-474044892-us", "cuisine": "coffee_shop", "name": "Starbucks", "official_name": "Starbucks Coffee", "phone": "+1-812-323-8740", "takeaway": "yes"}}, {"type": "node", "id": 1059468850, "lat": 39.1682465, "lon": -86.5731375, "tags": {"addr:city": "Bloomington", "addr:housenumber": "256", "addr:postcode": "47404", "addr:state": "IN", "addr:street": "North Jacob Drive", "amenity": "fast_food", "brand": "Penn Station", "brand:wikidata": "Q7163311", "brand:wikipedia": "en:Penn Station (restaurant)", "cuisine": "sandwich", "name": "Penn Station", "phone": "+1-812-331-7300", "takeaway": "yes", "website": "http://www.penn-station.com/"}}, {"type": "node", "id": 1165248106, "lat": 39.2987087, "lon": -86.6510717}, {"type": "node", "id": 1209468893, "lat": 39.1630036, "lon": -86.5224651, "tags": {"addr:city": "Bloomington", "addr:housenumber": "401", "addr:postcode": "47401", "addr:state": "IN", "addr:street": "South Woodlawn Avenue", "amenity": "cafe", "name": "The Inkwell Bakery & Cafe", "opening_hours": "Mo-Fr 07:30-17:00; Sa-Su 09:00-15:00", "phone": "+1-812-287-8354", "website": "https://www.inkwellbtown.com/", "wheelchair": "no"}}, {"type": "node", "id": 1209628267, "lat": 39.1708364, "lon": -86.5166732, "tags": {"amenity": "cafe", "level": "0", "name": "Campus Cafe", "wheelchair": "no"}}, {"type": "node", "id": 1210080927, "lat": 39.1605223, "lon": -86.4983091}, {"type": "node", "id": 1210080957, "lat": 39.160435, "lon": -86.498234}, {"type": "node", "id": 1210080999, "lat": 39.160522, "lon": -86.4982657}, {"type": "node", "id": 1210081000, "lat": 39.1605316, "lon": -86.498213}, {"type": "node", "id": 1210081014, "lat": 39.1604416, "lon": -86.4983108}, {"type": "node", "id": 1210081019, "lat": 39.1604758, "lon": -86.4982656}, {"type": "node", "id": 1210081033, "lat": 39.1605332, "lon": -86.4979455}, {"type": "node", "id": 1210081054, "lat": 39.160435, "lon": -86.4979416}, {"type": "node", "id": 1210081055, "lat": 39.1604432, "lon": -86.4982341}, {"type": "node", "id": 1210081057, "lat": 39.1604749, "lon": -86.4982162}, {"type": "node", "id": 1311898393, "lat": 39.1661064, "lon": -86.5338778, "tags": {"amenity": "restaurant", "name": "Stephano's Ice Cafe", "wheelchair": "yes"}}, {"type": "node", "id": 1321232774, "lat": 39.1460542, "lon": -86.5787139, "tags": {"amenity": "restaurant", "cuisine": "mexican", "name": "El Ranchero"}}, {"type": "node", "id": 1562676282, "lat": 39.1668859, "lon": -86.5355106}, {"type": "node", "id": 1562708585, "lat": 39.1664412, "lon": -86.5328719, "tags": {"amenity": "restaurant", "name": "Bloomington Sandwich Company", "wheelchair": "yes"}}, {"type": "node", "id": 1562708589, "lat": 39.1661675, "lon": -86.5331152, "tags": {"amenity": "bar", "name": "The Root Cellar", "wheelchair": "no"}}, {"type": "node", "id": 1562708595, "lat": 39.1654147, "lon": -86.5293375, "tags": {"amenity": "restaurant", "cuisine": "regional", "name": "Dat's", "wheelchair": "yes"}}, {"type": "node", "id": 1562708597, "lat": 39.1651388, "lon": -86.5284556, "tags": {"addr:city": "Bloomington", "addr:housenumber": "208", "addr:postcode": "47401", "addr:state": "IN", "addr:street": "South Dunn Street", "amenity": "restaurant", "cuisine": "burger", "name": "Chomp", "website": "http://www.chompbloomington.com/"}}, {"type": "node", "id": 1635551052, "lat": 39.0344201, "lon": -86.4910413}, {"type": "node", "id": 1672484016, "lat": 39.1660257, "lon": -86.5272399}, {"type": "node", "id": 1672491365, "lat": 39.1740863, "lon": -86.5182108}, {"type": "node", "id": 1672491396, "lat": 39.1741139, "lon": -86.5181098}, {"type": "node", "id": 1672491434, "lat": 39.174187, "lon": -86.5187049}, {"type": "node", "id": 1672491823, "lat": 39.1744508, "lon": -86.5183913}, {"type": "node", "id": 1672491884, "lat": 39.1744619, "lon": -86.5178484}, {"type": "node", "id": 1672491894, "lat": 39.1744693, "lon": -86.5186091}, {"type": "node", "id": 1672491901, "lat": 39.1744756, "lon": -86.5183122}, {"type": "node", "id": 1672492009, "lat": 39.17446, "lon": -86.5182776}, {"type": "node", "id": 1672492094, "lat": 39.174606, "lon": -86.5181679}, {"type": "node", "id": 1673473374, "lat": 39.1661961, "lon": -86.5279369}, {"type": "node", "id": 1673473382, "lat": 39.1661947, "lon": -86.5281503}, {"type": "node", "id": 1673473388, "lat": 39.166433, "lon": -86.5279395}, {"type": "node", "id": 1673473409, "lat": 39.1664316, "lon": -86.5281529}, {"type": "node", "id": 1678886394, "lat": 39.153556, "lon": -86.5384161, "tags": {"amenity": "restaurant", "name": "Sweet Grass Restaurant"}}, {"type": "node", "id": 1685548785, "lat": 39.1073759, "lon": -86.4312632}, {"type": "node", "id": 1690329769, "lat": 39.1068593, "lon": -86.5320884, "tags": {"amenity": "ice_cream"}}, {"type": "node", "id": 1690329771, "lat": 39.1068718, "lon": -86.5319543, "tags": {"amenity": "restaurant", "cuisine": "pizza", "name": "Baldy's Pizza"}}, {"type": "node", "id": 1851064824, "lat": 39.1549558, "lon": -86.4947497, "tags": {"amenity": "restaurant", "name": "Bangkok Thai Cuisine"}}, {"type": "node", "id": 1851064871, "lat": 39.1541873, "lon": -86.4926686}, {"type": "node", "id": 1851064891, "lat": 39.1543147, "lon": -86.4924606}, {"type": "node", "id": 1851064928, "lat": 39.1541045, "lon": -86.4925826}, {"type": "node", "id": 1885605541, "lat": 39.1638356, "lon": -86.5162406, "tags": {"addr:city": "Bloomington", "addr:housenumber": "1400", "addr:postcode": "47401", "addr:street": "East 3rd Street", "amenity": "cafe", "cuisine": "coffee_shop", "internet_access": "wlan", "name": "Soma Coffee House and Juice Bar"}}, {"type": "node", "id": 1885605547, "lat": 39.1641433, "lon": -86.5159805, "tags": {"amenity": "restaurant", "cuisine": "chinese", "name": "Dragon Express"}}, {"type": "node", "id": 2107274451, "lat": 39.1556507, "lon": -86.4955665, "tags": {"amenity": "restaurant", "delivery": "yes", "internet_access": "wlan", "name": "Aver's Gourmet Pizza", "smoking": "no", "takeaway": "yes"}}, {"type": "node", "id": 2258220685, "lat": 39.2112509, "lon": -86.58617}, {"type": "node", "id": 2521374940, "lat": 39.1641893, "lon": -86.5153292}, {"type": "node", "id": 2521374941, "lat": 39.163973, "lon": -86.5153298}, {"type": "node", "id": 2521374942, "lat": 39.1641898, "lon": -86.5155976}, {"type": "node", "id": 2521374943, "lat": 39.1639735, "lon": -86.5155982}, {"type": "node", "id": 2698930580, "lat": 39.1652127, "lon": -86.5346664, "tags": {"addr:city": "Bloomington", "addr:housenumber": "209", "addr:postcode": "47404", "addr:state": "IN", "addr:street": "South College Avenue", "amenity": "bar", "name": "Atlas", "opening_hours": "17:00-03:00 \"Most nights\"", "smoking": "outside"}}, {"type": "node", "id": 2698930587, "lat": 39.1652197, "lon": -86.534486, "tags": {"addr:city": "Bloomington", "addr:housenumber": "207", "addr:postcode": "47404", "addr:state": "IN", "addr:street": "South College Avenue", "amenity": "bar", "min_age": "21", "name": "The Back Door", "outdoor_seating": "yes", "wheelchair": "yes"}}, {"type": "node", "id": 2698930597, "lat": 39.1664154, "lon": -86.5302725, "tags": {"addr:city": "Bloomington", "addr:housenumber": "314", "addr:postcode": "47408", "addr:street": "East Kirkwood Avenue", "amenity": "cafe", "cuisine": "coffee_shop", "internet_access": "wlan", "name": "The Pour House"}}, {"type": "node", "id": 2742771547, "lat": 39.1640293, "lon": -86.5151816}, {"type": "node", "id": 2753880838, "lat": 39.1666643, "lon": -86.5275668, "tags": {"addr:city": "Bloomington", "addr:housenumber": "517", "addr:postcode": "47408", "addr:state": "IN", "addr:street": "East Kirkwood Avenue", "amenity": "restaurant", "brand": "Noodles & Company", "brand:wikidata": "Q7049673", "brand:wikipedia": "en:Noodles & Company", "cuisine": "pasta", "name": "Noodles & Company", "opening_hours": "Su-Th 11:00-21:00; Fr-Sa 11:00-22:00", "phone": "+1-812-323-1400", "wheelchair": "yes"}}, {"type": "node", "id": 2753880841, "lat": 39.1670595, "lon": -86.5285304}, {"type": "node", "id": 2753880842, "lat": 39.1670584, "lon": -86.5283641}, {"type": "node", "id": 2753880843, "lat": 39.1672144, "lon": -86.5283627}, {"type": "node", "id": 2753880867, "lat": 39.1663908, "lon": -86.5301407}, {"type": "node", "id": 2753880868, "lat": 39.1663893, "lon": -86.5299764}, {"type": "node", "id": 2753880869, "lat": 39.1662399, "lon": -86.5299787}, {"type": "node", "id": 2753880870, "lat": 39.1662397, "lon": -86.5299541}, {"type": "node", "id": 2753880871, "lat": 39.166165, "lon": -86.5299553}, {"type": "node", "id": 2753880872, "lat": 39.166167, "lon": -86.5301753}, {"type": "node", "id": 2753880873, "lat": 39.1662446, "lon": -86.5301741}, {"type": "node", "id": 2753880874, "lat": 39.1662444, "lon": -86.5301429}, {"type": "node", "id": 2760033893, "lat": 39.1664062, "lon": -86.5291182}, {"type": "node", "id": 2760033894, "lat": 39.1664042, "lon": -86.5289668}, {"type": "node", "id": 2760033895, "lat": 39.1662049, "lon": -86.528971}, {"type": "node", "id": 2760033896, "lat": 39.1662068, "lon": -86.5291225}, {"type": "node", "id": 2760033897, "lat": 39.1660885, "lon": -86.5283501, "tags": {"amenity": "restaurant", "cuisine": "mediterranean", "name": "Falafels"}}, {"type": "node", "id": 2760035011, "lat": 39.1647747, "lon": -86.5270285, "tags": {"amenity": "restaurant", "cuisine": "chinese", "name": "Chow Bar"}}, {"type": "node", "id": 2760035013, "lat": 39.1662838, "lon": -86.5270427, "tags": {"addr:city": "Bloomington", "addr:housenumber": "530", "addr:state": "IN", "addr:street": "East Kirkwood Avenue", "amenity": "restaurant", "cuisine": "asian;japanese", "name": "Japonee Express", "opening_hours": "Mo-Th 10:30-22:00; Fr 10:20-23:00; Sa 11:00-23:00", "phone": "+1-812-333-7380"}}, {"type": "node", "id": 2760035014, "lat": 39.1661966, "lon": -86.527043, "tags": {"amenity": "cafe", "brand": "Starbucks", "brand:wikidata": "Q37158", "brand:wikipedia": "en:Starbucks", "contact:website": "https://www.starbucks.com/store-locator/store/11858/indiana-ave-110-south-indiana-avenue-bloomington-in-474084043-", "cuisine": "coffee_shop", "name": "Starbucks", "official_name": "Starbucks Coffee", "takeaway": "yes"}}, {"type": "node", "id": 2760035030, "lat": 39.1668424, "lon": -86.5294359}, {"type": "node", "id": 2760035031, "lat": 39.1666907, "lon": -86.5285699, "tags": {"amenity": "fast_food", "brand": "Five Guys", "brand:wikidata": "Q1131810", "brand:wikipedia": "en:Five Guys", "cuisine": "burger", "name": "Five Guys", "official_name": "Five Guys Burgers and Fries", "opening_hours": "Mo-Su 11:00-22:00", "takeaway": "yes"}}, {"type": "node", "id": 2763315924, "lat": 39.1791898, "lon": -86.5332281}, {"type": "node", "id": 2763315925, "lat": 39.1791398, "lon": -86.5331311}, {"type": "node", "id": 2763315926, "lat": 39.1791395, "lon": -86.5330757}, {"type": "node", "id": 2763315927, "lat": 39.1792284, "lon": -86.5330751}, {"type": "node", "id": 2763315928, "lat": 39.1792283, "lon": -86.5330449}, {"type": "node", "id": 2763315929, "lat": 39.1792765, "lon": -86.5330446}, {"type": "node", "id": 2763315930, "lat": 39.1792768, "lon": -86.5330964}, {"type": "node", "id": 2763315931, "lat": 39.1793302, "lon": -86.533096}, {"type": "node", "id": 2763315932, "lat": 39.1793307, "lon": -86.5332037}, {"type": "node", "id": 2763315933, "lat": 39.1792909, "lon": -86.533204}, {"type": "node", "id": 2763315934, "lat": 39.179291, "lon": -86.5332273}, {"type": "node", "id": 2790773430, "lat": 39.1664056, "lon": -86.5283657, "tags": {"amenity": "fast_food", "brand": "Jimmy John's", "brand:wikidata": "Q1689380", "brand:wikipedia": "en:Jimmy John's", "cuisine": "sandwich", "name": "Jimmy John's", "official_name": "Jimmy John's Gourmet Sandwiches", "takeaway": "yes"}}, {"type": "node", "id": 2795665946, "lat": 39.1645761, "lon": -86.4993622}, {"type": "node", "id": 2795665947, "lat": 39.1645796, "lon": -86.4991591}, {"type": "node", "id": 2795665948, "lat": 39.164767, "lon": -86.4993677}, {"type": "node", "id": 2795665949, "lat": 39.1647674, "lon": -86.4993438}, {"type": "node", "id": 2795665950, "lat": 39.1648203, "lon": -86.4993453}, {"type": "node", "id": 2795665951, "lat": 39.1648235, "lon": -86.4991662}, {"type": "node", "id": 2795682551, "lat": 39.1708585, "lon": -86.5004194, "tags": {"amenity": "restaurant", "cuisine": "korean", "name": "Mama's Restaurant"}}, {"type": "node", "id": 2795697395, "lat": 39.1636849, "lon": -86.4985366}, {"type": "node", "id": 2795697396, "lat": 39.1636864, "lon": -86.4983559}, {"type": "node", "id": 2795697397, "lat": 39.1634965, "lon": -86.4983531}, {"type": "node", "id": 2795697398, "lat": 39.1634949, "lon": -86.4985339}, {"type": "node", "id": 2795697399, "lat": 39.1635543, "lon": -86.4977891}, {"type": "node", "id": 2795697400, "lat": 39.1635725, "lon": -86.497642}, {"type": "node", "id": 2795697401, "lat": 39.1633424, "lon": -86.4975945}, {"type": "node", "id": 2795697402, "lat": 39.1633242, "lon": -86.4977417}, {"type": "node", "id": 2864218726, "lat": 39.1657087, "lon": -86.5270708, "tags": {"addr:city": "Bloomington", "addr:housenumber": "116", "addr:postcode": "47401", "addr:state": "IN", "addr:street": "South Indiana Avenue", "amenity": "fast_food", "brand": "Qdoba", "brand:wikidata": "Q1363885", "brand:wikipedia": "en:Qdoba", "cuisine": "mexican", "diet:vegetarian": "yes", "drive_through": "no", "name": "Qdoba", "official_name": "Qdoba Mexican Grill", "opening_hours": "Mo-Sa 10:30-22:30; Su 10:30-22:30", "takeaway": "yes"}}, {"type": "node", "id": 2864633801, "lat": 39.1655632, "lon": -86.4953853}, {"type": "node", "id": 2864633802, "lat": 39.1654581, "lon": -86.4953857}, {"type": "node", "id": 2864633803, "lat": 39.1654573, "lon": -86.4950798}, {"type": "node", "id": 2864633804, "lat": 39.1655624, "lon": -86.4950794}, {"type": "node", "id": 2864633805, "lat": 39.164991, "lon": -86.4953849}, {"type": "node", "id": 2864633806, "lat": 39.1646724, "lon": -86.4953878}, {"type": "node", "id": 2864633807, "lat": 39.1646701, "lon": -86.4952012}, {"type": "node", "id": 2864633808, "lat": 39.164991, "lon": -86.4951983}, {"type": "node", "id": 2864633809, "lat": 39.1649097, "lon": -86.4958338}, {"type": "node", "id": 2864633810, "lat": 39.1645978, "lon": -86.4958396}, {"type": "node", "id": 2864633811, "lat": 39.1645978, "lon": -86.4957317}, {"type": "node", "id": 2864633812, "lat": 39.1645797, "lon": -86.4957347}, {"type": "node", "id": 2864633813, "lat": 39.1645797, "lon": -86.4956385}, {"type": "node", "id": 2864633814, "lat": 39.1646046, "lon": -86.4956414}, {"type": "node", "id": 2864633815, "lat": 39.1646091, "lon": -86.4955714}, {"type": "node", "id": 2864633816, "lat": 39.1647583, "lon": -86.4955685}, {"type": "node", "id": 2864633817, "lat": 39.164756, "lon": -86.4956006}, {"type": "node", "id": 2864633818, "lat": 39.1648577, "lon": -86.4956006}, {"type": "node", "id": 2864633819, "lat": 39.1648554, "lon": -86.495723}, {"type": "node", "id": 2864633820, "lat": 39.1649074, "lon": -86.4957288}, {"type": "node", "id": 2864633821, "lat": 39.1646563, "lon": -86.4969004}, {"type": "node", "id": 2864633822, "lat": 39.164531, "lon": -86.496898}, {"type": "node", "id": 2864633823, "lat": 39.1645307, "lon": -86.4969226}, {"type": "node", "id": 2864633824, "lat": 39.1644224, "lon": -86.4969205}, {"type": "node", "id": 2864633825, "lat": 39.164424, "lon": -86.496783}, {"type": "node", "id": 2864633826, "lat": 39.1646576, "lon": -86.4967874}, {"type": "node", "id": 2864633859, "lat": 39.1647011, "lon": -86.494687}, {"type": "node", "id": 2864633860, "lat": 39.1646174, "lon": -86.4946852}, {"type": "node", "id": 2864633861, "lat": 39.1646201, "lon": -86.4946658}, {"type": "node", "id": 2864633862, "lat": 39.1645611, "lon": -86.494664}, {"type": "node", "id": 2864633863, "lat": 39.1645597, "lon": -86.4946852}, {"type": "node", "id": 2864633864, "lat": 39.16445, "lon": -86.4946817}, {"type": "node", "id": 2864633865, "lat": 39.16445, "lon": -86.4945419}, {"type": "node", "id": 2864633866, "lat": 39.1647024, "lon": -86.4945401}, {"type": "node", "id": 2864633867, "lat": 39.1646035, "lon": -86.4942391}, {"type": "node", "id": 2864633868, "lat": 39.1644196, "lon": -86.4942368}, {"type": "node", "id": 2864633869, "lat": 39.1644206, "lon": -86.4941023}, {"type": "node", "id": 2864633870, "lat": 39.1646045, "lon": -86.4941046}, {"type": "node", "id": 2864634104, "lat": 39.1640812, "lon": -86.4979858}, {"type": "node", "id": 2864634105, "lat": 39.1638834, "lon": -86.4979837}, {"type": "node", "id": 2864634111, "lat": 39.1638575, "lon": -86.497865}, {"type": "node", "id": 2864634113, "lat": 39.1640819, "lon": -86.4978673}, {"type": "node", "id": 2864634372, "lat": 39.159617, "lon": -86.4971675}, {"type": "node", "id": 2864634373, "lat": 39.1594193, "lon": -86.4971709}, {"type": "node", "id": 2864634374, "lat": 39.1594179, "lon": -86.4969476}, {"type": "node", "id": 2864634375, "lat": 39.1594606, "lon": -86.4969472}, {"type": "node", "id": 2864634376, "lat": 39.1594603, "lon": -86.4969119}, {"type": "node", "id": 2864634377, "lat": 39.1596154, "lon": -86.4969103}, {"type": "node", "id": 2864634378, "lat": 39.1595344, "lon": -86.4971698}, {"type": "node", "id": 2864634379, "lat": 39.1595766, "lon": -86.4972241}, {"type": "node", "id": 2864634380, "lat": 39.1595762, "lon": -86.4971679}, {"type": "node", "id": 2864634381, "lat": 39.1595347, "lon": -86.4972246}, {"type": "node", "id": 2864671505, "lat": 39.1577744, "lon": -86.4974292}, {"type": "node", "id": 2864671506, "lat": 39.1576537, "lon": -86.4974256}, {"type": "node", "id": 2864671507, "lat": 39.1576564, "lon": -86.497116}, {"type": "node", "id": 2864671508, "lat": 39.1577799, "lon": -86.4971195}, {"type": "node", "id": 2864675388, "lat": 39.1639431, "lon": -86.4936384}, {"type": "node", "id": 2864675389, "lat": 39.1639435, "lon": -86.4936}, {"type": "node", "id": 2864675390, "lat": 39.1638896, "lon": -86.4935991}, {"type": "node", "id": 2864675391, "lat": 39.1638926, "lon": -86.4933147}, {"type": "node", "id": 2864675392, "lat": 39.1640462, "lon": -86.4933174}, {"type": "node", "id": 2864675397, "lat": 39.1639994, "lon": -86.4944905}, {"type": "node", "id": 2864675398, "lat": 39.1637772, "lon": -86.4944807}, {"type": "node", "id": 2864675399, "lat": 39.1637797, "lon": -86.4943211}, {"type": "node", "id": 2864675400, "lat": 39.1639994, "lon": -86.4943276}, {"type": "node", "id": 2864748660, "lat": 39.1464137, "lon": -86.576754}, {"type": "node", "id": 2864748661, "lat": 39.1462666, "lon": -86.5767564}, {"type": "node", "id": 2864748662, "lat": 39.1462554, "lon": -86.5764659}, {"type": "node", "id": 2864748663, "lat": 39.1464081, "lon": -86.5764587}, {"type": "node", "id": 2864782237, "lat": 39.1641422, "lon": -86.5767669}, {"type": "node", "id": 2864782239, "lat": 39.1640359, "lon": -86.5767658}, {"type": "node", "id": 2864782240, "lat": 39.1639832, "lon": -86.5766653}, {"type": "node", "id": 2864782241, "lat": 39.1639833, "lon": -86.5766181}, {"type": "node", "id": 2864782242, "lat": 39.1640361, "lon": -86.5766194}, {"type": "node", "id": 2864782243, "lat": 39.1640385, "lon": -86.5764677}, {"type": "node", "id": 2864782244, "lat": 39.1641393, "lon": -86.5764698}, {"type": "node", "id": 2864782245, "lat": 39.1641571, "lon": -86.5758901}, {"type": "node", "id": 2864782246, "lat": 39.1639126, "lon": -86.5758879}, {"type": "node", "id": 2864782247, "lat": 39.1639139, "lon": -86.575648}, {"type": "node", "id": 2864782248, "lat": 39.1641584, "lon": -86.5756502}, {"type": "node", "id": 2864782249, "lat": 39.1642441, "lon": -86.5753041}, {"type": "node", "id": 2864782250, "lat": 39.1639701, "lon": -86.5753023}, {"type": "node", "id": 2864782251, "lat": 39.163971, "lon": -86.5750544}, {"type": "node", "id": 2864782252, "lat": 39.1642451, "lon": -86.5750562}, {"type": "node", "id": 2864782253, "lat": 39.164087, "lon": -86.5745639}, {"type": "node", "id": 2864782254, "lat": 39.1638345, "lon": -86.5745571}, {"type": "node", "id": 2864782255, "lat": 39.1638365, "lon": -86.5744348}, {"type": "node", "id": 2864782256, "lat": 39.1640889, "lon": -86.5744416}, {"type": "node", "id": 2864782273, "lat": 39.1650723, "lon": -86.5767982}, {"type": "node", "id": 2864782274, "lat": 39.1649922, "lon": -86.5767998}, {"type": "node", "id": 2864782275, "lat": 39.1649929, "lon": -86.576855}, {"type": "node", "id": 2864782276, "lat": 39.1649519, "lon": -86.5768558}, {"type": "node", "id": 2864782277, "lat": 39.1649513, "lon": -86.5768028}, {"type": "node", "id": 2864782278, "lat": 39.1648517, "lon": -86.5768048}, {"type": "node", "id": 2864782279, "lat": 39.1648502, "lon": -86.5766763}, {"type": "node", "id": 2864782280, "lat": 39.1650708, "lon": -86.5766719}, {"type": "node", "id": 2864782282, "lat": 39.1654415, "lon": -86.5766855}, {"type": "node", "id": 2864782283, "lat": 39.1654396, "lon": -86.576215}, {"type": "node", "id": 2864782284, "lat": 39.1656313, "lon": -86.576215}, {"type": "node", "id": 2864782468, "lat": 39.1653125, "lon": -86.5746176}, {"type": "node", "id": 2864782469, "lat": 39.1651649, "lon": -86.5746179}, {"type": "node", "id": 2864782470, "lat": 39.1651647, "lon": -86.5744706}, {"type": "node", "id": 2864782471, "lat": 39.1653123, "lon": -86.5744704}, {"type": "node", "id": 2864782474, "lat": 39.1653519, "lon": -86.5754591}, {"type": "node", "id": 2864782475, "lat": 39.1653034, "lon": -86.575458}, {"type": "node", "id": 2864782476, "lat": 39.1653006, "lon": -86.5755115}, {"type": "node", "id": 2864782477, "lat": 39.1652512, "lon": -86.5755076}, {"type": "node", "id": 2864782478, "lat": 39.1652431, "lon": -86.5752153}, {"type": "node", "id": 2864782479, "lat": 39.1653523, "lon": -86.5752204}, {"type": "node", "id": 2864782480, "lat": 39.1653526, "lon": -86.5753366}, {"type": "node", "id": 2864782481, "lat": 39.1653304, "lon": -86.5753336}, {"type": "node", "id": 2864782482, "lat": 39.1653296, "lon": -86.5753978}, {"type": "node", "id": 2864782483, "lat": 39.1653528, "lon": -86.5753981}, {"type": "node", "id": 2864782608, "lat": 39.1693753, "lon": -86.5728746}, {"type": "node", "id": 2864782609, "lat": 39.169311, "lon": -86.5729387}, {"type": "node", "id": 2864782610, "lat": 39.1693202, "lon": -86.5729596}, {"type": "node", "id": 2864782611, "lat": 39.169206, "lon": -86.5730619}, {"type": "node", "id": 2864782612, "lat": 39.1691241, "lon": -86.5729179}, {"type": "node", "id": 2864782613, "lat": 39.1691073, "lon": -86.5729347}, {"type": "node", "id": 2864782614, "lat": 39.1690329, "lon": -86.5728002}, {"type": "node", "id": 2864782615, "lat": 39.1691921, "lon": -86.572652}, {"type": "node", "id": 2864782616, "lat": 39.1692699, "lon": -86.5726664}, {"type": "node", "id": 2864782617, "lat": 39.1692985, "lon": -86.5726661}, {"type": "node", "id": 2864782618, "lat": 39.16934, "lon": -86.5727426}, {"type": "node", "id": 2864782619, "lat": 39.1693139, "lon": -86.5727642}, {"type": "node", "id": 2864782654, "lat": 39.1704678, "lon": -86.5719484}, {"type": "node", "id": 2864782655, "lat": 39.1703151, "lon": -86.5720853}, {"type": "node", "id": 2864782656, "lat": 39.1702091, "lon": -86.5718967}, {"type": "node", "id": 2864782657, "lat": 39.1701729, "lon": -86.5719258}, {"type": "node", "id": 2864782658, "lat": 39.1701413, "lon": -86.5718617}, {"type": "node", "id": 2864782659, "lat": 39.1701852, "lon": -86.5718253}, {"type": "node", "id": 2864782660, "lat": 39.1702102, "lon": -86.5718632}, {"type": "node", "id": 2864782661, "lat": 39.1703074, "lon": -86.5717757}, {"type": "node", "id": 2864782662, "lat": 39.1702848, "lon": -86.5717437}, {"type": "node", "id": 2864782663, "lat": 39.1703277, "lon": -86.5716999}, {"type": "node", "id": 2864782802, "lat": 39.1714965, "lon": -86.5708627}, {"type": "node", "id": 2864782803, "lat": 39.1712732, "lon": -86.5711267}, {"type": "node", "id": 2864782804, "lat": 39.1711075, "lon": -86.5709011}, {"type": "node", "id": 2864782805, "lat": 39.1713383, "lon": -86.5706298}, {"type": "node", "id": 2864782812, "lat": 39.1727009, "lon": -86.5692874}, {"type": "node", "id": 2864782813, "lat": 39.1724977, "lon": -86.5693133}, {"type": "node", "id": 2864782814, "lat": 39.1724689, "lon": -86.5690349}, {"type": "node", "id": 2864782815, "lat": 39.1725775, "lon": -86.5690211}, {"type": "node", "id": 2864782816, "lat": 39.1727393, "lon": -86.5692005}, {"type": "node", "id": 2864782817, "lat": 39.1726927, "lon": -86.5692087}, {"type": "node", "id": 2864824929, "lat": 39.1650447, "lon": -86.5815283}, {"type": "node", "id": 2864824930, "lat": 39.1649236, "lon": -86.5815271}, {"type": "node", "id": 2864824931, "lat": 39.1649251, "lon": -86.5812631}, {"type": "node", "id": 2864824932, "lat": 39.1650462, "lon": -86.5812643}, {"type": "node", "id": 2864824933, "lat": 39.1651362, "lon": -86.580676}, {"type": "node", "id": 2864824934, "lat": 39.1650182, "lon": -86.580676}, {"type": "node", "id": 2864824935, "lat": 39.1650197, "lon": -86.5806424}, {"type": "node", "id": 2864824936, "lat": 39.1649246, "lon": -86.5806404}, {"type": "node", "id": 2864824937, "lat": 39.1649246, "lon": -86.5805297}, {"type": "node", "id": 2864824938, "lat": 39.1650044, "lon": -86.5805336}, {"type": "node", "id": 2864824939, "lat": 39.1650013, "lon": -86.5805099}, {"type": "node", "id": 2864824940, "lat": 39.1651377, "lon": -86.5805099}, {"type": "node", "id": 2864824941, "lat": 39.1650778, "lon": -86.5801474}, {"type": "node", "id": 2864824942, "lat": 39.1648371, "lon": -86.5801434}, {"type": "node", "id": 2864824943, "lat": 39.1648371, "lon": -86.5799695}, {"type": "node", "id": 2864824944, "lat": 39.1650011, "lon": -86.5799754}, {"type": "node", "id": 2864824945, "lat": 39.1649996, "lon": -86.5800426}, {"type": "node", "id": 2864824946, "lat": 39.1650808, "lon": -86.5800446}, {"type": "node", "id": 2864824955, "lat": 39.1644131, "lon": -86.5812515}, {"type": "node", "id": 2864824956, "lat": 39.1642844, "lon": -86.5812495}, {"type": "node", "id": 2864824957, "lat": 39.1642828, "lon": -86.5810835}, {"type": "node", "id": 2864824958, "lat": 39.1644131, "lon": -86.5810854}, {"type": "node", "id": 2864824995, "lat": 39.1639865, "lon": -86.5795422}, {"type": "node", "id": 2864824996, "lat": 39.1639868, "lon": -86.5793203}, {"type": "node", "id": 2864824997, "lat": 39.1641625, "lon": -86.5793206}, {"type": "node", "id": 2864825301, "lat": 39.165169, "lon": -86.5717347}, {"type": "node", "id": 2864825302, "lat": 39.1650805, "lon": -86.5717343}, {"type": "node", "id": 2864825303, "lat": 39.1650804, "lon": -86.5717773}, {"type": "node", "id": 2864825304, "lat": 39.1650068, "lon": -86.5717769}, {"type": "node", "id": 2864825305, "lat": 39.165007, "lon": -86.5717189}, {"type": "node", "id": 2864825306, "lat": 39.1649721, "lon": -86.5717187}, {"type": "node", "id": 2864825307, "lat": 39.1649728, "lon": -86.571485}, {"type": "node", "id": 2864825308, "lat": 39.1651697, "lon": -86.5714859}, {"type": "node", "id": 2864825325, "lat": 39.1658791, "lon": -86.5706993}, {"type": "node", "id": 2864825326, "lat": 39.1657649, "lon": -86.5707015}, {"type": "node", "id": 2864825327, "lat": 39.1657636, "lon": -86.5705932}, {"type": "node", "id": 2864825328, "lat": 39.1657198, "lon": -86.570594}, {"type": "node", "id": 2864825329, "lat": 39.1657182, "lon": -86.5704548}, {"type": "node", "id": 2864825330, "lat": 39.1658762, "lon": -86.5704517}, {"type": "node", "id": 2864825362, "lat": 39.1677226, "lon": -86.5717672}, {"type": "node", "id": 2864825363, "lat": 39.1677212, "lon": -86.5714657}, {"type": "node", "id": 2864825364, "lat": 39.1679832, "lon": -86.5714637}, {"type": "node", "id": 2864825365, "lat": 39.1679834, "lon": -86.5715083}, {"type": "node", "id": 2864825366, "lat": 39.1680074, "lon": -86.5715081}, {"type": "node", "id": 2864825367, "lat": 39.1680081, "lon": -86.5716653}, {"type": "node", "id": 2864825368, "lat": 39.1679838, "lon": -86.5716655}, {"type": "node", "id": 2864825370, "lat": 39.168705, "lon": -86.5713474}, {"type": "node", "id": 2864825371, "lat": 39.1685777, "lon": -86.5709441}, {"type": "node", "id": 2864825372, "lat": 39.1687065, "lon": -86.5708848}, {"type": "node", "id": 2864846601, "lat": 39.1870867, "lon": -86.5338708}, {"type": "node", "id": 2864846602, "lat": 39.1870874, "lon": -86.5334891}, {"type": "node", "id": 2864846603, "lat": 39.1872408, "lon": -86.5334895}, {"type": "node", "id": 2864846698, "lat": 39.186053, "lon": -86.5342284}, {"type": "node", "id": 2864846699, "lat": 39.1858465, "lon": -86.5342236}, {"type": "node", "id": 2864846700, "lat": 39.1858502, "lon": -86.5339739}, {"type": "node", "id": 2864846801, "lat": 39.1859581, "lon": -86.5339739}, {"type": "node", "id": 2864846802, "lat": 39.1859562, "lon": -86.5340075}, {"type": "node", "id": 2864846803, "lat": 39.1860288, "lon": -86.5340075}, {"type": "node", "id": 2864846804, "lat": 39.1860288, "lon": -86.5341011}, {"type": "node", "id": 2864846805, "lat": 39.1860586, "lon": -86.5341035}, {"type": "node", "id": 2865040561, "lat": 39.16828, "lon": -86.5334752}, {"type": "node", "id": 2865040564, "lat": 39.1682773, "lon": -86.5329903}, {"type": "node", "id": 2865040579, "lat": 39.1676781, "lon": -86.5337396}, {"type": "node", "id": 2865040580, "lat": 39.1680446, "lon": -86.5337403}, {"type": "node", "id": 2865040582, "lat": 39.1676847, "lon": -86.5345497}, {"type": "node", "id": 2865040969, "lat": 39.1690152, "lon": -86.5341628}, {"type": "node", "id": 2865040970, "lat": 39.1689017, "lon": -86.5341596}, {"type": "node", "id": 2865040971, "lat": 39.1689056, "lon": -86.5338453}, {"type": "node", "id": 2865040972, "lat": 39.1690175, "lon": -86.5338484}, {"type": "node", "id": 2865040996, "lat": 39.1670676, "lon": -86.535627}, {"type": "node", "id": 2865040997, "lat": 39.1666982, "lon": -86.535636}, {"type": "node", "id": 2865041000, "lat": 39.1672492, "lon": -86.536024}, {"type": "node", "id": 2865041301, "lat": 39.1672478, "lon": -86.5359152}, {"type": "node", "id": 2865041306, "lat": 39.1674755, "lon": -86.5359102}, {"type": "node", "id": 3003503468, "lat": 39.1663861, "lon": -86.5288166, "tags": {"amenity": "fast_food", "brand": "Raising Cane's", "brand:wikidata": "Q7285144", "brand:wikipedia": "en:Which Wich?", "cuisine": "chicken", "name": "Raising Cane's", "official_name": "Raising Cane's Chicken Fingers", "takeaway": "yes"}}, {"type": "node", "id": 3068689329, "lat": 39.1694084, "lon": -86.5339452}, {"type": "node", "id": 3068689330, "lat": 39.1694079, "lon": -86.5338453}, {"type": "node", "id": 3068689331, "lat": 39.1692583, "lon": -86.5338464}, {"type": "node", "id": 3068689332, "lat": 39.1692579, "lon": -86.5337531}, {"type": "node", "id": 3068695633, "lat": 39.1690741, "lon": -86.5337545}, {"type": "node", "id": 3068695634, "lat": 39.169076, "lon": -86.5341815}, {"type": "node", "id": 3068695635, "lat": 39.1693229, "lon": -86.5341796}, {"type": "node", "id": 3068695636, "lat": 39.169438, "lon": -86.5342119}, {"type": "node", "id": 3068695637, "lat": 39.1694368, "lon": -86.533945}, {"type": "node", "id": 3137680729, "lat": 39.163618, "lon": -86.47541}, {"type": "node", "id": 3194146564, "lat": 39.1736302, "lon": -86.5372119}, {"type": "node", "id": 3194146565, "lat": 39.1733596, "lon": -86.5372312}, {"type": "node", "id": 3194146568, "lat": 39.1735065, "lon": -86.5376412}, {"type": "node", "id": 3372159993, "lat": 39.1508337, "lon": -86.5271688, "tags": {"amenity": "cafe", "capacity": "30", "cuisine": "coffee_shop;local;american", "name": "Soma", "opening_hours": "Mo-Fr 06:00-18:00; Sa,Su 07:00-18:00", "outdoor_seating": "yes", "smoking": "no", "takeaway": "yes"}}, {"type": "node", "id": 3391432714, "lat": 39.1657544, "lon": -86.4985551, "tags": {"amenity": "cafe", "brand": "Starbucks", "brand:wikidata": "Q37158", "brand:wikipedia": "en:Starbucks", "contact:website": "https://www.starbucks.com/store-locator/store/13777/3rd-st-46-bypass-115-s-sr-46-bypass-a-bloomington-in-474084434-us", "cuisine": "coffee_shop", "diet:vegetarian": "yes", "name": "Starbucks", "official_name": "Starbucks Coffee", "opening_hours": "Mo-Sa 05:00-20:30; Su 06:00-20:30", "takeaway": "yes"}}, {"type": "node", "id": 3478818359, "lat": 39.1663501, "lon": -86.5285105, "tags": {"addr:city": "Bloomington", "addr:housenumber": "430", "addr:postcode": "47408", "addr:state": "IN", "addr:street": "East Kirkwood Avenue", "amenity": "bar", "name": "Kilroy's - The Dunnkirk", "opening_hours": "Mo-Su 16:00-03:00"}}, {"type": "node", "id": 3478818360, "lat": 39.1663473, "lon": -86.5283681, "tags": {"addr:city": "Bloomington", "addr:housenumber": "430", "addr:postcode": "47408", "addr:state": "IN", "addr:street": "East Kirkwood Avenue", "amenity": "bar", "name": "The Upstairs Pub", "opening_hours": "Mo-Sa 15:00-03:00; Su closed"}}, {"type": "node", "id": 3595098093, "lat": 39.162852, "lon": -86.498847, "tags": {"amenity": "restaurant", "brand": "IHOP", "brand:wikidata": "Q1185675", "brand:wikipedia": "en:IHOP", "cuisine": "breakfast;pancake", "name": "IHOP"}}, {"type": "node", "id": 3603529501, "lat": 39.1650132, "lon": -86.5299822, "tags": {"amenity": "cafe", "branch": "Taro", "brand": "CoCo", "brand:wikidata": "Q65084369", "cuisine": "bubble_tea", "name": "CoCo Fresh Tea & Juice", "short_name": "CoCo", "takeaway": "yes"}}, {"type": "node", "id": 3628663063, "lat": 39.1640343, "lon": -86.5766662}, {"type": "node", "id": 3649228947, "lat": 39.1657489, "lon": -86.497851, "tags": {"addr:city": "Bloomington", "addr:housenumber": "115", "addr:postcode": "47408", "addr:state": "IN", "addr:street": "South State Road 46 Bypass", "amenity": "fast_food", "brand": "Moe's Southwest Grill", "brand:wikidata": "Q6889938", "brand:wikipedia": "en:Moe's Southwest Grill", "cuisine": "mexican", "diet:vegetarian": "yes", "name": "Moe's Southwest Grill", "opening_hours": "Su-Th 11:00-21:00; Fr-Sa 11:00-22:00", "phone": "+1-812-336-6637", "short_name": "Moe's", "takeaway": "yes", "website": "https://www.moes.com/"}}, {"type": "node", "id": 3764377457, "lat": 39.1654585, "lon": -86.5303537}, {"type": "node", "id": 3803010040, "lat": 39.1645879, "lon": -86.5503547, "tags": {"amenity": "fast_food", "cuisine": "donut", "drive_through": "no", "name": "Cresent Donuts", "opening_hours": "We-Su 07:00-18:00", "takeaway": "yes"}}, {"type": "node", "id": 3803010041, "lat": 39.1654905, "lon": -86.5506609, "tags": {"amenity": "fast_food", "cuisine": "burger", "name": "Hinkle's Hamburgers", "opening_hours": "Tu-Sa 10:00-16:00"}}, {"type": "node", "id": 3803010047, "lat": 39.1639784, "lon": -86.5016422, "tags": {"amenity": "restaurant", "cuisine": "mexican", "name": "Viva Mas", "outdoor_seating": "yes"}}, {"type": "node", "id": 3803010049, "lat": 39.1647603, "lon": -86.5307794}, {"type": "node", "id": 3803010050, "lat": 39.1647603, "lon": -86.5307236}, {"type": "node", "id": 3803010051, "lat": 39.1648816, "lon": -86.53072}, {"type": "node", "id": 3803010053, "lat": 39.1647618, "lon": -86.5309533}, {"type": "node", "id": 3803010054, "lat": 39.1647612, "lon": -86.5308417}, {"type": "node", "id": 3803010055, "lat": 39.1648825, "lon": -86.5308432}, {"type": "node", "id": 3803010056, "lat": 39.1648826, "lon": -86.530775}, {"type": "node", "id": 3803010757, "lat": 39.1648831, "lon": -86.5309521}, {"type": "node", "id": 3817482586, "lat": 39.1674174, "lon": -86.529012}, {"type": "node", "id": 3817482587, "lat": 39.1674122, "lon": -86.5291613}, {"type": "node", "id": 3817482588, "lat": 39.1672493, "lon": -86.5291519}, {"type": "node", "id": 3817482589, "lat": 39.1672545, "lon": -86.5290026}, {"type": "node", "id": 3817517020, "lat": 39.1435425, "lon": -86.5322646}, {"type": "node", "id": 3817517021, "lat": 39.1434438, "lon": -86.5322575}, {"type": "node", "id": 3817517022, "lat": 39.1434383, "lon": -86.5319992}, {"type": "node", "id": 3817517023, "lat": 39.1435535, "lon": -86.5319957}, {"type": "node", "id": 3843219336, "lat": 39.1683497, "lon": -86.5337732, "tags": {"addr:city": "Bloomington", "addr:housenumber": "105", "addr:postcode": "47408", "addr:state": "IN", "addr:street": "West 7th Street", "amenity": "bar", "name": "The Video Saloon", "note": "Dive Bar", "opening_hours": "17:00-03:00", "smoking": "no"}}, {"type": "node", "id": 4259887008, "lat": 39.2239743, "lon": -86.6096632}, {"type": "node", "id": 4259887010, "lat": 39.2239601, "lon": -86.6093669}, {"type": "node", "id": 4259887011, "lat": 39.2239203, "lon": -86.6094037}, {"type": "node", "id": 4259887012, "lat": 39.2239326, "lon": -86.6094258}, {"type": "node", "id": 4259887013, "lat": 39.2238722, "lon": -86.6094817}, {"type": "node", "id": 4259887014, "lat": 39.2239145, "lon": -86.6095578}, {"type": "node", "id": 4259887015, "lat": 39.2239028, "lon": -86.6095686}, {"type": "node", "id": 4259887016, "lat": 39.2239445, "lon": -86.6096438}, {"type": "node", "id": 4259887017, "lat": 39.2239571, "lon": -86.6096321}, {"type": "node", "id": 4259887085, "lat": 39.2216299, "lon": -86.6069967}, {"type": "node", "id": 4259887086, "lat": 39.2214282, "lon": -86.6071262}, {"type": "node", "id": 4259887087, "lat": 39.221486, "lon": -86.6072764}, {"type": "node", "id": 4259887109, "lat": 39.2219003, "lon": -86.6058165}, {"type": "node", "id": 4259887110, "lat": 39.2217342, "lon": -86.6059765}, {"type": "node", "id": 4259887111, "lat": 39.2218047, "lon": -86.6060985}, {"type": "node", "id": 4259887259, "lat": 39.2163694, "lon": -86.5967097}, {"type": "node", "id": 4259887260, "lat": 39.216274, "lon": -86.5967393}, {"type": "node", "id": 4259887261, "lat": 39.216277, "lon": -86.5967556}, {"type": "node", "id": 4259887262, "lat": 39.2162381, "lon": -86.5967676}, {"type": "node", "id": 4259887263, "lat": 39.2162617, "lon": -86.5968948}, {"type": "node", "id": 4261692719, "lat": 39.2112174, "lon": -86.5860751}, {"type": "node", "id": 4261692720, "lat": 39.211447, "lon": -86.5860548}, {"type": "node", "id": 4261692721, "lat": 39.2114135, "lon": -86.5859599}, {"type": "node", "id": 4261692735, "lat": 39.2102758, "lon": -86.5838938}, {"type": "node", "id": 4261692736, "lat": 39.2103089, "lon": -86.5838576}, {"type": "node", "id": 4261692737, "lat": 39.2102806, "lon": -86.5838135}, {"type": "node", "id": 4261692738, "lat": 39.2102465, "lon": -86.5838475}, {"type": "node", "id": 4261692739, "lat": 39.210195, "lon": -86.5837663}, {"type": "node", "id": 4261692740, "lat": 39.2101037, "lon": -86.583857}, {"type": "node", "id": 4261692741, "lat": 39.2102618, "lon": -86.584109}, {"type": "node", "id": 4264058866, "lat": 39.2164097, "lon": -86.593209}, {"type": "node", "id": 4264058867, "lat": 39.21641, "lon": -86.5932671}, {"type": "node", "id": 4264058868, "lat": 39.2164011, "lon": -86.5932672}, {"type": "node", "id": 4264058869, "lat": 39.2164014, "lon": -86.5933197}, {"type": "node", "id": 4264058870, "lat": 39.2164099, "lon": -86.5933196}, {"type": "node", "id": 4264058871, "lat": 39.2164104, "lon": -86.5934173}, {"type": "node", "id": 4284749510, "lat": 39.2344564, "lon": -86.6238413}, {"type": "node", "id": 4284749511, "lat": 39.2344929, "lon": -86.6238009}, {"type": "node", "id": 4284749512, "lat": 39.2344381, "lon": -86.6237182}, {"type": "node", "id": 4284749513, "lat": 39.2344119, "lon": -86.6237472}, {"type": "node", "id": 4284749514, "lat": 39.2344231, "lon": -86.623764}, {"type": "node", "id": 4284749515, "lat": 39.2344127, "lon": -86.6237755}, {"type": "node", "id": 4418368635, "lat": 39.1711151, "lon": -86.5244241, "tags": {"amenity": "cafe", "cuisine": "coffee_shop", "description": "Part of the Collins Living Learning Center", "internet_access": "wlan", "name": "Cheshire Cafe", "opening_hours": "08:00-12:00", "smoking": "no"}}, {"type": "node", "id": 4436490149, "lat": 39.1571362, "lon": -86.535971}, {"type": "node", "id": 4467147302, "lat": 39.2320002, "lon": -86.6220098}, {"type": "node", "id": 4636730791, "lat": 39.1612692, "lon": -86.5261908}, {"type": "node", "id": 4636730792, "lat": 39.1610091, "lon": -86.526276}, {"type": "node", "id": 4636730793, "lat": 39.1610063, "lon": -86.5264968}, {"type": "node", "id": 4659347684, "lat": 39.1639924, "lon": -86.5766183}, {"type": "node", "id": 4659347685, "lat": 39.1639925, "lon": -86.5766654}, {"type": "node", "id": 4666793389, "lat": 39.1717601, "lon": -86.5100506}, {"type": "node", "id": 4666793390, "lat": 39.1716755, "lon": -86.5100516}, {"type": "node", "id": 4666793391, "lat": 39.1716747, "lon": -86.5099487}, {"type": "node", "id": 4666793392, "lat": 39.1717593, "lon": -86.5099477}, {"type": "node", "id": 4705799881, "lat": 39.1628157, "lon": -86.4977147}, {"type": "node", "id": 4705799882, "lat": 39.1625564, "lon": -86.4976697}, {"type": "node", "id": 4705799883, "lat": 39.1625776, "lon": -86.4974633}, {"type": "node", "id": 4705799884, "lat": 39.1625942, "lon": -86.4974661}, {"type": "node", "id": 4705799885, "lat": 39.1625973, "lon": -86.4974359}, {"type": "node", "id": 4705799886, "lat": 39.1628149, "lon": -86.4974731}, {"type": "node", "id": 4705799887, "lat": 39.1628137, "lon": -86.4974847}, {"type": "node", "id": 4705799888, "lat": 39.1628389, "lon": -86.497489}, {"type": "node", "id": 4705799989, "lat": 39.1626932, "lon": -86.4976938}, {"type": "node", "id": 4705799990, "lat": 39.1626907, "lon": -86.4977182}, {"type": "node", "id": 4705799991, "lat": 39.1626438, "lon": -86.4977315}, {"type": "node", "id": 4705799992, "lat": 39.1626729, "lon": -86.4977365}, {"type": "node", "id": 4705799993, "lat": 39.1626326, "lon": -86.4976828}, {"type": "node", "id": 4705799994, "lat": 39.1626751, "lon": -86.4977156}, {"type": "node", "id": 4705799995, "lat": 39.1626459, "lon": -86.4977107}, {"type": "node", "id": 4705799996, "lat": 39.16263, "lon": -86.497708}, {"type": "node", "id": 4705800037, "lat": 39.1640499, "lon": -86.4964017}, {"type": "node", "id": 4705800038, "lat": 39.1640507, "lon": -86.4961221}, {"type": "node", "id": 4705800039, "lat": 39.1638647, "lon": -86.4961211}, {"type": "node", "id": 4705800040, "lat": 39.1638638, "lon": -86.4963997}, {"type": "node", "id": 4705800041, "lat": 39.1639486, "lon": -86.4964002}, {"type": "node", "id": 4705800042, "lat": 39.1639485, "lon": -86.4964217}, {"type": "node", "id": 4705800043, "lat": 39.1639857, "lon": -86.4964219}, {"type": "node", "id": 4705800044, "lat": 39.1639858, "lon": -86.4964014}, {"type": "node", "id": 4730678207, "lat": 39.1669555, "lon": -86.5355078}, {"type": "node", "id": 4730678208, "lat": 39.1669538, "lon": -86.5350225}, {"type": "node", "id": 4730678211, "lat": 39.1668786, "lon": -86.5350276}, {"type": "node", "id": 4730678213, "lat": 39.1668092, "lon": -86.535259}, {"type": "node", "id": 4730678214, "lat": 39.1668079, "lon": -86.535026}, {"type": "node", "id": 4730678216, "lat": 39.1668106, "lon": -86.5354324}, {"type": "node", "id": 4730678217, "lat": 39.166699, "lon": -86.535027}, {"type": "node", "id": 4730678521, "lat": 39.166701, "lon": -86.5355115}, {"type": "node", "id": 4730678522, "lat": 39.1667006, "lon": -86.5354334}, {"type": "node", "id": 4730678523, "lat": 39.166811, "lon": -86.5355105}, {"type": "node", "id": 4730678525, "lat": 39.1667021, "lon": -86.5357776}, {"type": "node", "id": 4730678526, "lat": 39.1670661, "lon": -86.5355275}, {"type": "node", "id": 4730678528, "lat": 39.1667362, "lon": -86.5358234, "tags": {"addr:street": "West Kirkwood Avenue", "amenity": "restaurant", "name": "Irish Lion Glen", "outdoor_seating": "yes", "phone": "+1-812-336-9076", "website": "https://www.irishlion.com/banquets"}}, {"type": "node", "id": 4751887700, "lat": 39.1744266, "lon": -86.5183995}, {"type": "node", "id": 4764289572, "lat": 39.1527601, "lon": -86.5334501, "tags": {"addr:city": "Bloomington", "addr:housenumber": "1121", "addr:postcode": "47401", "addr:state": "IN", "addr:street": "South Walnut Street", "amenity": "bar", "name": "Oddball Fermentables", "opening_hours": "Fr 17:00-22:00; Sa 15:00-22:00; Su 14:00-17:00", "outdoor_seating": "yes", "smoking": "no", "website": "http://www.oddballcyser.com/"}}, {"type": "node", "id": 4766677820, "lat": 39.1735094, "lon": -86.5372299}, {"type": "node", "id": 4766685821, "lat": 39.1735093, "lon": -86.5372129}, {"type": "node", "id": 4874771021, "lat": 39.1641622, "lon": -86.5795425}, {"type": "node", "id": 4948970930, "lat": 39.148958, "lon": -86.499684}, {"type": "node", "id": 5039466209, "lat": 39.167686, "lon": -86.5346193}, {"type": "node", "id": 5039466210, "lat": 39.1680479, "lon": -86.5346123}, {"type": "node", "id": 5039466211, "lat": 39.1680468, "lon": -86.5345418}, {"type": "node", "id": 5087333862, "lat": 39.1632964, "lon": -86.5341117}, {"type": "node", "id": 5087333863, "lat": 39.1632934, "lon": -86.5338332}, {"type": "node", "id": 5087333864, "lat": 39.1630491, "lon": -86.5338376}, {"type": "node", "id": 5087333865, "lat": 39.1630521, "lon": -86.534116}, {"type": "node", "id": 5131881061, "lat": 39.1657798, "lon": -86.5333355, "tags": {"addr:city": "Bloomington", "addr:housenumber": "123", "addr:postcode": "47404", "addr:state": "IN", "addr:street": "South Walnut Street", "amenity": "bar", "amenity_1": "music_venue", "name": "The Bishop Bar", "outdoor_seating": "yes", "website": "http://www.thebishopbar.com/", "wheelchair": "yes"}}, {"type": "node", "id": 5371870216, "lat": 39.145457, "lon": -86.5316881}, {"type": "node", "id": 5371870217, "lat": 39.1454489, "lon": -86.5313977}, {"type": "node", "id": 5371870218, "lat": 39.1455435, "lon": -86.5313933}, {"type": "node", "id": 5371870220, "lat": 39.1457924, "lon": -86.5317468}, {"type": "node", "id": 5371871421, "lat": 39.1457897, "lon": -86.5315075}, {"type": "node", "id": 5371871422, "lat": 39.1459471, "lon": -86.5315046}, {"type": "node", "id": 5371871423, "lat": 39.1455516, "lon": -86.5316837}, {"type": "node", "id": 5371884271, "lat": 39.1538159, "lon": -86.4973802}, {"type": "node", "id": 5376047011, "lat": 39.1661732, "lon": -86.5715819}, {"type": "node", "id": 5376047012, "lat": 39.165888, "lon": -86.5715868}, {"type": "node", "id": 5376047013, "lat": 39.1658846, "lon": -86.5712523}, {"type": "node", "id": 5376047014, "lat": 39.1661698, "lon": -86.5712474}, {"type": "node", "id": 5395097727, "lat": 39.1209611, "lon": -86.5308796}, {"type": "node", "id": 5395097728, "lat": 39.1209624, "lon": -86.5306713}, {"type": "node", "id": 5395097729, "lat": 39.1211825, "lon": -86.5306735}, {"type": "node", "id": 5421672134, "lat": 39.1600448, "lon": -86.533398}, {"type": "node", "id": 5421672135, "lat": 39.1599297, "lon": -86.5334035}, {"type": "node", "id": 5421672136, "lat": 39.1599246, "lon": -86.5331698}, {"type": "node", "id": 5421672137, "lat": 39.1600382, "lon": -86.5331656}, {"type": "node", "id": 5421672138, "lat": 39.1603936, "lon": -86.5334748}, {"type": "node", "id": 5421672139, "lat": 39.1602973, "lon": -86.5334767}, {"type": "node", "id": 5421672140, "lat": 39.1603066, "lon": -86.5332579}, {"type": "node", "id": 5421672141, "lat": 39.1603735, "lon": -86.5332566}, {"type": "node", "id": 5421672174, "lat": 39.1619641, "lon": -86.5338117}, {"type": "node", "id": 5421672175, "lat": 39.1619629, "lon": -86.5340318}, {"type": "node", "id": 5421672176, "lat": 39.1621834, "lon": -86.5340338}, {"type": "node", "id": 5421672177, "lat": 39.1621845, "lon": -86.5338136}, {"type": "node", "id": 5457875723, "lat": 39.1384983, "lon": -86.5310159}, {"type": "node", "id": 5457875724, "lat": 39.1384937, "lon": -86.5307497}, {"type": "node", "id": 5457875725, "lat": 39.1386001, "lon": -86.5307483}, {"type": "node", "id": 5459706427, "lat": 39.157136, "lon": -86.5361483}, {"type": "node", "id": 5459706428, "lat": 39.1573913, "lon": -86.5361488}, {"type": "node", "id": 5459706429, "lat": 39.1573915, "lon": -86.5359715}, {"type": "node", "id": 5468069682, "lat": 39.1361334, "lon": -86.5314922}, {"type": "node", "id": 5468069683, "lat": 39.1363504, "lon": -86.531494}, {"type": "node", "id": 5468069684, "lat": 39.1363495, "lon": -86.5313495}, {"type": "node", "id": 5474402545, "lat": 39.1654106, "lon": -86.5346298, "tags": {"addr:city": "Bloomington", "addr:housenumber": "201", "addr:postcode": "47401", "addr:state": "IN", "addr:street": "South College Avenue", "amenity": "bar", "brewery": "yes", "description": "different types of beer are brewed: guinness;Upland;various;PBR (taking over from value of brewery)", "name": "Serendipity Martini Bar", "opening_hours": "Mo, Th 19:00-24:00; Fr, Sa 19:00-26:00", "outdoor_seating": "yes", "payment:cash": "yes", "phone": "+1-812-330-6688", "smoking": "outside", "website": "http://serendipitymartini.com"}}, {"type": "node", "id": 5483643222, "lat": 39.178739, "lon": -86.538729}, {"type": "node", "id": 5483643223, "lat": 39.1785835, "lon": -86.5387387}, {"type": "node", "id": 5483643224, "lat": 39.178581, "lon": -86.5386869}, {"type": "node", "id": 5483643225, "lat": 39.1785309, "lon": -86.5386902}, {"type": "node", "id": 5483643226, "lat": 39.1785284, "lon": -86.5385737}, {"type": "node", "id": 5483643227, "lat": 39.1784883, "lon": -86.538577}, {"type": "node", "id": 5483643228, "lat": 39.1784883, "lon": -86.5385123}, {"type": "node", "id": 5483643229, "lat": 39.1785735, "lon": -86.538509}, {"type": "node", "id": 5483643230, "lat": 39.1787264, "lon": -86.5384961}, {"type": "node", "id": 5483643231, "lat": 39.178734, "lon": -86.5386028}, {"type": "node", "id": 5548333708, "lat": 39.1382589, "lon": -86.5297482}, {"type": "node", "id": 5548333709, "lat": 39.1383535, "lon": -86.5297491}, {"type": "node", "id": 5548333710, "lat": 39.1383571, "lon": -86.5299308}, {"type": "node", "id": 5548334235, "lat": 39.1371609, "lon": -86.5292705}, {"type": "node", "id": 5548334236, "lat": 39.1371529, "lon": -86.5291056}, {"type": "node", "id": 5548334237, "lat": 39.137225, "lon": -86.5291013}, {"type": "node", "id": 5548334238, "lat": 39.1372352, "lon": -86.5292622}, {"type": "node", "id": 5548334411, "lat": 39.159527, "lon": -86.5340139}, {"type": "node", "id": 5548334412, "lat": 39.1595722, "lon": -86.5340137}, {"type": "node", "id": 5548334413, "lat": 39.1595727, "lon": -86.5341903}, {"type": "node", "id": 5570228429, "lat": 39.1725803, "lon": -86.5693697}, {"type": "node", "id": 5570228430, "lat": 39.1726443, "lon": -86.5692973}, {"type": "node", "id": 5570228431, "lat": 39.1726516, "lon": -86.5693609}, {"type": "node", "id": 5570228432, "lat": 39.1725731, "lon": -86.5693064}, {"type": "node", "id": 5577008976, "lat": 39.1526359, "lon": -86.4972509, "tags": {"amenity": "restaurant", "name": "Aver's Pizza"}}, {"type": "node", "id": 5577008978, "lat": 39.1524981, "lon": -86.4972621, "tags": {"amenity": "restaurant"}}, {"type": "node", "id": 5579231112, "lat": 39.1725763, "lon": -86.5690035}, {"type": "node", "id": 5579231113, "lat": 39.1726692, "lon": -86.568988}, {"type": "node", "id": 5579231114, "lat": 39.1726783, "lon": -86.5690842}, {"type": "node", "id": 5579231115, "lat": 39.1727244, "lon": -86.569078}, {"type": "node", "id": 5579268903, "lat": 39.1692706, "lon": -86.5726498}, {"type": "node", "id": 5579268904, "lat": 39.1690928, "lon": -86.5727402}, {"type": "node", "id": 5579268905, "lat": 39.1691102, "lon": -86.5727719}, {"type": "node", "id": 5579268906, "lat": 39.1691345, "lon": -86.5727488}, {"type": "node", "id": 5579268907, "lat": 39.1691197, "lon": -86.5727226}, {"type": "node", "id": 5579268908, "lat": 39.1692178, "lon": -86.5726818}, {"type": "node", "id": 5579268909, "lat": 39.1692172, "lon": -86.572647}, {"type": "node", "id": 5579268910, "lat": 39.1692081, "lon": -86.5726823}, {"type": "node", "id": 5607905453, "lat": 39.1669106, "lon": -86.5405942}, {"type": "node", "id": 5608201176, "lat": 39.1666629, "lon": -86.528699}, {"type": "node", "id": 5624629019, "lat": 39.1533961, "lon": -86.538327, "tags": {"addr:city": "Bloomington", "addr:housenumber": "407", "addr:postcode": "47403", "addr:state": "IN", "addr:street": "W Patterson Dr", "amenity": "restaurant", "name": "Feast Market & Cellar"}}, {"type": "node", "id": 5706470836, "lat": 39.1640428, "lon": -86.4936401}, {"type": "node", "id": 5754954602, "lat": 39.1627054, "lon": -86.5764177, "tags": {"amenity": "restaurant", "cuisine": "chinese", "name": "Dragon"}}, {"type": "node", "id": 5780534161, "lat": 39.1648157, "lon": -86.5538685}, {"type": "node", "id": 5780534162, "lat": 39.1649463, "lon": -86.5538747}, {"type": "node", "id": 5824563946, "lat": 39.1827887, "lon": -86.535266}, {"type": "node", "id": 5824563947, "lat": 39.1827905, "lon": -86.5350146}, {"type": "node", "id": 5824563948, "lat": 39.1829477, "lon": -86.5350165}, {"type": "node", "id": 5910364037, "lat": 39.1173033, "lon": -86.4286815}, {"type": "node", "id": 5910364038, "lat": 39.1161568, "lon": -86.428064}, {"type": "node", "id": 5912866452, "lat": 39.1726086, "lon": -86.569234, "tags": {"amenity": "restaurant", "cuisine": "pizza", "name": "Mother Bear's Pizza"}}, {"type": "node", "id": 5919565135, "lat": 39.1660247, "lon": -86.5270275}, {"type": "node", "id": 5919567604, "lat": 39.164752, "lon": -86.4725154}, {"type": "node", "id": 5955026764, "lat": 39.1651465, "lon": -86.5126146, "tags": {"amenity": "food_court", "name": "The Restaurants at Woodland", "operator": "Indiana University", "outdoor_seating": "yes", "wheelchair": "yes"}}, {"type": "node", "id": 5959964095, "lat": 39.1641897, "lon": -86.5155369, "tags": {"entrance": "main"}}, {"type": "node", "id": 5959964126, "lat": 39.163913, "lon": -86.5158552}, {"type": "node", "id": 5959964127, "lat": 39.1639126, "lon": -86.5155984}, {"type": "node", "id": 5959964128, "lat": 39.1641903, "lon": -86.5158543}, {"type": "node", "id": 6006179540, "lat": 39.1654411, "lon": -86.5343813, "tags": {"addr:city": "Bloomington", "addr:housenumber": "109", "addr:postcode": "47404", "addr:state": "IN", "addr:street": "West 4th Street", "amenity": "restaurant", "cuisine": "chinese", "name": "Best Taste", "website": "https://www.besttastebloomington.com/"}}, {"type": "node", "id": 6022729526, "lat": 39.1660179, "lon": -86.529683}, {"type": "node", "id": 6022729527, "lat": 39.1658351, "lon": -86.5294632}, {"type": "node", "id": 6022729529, "lat": 39.1658353, "lon": -86.5295305}, {"type": "node", "id": 6022729530, "lat": 39.1656807, "lon": -86.5295316}, {"type": "node", "id": 6022729531, "lat": 39.1656802, "lon": -86.5294122}, {"type": "node", "id": 6022729533, "lat": 39.1660175, "lon": -86.5294485}, {"type": "node", "id": 6022729534, "lat": 39.1658951, "lon": -86.5294489}, {"type": "node", "id": 6022729535, "lat": 39.1658955, "lon": -86.5296833}, {"type": "node", "id": 6022729536, "lat": 39.1658362, "lon": -86.5293676}, {"type": "node", "id": 6022729538, "lat": 39.1656674, "lon": -86.5292337}, {"type": "node", "id": 6022729539, "lat": 39.16567, "lon": -86.5293727}, {"type": "node", "id": 6022729541, "lat": 39.1653327, "lon": -86.5294172}, {"type": "node", "id": 6022729542, "lat": 39.1654334, "lon": -86.5292477}, {"type": "node", "id": 6022729543, "lat": 39.1652911, "lon": -86.5292367}, {"type": "node", "id": 6022729544, "lat": 39.1652905, "lon": -86.529302}, {"type": "node", "id": 6022729545, "lat": 39.1652505, "lon": -86.5293015}, {"type": "node", "id": 6022729546, "lat": 39.1652496, "lon": -86.5294161}, {"type": "node", "id": 6063767221, "lat": 39.1710683, "lon": -86.5340827}, {"type": "node", "id": 6063767222, "lat": 39.1710725, "lon": -86.5337801}, {"type": "node", "id": 6063767223, "lat": 39.1711516, "lon": -86.533782}, {"type": "node", "id": 6063767224, "lat": 39.1711474, "lon": -86.5340846}, {"type": "node", "id": 6063767264, "lat": 39.1699702, "lon": -86.5340387}, {"type": "node", "id": 6063767265, "lat": 39.1699713, "lon": -86.5337557}, {"type": "node", "id": 6063767266, "lat": 39.1700274, "lon": -86.533756}, {"type": "node", "id": 6063767267, "lat": 39.1700264, "lon": -86.534039}, {"type": "node", "id": 6063767272, "lat": 39.1692498, "lon": -86.533061}, {"type": "node", "id": 6063767273, "lat": 39.1694268, "lon": -86.5330602}, {"type": "node", "id": 6063767276, "lat": 39.1692509, "lon": -86.5334414}, {"type": "node", "id": 6063767279, "lat": 39.1694279, "lon": -86.5334406}, {"type": "node", "id": 6063767544, "lat": 39.1619041, "lon": -86.5357758}, {"type": "node", "id": 6063767545, "lat": 39.1614788, "lon": -86.5357785}, {"type": "node", "id": 6063767546, "lat": 39.1614798, "lon": -86.5360213}, {"type": "node", "id": 6063767547, "lat": 39.1619051, "lon": -86.5360186}, {"type": "node", "id": 6106623166, "lat": 39.1708085, "lon": -86.5011375, "tags": {"amenity": "restaurant", "cuisine": "sandwich;coffee_shop;chicken", "name": "Hive", "outdoor_seating": "yes", "smoking": "no", "takeaway": "yes"}}, {"type": "node", "id": 6276695802, "lat": 39.1719644, "lon": -86.5111953, "tags": {"amenity": "fast_food", "brand": "Subway", "brand:wikidata": "Q244457", "brand:wikipedia": "en:Subway (restaurant)", "cuisine": "sandwich", "drive_through": "no", "name": "Subway", "opening_hours": "Mo-Fr 07:00-03:00, Sa-Su 08:00-03:00", "takeaway": "yes"}}, {"type": "node", "id": 6276695803, "lat": 39.1719635, "lon": -86.5115452, "tags": {"amenity": "fast_food", "cuisine": "pizza", "delivery": "yes", "diet:vegetarian": "yes", "drive_through": "no", "name": "Pizza X", "takeaway": "yes"}}, {"type": "node", "id": 6276695804, "lat": 39.1719624, "lon": -86.5114447, "tags": {"amenity": "restaurant", "cuisine": "sushi", "drive_through": "no", "name": "Mura Sushi"}}, {"type": "node", "id": 6276707199, "lat": 39.1704087, "lon": -86.5143041, "tags": {"amenity": "food_court", "level": "1", "name": "Wright Food Court", "outdoor_seating": "no"}}, {"type": "node", "id": 6276789585, "lat": 39.1727589, "lon": -86.5228912, "tags": {"amenity": "cafe"}}, {"type": "node", "id": 6276789586, "lat": 39.1724541, "lon": -86.5184718, "tags": {"amenity": "cafe", "level": "0", "name": "Campus Cafe", "outdoor_seating": "no"}}, {"type": "node", "id": 6276793324, "lat": 39.1725778, "lon": -86.5177233, "tags": {"amenity": "cafe", "level": "0", "name": "Campus Cafe", "outdoor_seating": "no"}}, {"type": "node", "id": 6294283132, "lat": 39.164783, "lon": -86.559878}, {"type": "node", "id": 6360675807, "lat": 39.1669391, "lon": -86.5283206, "tags": {"addr:city": "Bloomington", "addr:housenumber": "107", "addr:postcode": "47408", "addr:state": "IN", "addr:street": "N Dunn Street", "amenity": "restaurant", "cuisine": "ice_cream", "name": "Hartzell's Ice Cream", "opening_hours": "Mo 15:30-23:00; Tu-Sa11:20-23:00; Su 12:00-23:00"}}, {"type": "node", "id": 6360680291, "lat": 39.1662603, "lon": -86.5270428, "tags": {"amenity": "cafe", "cuisine": "asian", "name": "Bapu"}}, {"type": "node", "id": 6412870158, "lat": 39.1663556, "lon": -86.5270425, "tags": {"air_conditioning": "yes", "amenity": "restaurant", "cuisine": "asian", "name": "Japonee Express", "opening_hours": "Mo-Fr 10:30-21:30; Sa 11:00-21:30; Su off"}}, {"type": "node", "id": 6468253785, "lat": 39.1542289, "lon": -86.4923896}, {"type": "node", "id": 6468254286, "lat": 39.1648017, "lon": -86.5305983, "tags": {"addr:housenumber": "309", "addr:street": "East 3rd Street", "amenity": "restaurant", "name": "El Rey Azteca"}}, {"type": "node", "id": 6566924274, "lat": 39.1736325, "lon": -86.5376401}, {"type": "node", "id": 6566924280, "lat": 39.1666739, "lon": -86.529435}, {"type": "node", "id": 6566924281, "lat": 39.1666747, "lon": -86.529203}, {"type": "node", "id": 6566924282, "lat": 39.1668431, "lon": -86.5292039}, {"type": "node", "id": 6566934487, "lat": 39.1670245, "lon": -86.5286854}, {"type": "node", "id": 6566934488, "lat": 39.1666817, "lon": -86.5286983}, {"type": "node", "id": 6566934489, "lat": 39.1670263, "lon": -86.5287924}, {"type": "node", "id": 6566934491, "lat": 39.1666614, "lon": -86.5287924}, {"type": "node", "id": 6566934492, "lat": 39.1671736, "lon": -86.5297106}, {"type": "node", "id": 6566934493, "lat": 39.1670882, "lon": -86.5297105}, {"type": "node", "id": 6566934494, "lat": 39.1670697, "lon": -86.5295064}, {"type": "node", "id": 6566934495, "lat": 39.1671787, "lon": -86.5294694}, {"type": "node", "id": 6566934506, "lat": 39.1658336, "lon": -86.5292286}, {"type": "node", "id": 6573687775, "lat": 39.167477, "lon": -86.536019}, {"type": "node", "id": 6590112972, "lat": 39.1666745, "lon": -86.5292615, "tags": {"entrance": "yes"}}, {"type": "node", "id": 6590112981, "lat": 39.1664052, "lon": -86.5290408, "tags": {"entrance": "yes"}}, {"type": "node", "id": 6592777998, "lat": 39.1612074, "lon": -86.5357089}, {"type": "node", "id": 6592777999, "lat": 39.160972, "lon": -86.5357055}, {"type": "node", "id": 6592778000, "lat": 39.1609709, "lon": -86.5358304}, {"type": "node", "id": 6592778026, "lat": 39.1654312, "lon": -86.5283601}, {"type": "node", "id": 6592778027, "lat": 39.1653994, "lon": -86.5283594}, {"type": "node", "id": 6592778028, "lat": 39.1653998, "lon": -86.5283315}, {"type": "node", "id": 6592778029, "lat": 39.1652732, "lon": -86.5283288}, {"type": "node", "id": 6592778030, "lat": 39.1652704, "lon": -86.5285437}, {"type": "node", "id": 6592778031, "lat": 39.1654514, "lon": -86.5285636}, {"type": "node", "id": 6592778032, "lat": 39.1652748, "lon": -86.5285605}, {"type": "node", "id": 6592778033, "lat": 39.1652426, "lon": -86.5287673}, {"type": "node", "id": 6592778034, "lat": 39.1654492, "lon": -86.528771}, {"type": "node", "id": 6592778054, "lat": 39.1652357, "lon": -86.5303509}, {"type": "node", "id": 6592778055, "lat": 39.1652368, "lon": -86.5302092}, {"type": "node", "id": 6592778056, "lat": 39.1654596, "lon": -86.530212}, {"type": "node", "id": 6594028821, "lat": 39.1652095, "lon": -86.5301338}, {"type": "node", "id": 6594028822, "lat": 39.1651072, "lon": -86.5301263}, {"type": "node", "id": 6594028823, "lat": 39.1651137, "lon": -86.5299786}, {"type": "node", "id": 6594028824, "lat": 39.165216, "lon": -86.5299861}, {"type": "node", "id": 6594028833, "lat": 39.1652107, "lon": -86.5297005}, {"type": "node", "id": 6594028834, "lat": 39.1650952, "lon": -86.5297021}, {"type": "node", "id": 6594028835, "lat": 39.1650937, "lon": -86.5295201}, {"type": "node", "id": 6594028836, "lat": 39.1652092, "lon": -86.5295184}, {"type": "node", "id": 6594079009, "lat": 39.1667244, "lon": -86.5405864}, {"type": "node", "id": 6594079010, "lat": 39.1667273, "lon": -86.5404704}, {"type": "node", "id": 6594079011, "lat": 39.1669135, "lon": -86.5404783}, {"type": "node", "id": 6595482539, "lat": 39.1672155, "lon": -86.5285317}, {"type": "node", "id": 6722752571, "lat": 39.1610929, "lon": -86.4964334, "tags": {"amenity": "restaurant", "brand": "Red Robin", "brand:wikidata": "Q7304886", "brand:wikipedia": "en:Red Robin", "cuisine": "burger", "name": "Red Robin", "official_name": "Red Robin Gourmet Burgers and Brews"}}, {"type": "node", "id": 6737151619, "lat": 39.1663999, "lon": -86.5274963, "tags": {"addr:city": "Bloomington", "addr:housenumber": "514", "addr:state": "IN", "addr:street": "East Kirkwood Avenue", "amenity": "restaurant", "name": "Lennie's"}}, {"type": "node", "id": 6914595829, "lat": 39.1373791, "lon": -86.5264049, "tags": {"amenity": "bar", "name": "Conner's Tap Room", "outdoor_seating": "yes"}}, {"type": "node", "id": 6914595830, "lat": 39.1373709, "lon": -86.5262174, "tags": {"amenity": "restaurant", "cuisine": "pizza", "name": "Aver's Pizza"}}, {"type": "node", "id": 6914595831, "lat": 39.1373709, "lon": -86.5260581, "tags": {"amenity": "fast_food", "brand": "Subway", "brand:wikidata": "Q244457", "brand:wikipedia": "en:Subway (restaurant)", "cuisine": "sandwich", "name": "Subway", "takeaway": "yes"}}, {"type": "node", "id": 6914595832, "lat": 39.1373709, "lon": -86.5257608, "tags": {"amenity": "restaurant", "name": "Cloverleaf"}}, {"type": "node", "id": 6951949348, "lat": 39.1612653, "lon": -86.5265022}, {"type": "node", "id": 6952378947, "lat": 39.1650501, "lon": -86.512482, "tags": {"amenity": "restaurant", "name": "Forest Food Court"}}, {"type": "node", "id": 6975322556, "lat": 39.1644763, "lon": -86.5309825}, {"type": "node", "id": 6975322557, "lat": 39.1644762, "lon": -86.5307172}, {"type": "node", "id": 6975322558, "lat": 39.1642616, "lon": -86.530787}, {"type": "node", "id": 6975322559, "lat": 39.1642653, "lon": -86.5310292}, {"type": "node", "id": 7115693366, "lat": 39.1615562, "lon": -86.535778, "tags": {"artwork_type": "mural", "tourism": "artwork"}}, {"type": "node", "id": 7206705908, "lat": 39.187869, "lon": -86.5384207, "tags": {"amenity": "fast_food", "brand": "Subway", "brand:wikidata": "Q244457", "brand:wikipedia": "en:Subway (restaurant)", "cuisine": "sandwich", "name": "Subway", "takeaway": "yes"}}, {"type": "node", "id": 7239500598, "lat": 39.1634276, "lon": -86.5764252}, {"type": "node", "id": 7239563085, "lat": 39.1656295, "lon": -86.5766807}, {"type": "node", "id": 7288883467, "lat": 39.1687029, "lon": -86.5333932, "tags": {"addr:city": "Bloomington", "addr:housenumber": "302", "addr:postcode": "47404", "addr:state": "IN", "addr:street": "North Walnut Street", "amenity": "restaurant", "name": "Yogi's Bar & Grill"}}, {"type": "node", "id": 7359968093, "lat": 39.1670366, "lon": -86.4943839}, {"type": "node", "id": 7359968096, "lat": 39.1670357, "lon": -86.494566}, {"type": "node", "id": 7409370068, "lat": 39.1714693, "lon": -86.5346069, "tags": {"addr:city": "Bloomington", "addr:housenumber": "532", "addr:postcode": "47404", "addr:state": "IN", "addr:street": "North College Avenue", "amenity": "cafe", "cuisine": "coffee_shop;bakery", "internet_access": "wlan", "internet_access:fee": "no", "name": "Crumble Coffee and Bakery", "outdoor_seating": "yes"}}, {"type": "node", "id": 7472496573, "lat": 39.166209, "lon": -86.5821468, "tags": {"amenity": "fast_food", "cuisine": "hot_dog", "name": "Naughty Dog"}}, {"type": "node", "id": 7472496574, "lat": 39.1662808, "lon": -86.5821441, "tags": {"amenity": "fast_food", "cuisine": "donut", "name": "Square Donuts"}}, {"type": "node", "id": 7472496577, "lat": 39.1635334, "lon": -86.576723}, {"type": "node", "id": 7472496578, "lat": 39.1634294, "lon": -86.5767241}, {"type": "node", "id": 7472496581, "lat": 39.1635316, "lon": -86.5764241}, {"type": "node", "id": 7590463114, "lat": 39.1713242, "lon": -86.5032326}, {"type": "node", "id": 7590463115, "lat": 39.1711881, "lon": -86.503228}, {"type": "node", "id": 7590463116, "lat": 39.1711893, "lon": -86.50302}, {"type": "node", "id": 7590463117, "lat": 39.1713266, "lon": -86.5030169}, {"type": "node", "id": 7816135840, "lat": 39.1656655, "lon": -86.5290386}, {"type": "node", "id": 7816135841, "lat": 39.1658173, "lon": -86.5290367}, {"type": "node", "id": 7816135842, "lat": 39.1658181, "lon": -86.5291496}, {"type": "node", "id": 7816135843, "lat": 39.1657683, "lon": -86.5291502}, {"type": "node", "id": 7816135844, "lat": 39.1657682, "lon": -86.529139}, {"type": "node", "id": 7816135845, "lat": 39.1656662, "lon": -86.5291403}, {"type": "node", "id": 7816135847, "lat": 39.1656746, "lon": -86.5289241}, {"type": "node", "id": 7816135848, "lat": 39.1658263, "lon": -86.5289223}, {"type": "node", "id": 7816135849, "lat": 39.1658271, "lon": -86.5290351}, {"type": "node", "id": 7816135850, "lat": 39.1657674, "lon": -86.5290358}, {"type": "node", "id": 7816135851, "lat": 39.1657673, "lon": -86.5290246}, {"type": "node", "id": 7816135852, "lat": 39.1656754, "lon": -86.5290257}, {"type": "node", "id": 7826582526, "lat": 39.2165482, "lon": -86.5934162}, {"type": "node", "id": 7826582528, "lat": 39.2140525, "lon": -86.5920826, "tags": {"addr:city": "Bloomington", "addr:housenumber": "4499", "addr:postcode": "47404", "addr:state": "IN", "addr:street": "West State Road 46;W State Road 46", "amenity": "fast_food", "brand": "McDonald's", "brand:wikidata": "Q38076", "brand:wikipedia": "en:McDonald's", "cuisine": "burger", "name": "McDonald's", "phone": "+1-812-876-0987\u200e", "takeaway": "yes"}}, {"type": "node", "id": 8078200738, "lat": 39.1357629, "lon": -86.5295942}, {"type": "node", "id": 8078200739, "lat": 39.1356614, "lon": -86.5295899}, {"type": "node", "id": 8078200740, "lat": 39.1356597, "lon": -86.5292616}, {"type": "node", "id": 8078200741, "lat": 39.1357646, "lon": -86.5292659}, {"type": "node", "id": 8253464458, "lat": 39.163926, "lon": -86.479557}, {"type": "node", "id": 8253464459, "lat": 39.163695, "lon": -86.479554}, {"type": "node", "id": 8253464460, "lat": 39.163696, "lon": -86.479385}, {"type": "node", "id": 8253464461, "lat": 39.163927, "lon": -86.479388}, {"type": "node", "id": 8253464485, "lat": 39.163734, "lon": -86.475409}, {"type": "node", "id": 8253464486, "lat": 39.163735, "lon": -86.475444}, {"type": "node", "id": 8253464487, "lat": 39.163776, "lon": -86.475443}, {"type": "node", "id": 8253464488, "lat": 39.163777, "lon": -86.47558}, {"type": "node", "id": 8253464489, "lat": 39.163856, "lon": -86.475579}, {"type": "node", "id": 8253464490, "lat": 39.163857, "lon": -86.475705}, {"type": "node", "id": 8253464491, "lat": 39.163788, "lon": -86.475706}, {"type": "node", "id": 8253464492, "lat": 39.16379, "lon": -86.47594}, {"type": "node", "id": 8253464493, "lat": 39.163621, "lon": -86.475942}, {"type": "node", "id": 8336517106, "lat": 39.1658897, "lon": -86.5272409}, {"type": "node", "id": 8336517107, "lat": 39.1658888, "lon": -86.5270285}, {"type": "node", "id": 8399652120, "lat": 39.1639897, "lon": -86.5523881}, {"type": "node", "id": 8399652121, "lat": 39.163554, "lon": -86.5520247}, {"type": "node", "id": 8399652122, "lat": 39.1636326, "lon": -86.5518681}, {"type": "node", "id": 8399652123, "lat": 39.1640683, "lon": -86.5522315}, {"type": "node", "id": 8405203448, "lat": 39.1703954, "lon": -86.5359943}, {"type": "node", "id": 8405203449, "lat": 39.1700303, "lon": -86.535999}, {"type": "node", "id": 8405203450, "lat": 39.1700295, "lon": -86.5358896}, {"type": "node", "id": 8405203451, "lat": 39.1704143, "lon": -86.5358846}, {"type": "node", "id": 8464788753, "lat": 39.1748584, "lon": -86.5334204}, {"type": "node", "id": 8464788755, "lat": 39.174785, "lon": -86.533042}, {"type": "node", "id": 8464788756, "lat": 39.1747618, "lon": -86.5334104}, {"type": "node", "id": 8909699153, "lat": 39.221169, "lon": -86.605077, "tags": {"addr:state": "IN", "addr:street": "State Road 46", "amenity": "cafe", "cuisine": "coffee_shop", "drive_through": "only", "name": "Americano", "takeaway": "only"}}, {"type": "node", "id": 8929406509, "lat": 39.2134256, "lon": -86.5898281, "tags": {"addr:state": "IN", "amenity": "cafe", "brand": "Starbucks", "brand:wikidata": "Q37158", "brand:wikipedia": "en:Starbucks", "contact:website": "https://www.starbucks.com/store-locator/store/1028024/sr-46-cypress-4257-n-tupelo-dr-bloomington-in-47404-us", "cuisine": "coffee_shop", "name": "Starbucks", "official_name": "Starbucks Coffee", "takeaway": "yes"}}, {"type": "node", "id": 9098047876, "lat": 39.1640285, "lon": -86.5149791}, {"type": "node", "id": 9098047877, "lat": 39.1641919, "lon": -86.514978}, {"type": "node", "id": 9098047878, "lat": 39.1641923, "lon": -86.5150844}, {"type": "node", "id": 9098047879, "lat": 39.1641536, "lon": -86.5150847}, {"type": "node", "id": 9098047880, "lat": 39.1641538, "lon": -86.5151255}, {"type": "node", "id": 9098047881, "lat": 39.1641371, "lon": -86.515146}, {"type": "node", "id": 9098047882, "lat": 39.1641214, "lon": -86.5151461}, {"type": "node", "id": 9098047883, "lat": 39.1641215, "lon": -86.515181}, {"type": "node", "id": 9098421111, "lat": 39.1611893, "lon": -86.5261891}, {"type": "node", "id": 9098421112, "lat": 39.1611887, "lon": -86.5262413}, {"type": "node", "id": 9098421113, "lat": 39.161118, "lon": -86.5262398}, {"type": "node", "id": 9098421114, "lat": 39.1611175, "lon": -86.5262783}, {"type": "node", "id": 9099337142, "lat": 39.1629054, "lon": -86.4993596, "tags": {"amenity": "fast_food", "brand": "Jimmy John's", "brand:wikidata": "Q1689380", "brand:wikipedia": "en:Jimmy John's", "cuisine": "sandwich", "name": "Jimmy John's", "official_name": "Jimmy John's Gourmet Sandwiches", "takeaway": "yes"}}, {"type": "node", "id": 9099337145, "lat": 39.1629043, "lon": -86.4999863, "tags": {"amenity": "restaurant", "cuisine": "japanese", "name": "Asuka Steakhouse & Sushu"}}, {"type": "node", "id": 9099337146, "lat": 39.1629031, "lon": -86.500581, "tags": {"amenity": "restaurant", "cuisine": "italian", "name": "DeAngelo's"}}, {"type": "node", "id": 9099337149, "lat": 39.162893, "lon": -86.500913, "tags": {"amenity": "restaurant", "brand": "Noodles & Company", "brand:wikidata": "Q7049673", "brand:wikipedia": "en:Noodles & Company", "cuisine": "pasta", "name": "Noodles & Company"}}, {"type": "node", "id": 9099337150, "lat": 39.1628757, "lon": -86.5018907, "tags": {"amenity": "restaurant", "brand": "McAlister's Deli", "brand:wikidata": "Q17020829", "brand:wikipedia": "en:McAlister's Deli", "cuisine": "sandwich", "name": "McAlister's Deli"}}, {"type": "node", "id": 9099337154, "lat": 39.1628939, "lon": -86.5021462, "tags": {"amenity": "fast_food", "brand": "Domino's", "brand:wikidata": "Q839466", "brand:wikipedia": "en:Domino's Pizza", "cuisine": "pizza", "name": "Domino's", "takeaway": "yes"}}, {"type": "node", "id": 9210815959, "lat": 39.1495371, "lon": -86.4994101}, {"type": "node", "id": 9210815960, "lat": 39.1495365, "lon": -86.499604}, {"type": "node", "id": 9210815961, "lat": 39.1493943, "lon": -86.4996034}, {"type": "node", "id": 9210815962, "lat": 39.1493942, "lon": -86.4996402}, {"type": "node", "id": 9210815963, "lat": 39.1493467, "lon": -86.49964}, {"type": "node", "id": 9210815964, "lat": 39.149347, "lon": -86.4995373}, {"type": "node", "id": 9210815965, "lat": 39.1493841, "lon": -86.4995375}, {"type": "node", "id": 9210815966, "lat": 39.1493845, "lon": -86.4994094}, {"type": "node", "id": 9210815974, "lat": 39.1489534, "lon": -86.4994288}, {"type": "node", "id": 9210815977, "lat": 39.1491045, "lon": -86.4994353}, {"type": "node", "id": 9210815978, "lat": 39.149103, "lon": -86.499548}, {"type": "node", "id": 9210815979, "lat": 39.149137, "lon": -86.499547}, {"type": "node", "id": 9210815980, "lat": 39.149138, "lon": -86.499639}, {"type": "node", "id": 9210815981, "lat": 39.149081, "lon": -86.499641}, {"type": "node", "id": 9210815982, "lat": 39.149083, "lon": -86.499713}, {"type": "node", "id": 9210815983, "lat": 39.149003, "lon": -86.499716}, {"type": "node", "id": 9210815984, "lat": 39.149002, "lon": -86.499682}, {"type": "node", "id": 9211349005, "lat": 39.1503712, "lon": -86.5267601}, {"type": "node", "id": 9211349006, "lat": 39.1504445, "lon": -86.5266704}, {"type": "node", "id": 9211349007, "lat": 39.1504273, "lon": -86.526647}, {"type": "node", "id": 9211349008, "lat": 39.1504272, "lon": -86.5265339}, {"type": "node", "id": 9211349009, "lat": 39.1504046, "lon": -86.5265339}, {"type": "node", "id": 9211349010, "lat": 39.1504044, "lon": -86.526398}, {"type": "node", "id": 9211349011, "lat": 39.1504187, "lon": -86.5263979}, {"type": "node", "id": 9211349012, "lat": 39.1504185, "lon": -86.5262953}, {"type": "node", "id": 9211349013, "lat": 39.1503743, "lon": -86.5262954}, {"type": "node", "id": 9211349014, "lat": 39.1503742, "lon": -86.52626}, {"type": "node", "id": 9211349015, "lat": 39.1503036, "lon": -86.5262604}, {"type": "node", "id": 9211349016, "lat": 39.1503037, "lon": -86.526299}, {"type": "node", "id": 9211349017, "lat": 39.1502617, "lon": -86.5262992}, {"type": "node", "id": 9211349018, "lat": 39.1502624, "lon": -86.5264907}, {"type": "node", "id": 9211349019, "lat": 39.1502992, "lon": -86.5264905}, {"type": "node", "id": 9211349020, "lat": 39.1502993, "lon": -86.5265345}, {"type": "node", "id": 9211349021, "lat": 39.1501282, "lon": -86.5265356}, {"type": "node", "id": 9211349022, "lat": 39.150129, "lon": -86.5267378}, {"type": "node", "id": 9211349023, "lat": 39.1503537, "lon": -86.5267363}, {"type": "node", "id": 9338516895, "lat": 39.1745432, "lon": -86.5180286, "tags": {"entrance": "yes"}}, {"type": "node", "id": 9338516897, "lat": 39.1744705, "lon": -86.5178676, "tags": {"entrance": "yes"}}, {"type": "node", "id": 9355350472, "lat": 39.2517249, "lon": -86.3954311}, {"type": "node", "id": 9355350473, "lat": 39.2517215, "lon": -86.3954745}, {"type": "node", "id": 9355350474, "lat": 39.2517841, "lon": -86.3954829}, {"type": "node", "id": 9355350475, "lat": 39.2517743, "lon": -86.3956052}, {"type": "node", "id": 9355350476, "lat": 39.2517515, "lon": -86.3956021}, {"type": "node", "id": 9355350477, "lat": 39.2517413, "lon": -86.3957296}, {"type": "node", "id": 9355350478, "lat": 39.2515976, "lon": -86.3957105}, {"type": "node", "id": 9355350479, "lat": 39.2516209, "lon": -86.3954173}, {"type": "node", "id": 9355783313, "lat": 39.1670893, "lon": -86.5295064}, {"type": "node", "id": 9355783314, "lat": 39.1670893, "lon": -86.5294694}, {"type": "node", "id": 9355783315, "lat": 39.1670696, "lon": -86.5296942}, {"type": "node", "id": 9355783316, "lat": 39.1670882, "lon": -86.5296942}, {"type": "node", "id": 9355818624, "lat": 39.1073851, "lon": -86.4311546}, {"type": "node", "id": 9355818625, "lat": 39.1072712, "lon": -86.4311388}, {"type": "node", "id": 9355818626, "lat": 39.1072812, "lon": -86.4310202}, {"type": "node", "id": 9355818627, "lat": 39.1072118, "lon": -86.4310105}, {"type": "node", "id": 9355818628, "lat": 39.1071967, "lon": -86.4311899}, {"type": "node", "id": 9355818629, "lat": 39.1071046, "lon": -86.4311771}, {"type": "node", "id": 9355818630, "lat": 39.1070966, "lon": -86.431273}, {"type": "node", "id": 9355818631, "lat": 39.1071897, "lon": -86.4312859}, {"type": "node", "id": 9355818632, "lat": 39.1071876, "lon": -86.4313103}, {"type": "node", "id": 9355818633, "lat": 39.1072736, "lon": -86.4313223}, {"type": "node", "id": 9355818634, "lat": 39.1072775, "lon": -86.4312766}, {"type": "node", "id": 9355818635, "lat": 39.1073089, "lon": -86.4312809}, {"type": "node", "id": 9355818636, "lat": 39.1073112, "lon": -86.4312542}, {"type": "node", "id": 9355879026, "lat": 39.1652436, "lon": -86.5286737}, {"type": "node", "id": 9356285722, "lat": 39.121182, "lon": -86.5307646}, {"type": "node", "id": 9356285723, "lat": 39.1211563, "lon": -86.5307643}, {"type": "node", "id": 9356974403, "lat": 39.1648638, "lon": -86.5683257}, {"type": "node", "id": 9356974404, "lat": 39.1646643, "lon": -86.568323}, {"type": "node", "id": 9356974405, "lat": 39.1646658, "lon": -86.5681462}, {"type": "node", "id": 9356974406, "lat": 39.1648261, "lon": -86.5681484}, {"type": "node", "id": 9356974407, "lat": 39.1648259, "lon": -86.56817}, {"type": "node", "id": 9356974408, "lat": 39.1648651, "lon": -86.5681705}, {"type": "node", "id": 9356997941, "lat": 39.0344511, "lon": -86.4907898}, {"type": "node", "id": 9356997942, "lat": 39.0343985, "lon": -86.4907791}, {"type": "node", "id": 9356997943, "lat": 39.0344013, "lon": -86.4907563}, {"type": "node", "id": 9356997944, "lat": 39.0338916, "lon": -86.4906522}, {"type": "node", "id": 9356997945, "lat": 39.0338566, "lon": -86.490937}, {"type": "node", "id": 9356997946, "lat": 39.03393, "lon": -86.490952}, {"type": "node", "id": 9356997947, "lat": 39.033935, "lon": -86.490912}, {"type": "node", "id": 9356997948, "lat": 39.0340197, "lon": -86.4909293}, {"type": "node", "id": 9356997949, "lat": 39.034016, "lon": -86.4909591}, {"type": "node", "id": 9356997950, "lat": 39.0341151, "lon": -86.4909793}, {"type": "node", "id": 9356997951, "lat": 39.0341202, "lon": -86.4909376}, {"type": "node", "id": 9356997952, "lat": 39.0342337, "lon": -86.4909608}, {"type": "node", "id": 9356997953, "lat": 39.0342396, "lon": -86.4910045}, {"type": "node", "id": 9357014351, "lat": 39.1548337, "lon": -86.4957671}, {"type": "node", "id": 9357014352, "lat": 39.1546368, "lon": -86.4957619}, {"type": "node", "id": 9357014353, "lat": 39.1546417, "lon": -86.4954491}, {"type": "node", "id": 9357014354, "lat": 39.1547391, "lon": -86.4954517}, {"type": "node", "id": 9357014355, "lat": 39.1547383, "lon": -86.4955085}, {"type": "node", "id": 9357014356, "lat": 39.1548377, "lon": -86.4955111}, {"type": "node", "id": 9357015355, "lat": 39.1735061, "lon": -86.5375755}, {"type": "node", "id": 9357015356, "lat": 39.1733615, "lon": -86.5375768}, {"type": "node", "id": 9357018612, "lat": 39.2320661, "lon": -86.6219422}, {"type": "node", "id": 9357018613, "lat": 39.2320851, "lon": -86.621973}, {"type": "node", "id": 9357018614, "lat": 39.2321132, "lon": -86.6219442}, {"type": "node", "id": 9357018615, "lat": 39.2320956, "lon": -86.6219155}, {"type": "node", "id": 9357018616, "lat": 39.2321537, "lon": -86.6218559}, {"type": "node", "id": 9357037517, "lat": 39.2321221, "lon": -86.6218046}, {"type": "node", "id": 9357037518, "lat": 39.2320654, "lon": -86.6218627}, {"type": "node", "id": 9357037519, "lat": 39.2320465, "lon": -86.6218319}, {"type": "node", "id": 9357037520, "lat": 39.231951, "lon": -86.6219298}, {"type": "node", "id": 9357080076, "lat": 39.1643439, "lon": -86.5307844}, {"type": "node", "id": 9357080077, "lat": 39.1643446, "lon": -86.5307226}, {"type": "node", "id": 9357101777, "lat": 39.1829232, "lon": -86.5338012}, {"type": "node", "id": 9357101778, "lat": 39.1829483, "lon": -86.5335888}, {"type": "node", "id": 9357101779, "lat": 39.1829155, "lon": -86.5335823}, {"type": "node", "id": 9357101780, "lat": 39.1829272, "lon": -86.5334828}, {"type": "node", "id": 9357101781, "lat": 39.1828323, "lon": -86.5334642}, {"type": "node", "id": 9357101782, "lat": 39.1828227, "lon": -86.5335453}, {"type": "node", "id": 9357101783, "lat": 39.1826794, "lon": -86.5335171}, {"type": "node", "id": 9357101784, "lat": 39.1826847, "lon": -86.5334725}, {"type": "node", "id": 9357101785, "lat": 39.1824785, "lon": -86.533432}, {"type": "node", "id": 9357101786, "lat": 39.182476, "lon": -86.5334532}, {"type": "node", "id": 9357101787, "lat": 39.1824401, "lon": -86.5334462}, {"type": "node", "id": 9357101788, "lat": 39.1824234, "lon": -86.5335883}, {"type": "node", "id": 9357101789, "lat": 39.182409, "lon": -86.5335854}, {"type": "node", "id": 9357101790, "lat": 39.1823972, "lon": -86.5336853}, {"type": "node", "id": 9357101791, "lat": 39.1826066, "lon": -86.5337263}, {"type": "node", "id": 9357101792, "lat": 39.1826084, "lon": -86.5337112}, {"type": "node", "id": 9357101793, "lat": 39.1828178, "lon": -86.5337522}, {"type": "node", "id": 9357101794, "lat": 39.1828145, "lon": -86.5337798}, {"type": "node", "id": 9357115479, "lat": 39.1684501, "lon": -86.5334736}, {"type": "node", "id": 9357115480, "lat": 39.1684473, "lon": -86.5329886}, {"type": "node", "id": 9357119708, "lat": 39.1677037, "lon": -86.5366266}, {"type": "node", "id": 9357119709, "lat": 39.1677004, "lon": -86.5365388}, {"type": "node", "id": 9357119710, "lat": 39.1677594, "lon": -86.5365386}, {"type": "node", "id": 9357119711, "lat": 39.1677598, "lon": -86.53655}, {"type": "node", "id": 9357119712, "lat": 39.1678332, "lon": -86.5365926}, {"type": "node", "id": 9357119713, "lat": 39.1678326, "lon": -86.5366249}, {"type": "node", "id": 9357409073, "lat": 39.1649411, "lon": -86.5540558}, {"type": "node", "id": 9357409074, "lat": 39.1648105, "lon": -86.5540484}, {"type": "node", "id": 9357429629, "lat": 39.1892077, "lon": -86.5488267}, {"type": "node", "id": 9357429630, "lat": 39.1892215, "lon": -86.5483152}, {"type": "node", "id": 9357429631, "lat": 39.1887167, "lon": -86.5482925}, {"type": "node", "id": 9357429632, "lat": 39.1886675, "lon": -86.5488023}, {"type": "node", "id": 9357445878, "lat": 39.1162594, "lon": -86.4281668}, {"type": "node", "id": 9357445879, "lat": 39.1162076, "lon": -86.4282527}, {"type": "node", "id": 9357445880, "lat": 39.116288, "lon": -86.4283333}, {"type": "node", "id": 9357445881, "lat": 39.1162337, "lon": -86.4284234}, {"type": "node", "id": 9357445882, "lat": 39.1159827, "lon": -86.4281716}, {"type": "node", "id": 9357445883, "lat": 39.1160673, "lon": -86.4280313}, {"type": "node", "id": 9357445884, "lat": 39.1161354, "lon": -86.4280996}, {"type": "node", "id": 9357490599, "lat": 39.1665365, "lon": -86.5405838}, {"type": "node", "id": 9357490600, "lat": 39.1665378, "lon": -86.5404366}, {"type": "node", "id": 9357490601, "lat": 39.1664504, "lon": -86.5404353}, {"type": "node", "id": 9357490602, "lat": 39.1664497, "lon": -86.5403997}, {"type": "node", "id": 9357490603, "lat": 39.1663154, "lon": -86.540404}, {"type": "node", "id": 9357490604, "lat": 39.1663149, "lon": -86.5404637}, {"type": "node", "id": 9357490605, "lat": 39.1663581, "lon": -86.5404643}, {"type": "node", "id": 9357490606, "lat": 39.1663577, "lon": -86.5405066}, {"type": "node", "id": 9357490607, "lat": 39.1663755, "lon": -86.5405069}, {"type": "node", "id": 9357490608, "lat": 39.1663748, "lon": -86.5405815}, {"type": "node", "id": 9357585262, "lat": 39.1173364, "lon": -86.4285522}, {"type": "node", "id": 9357585263, "lat": 39.1171342, "lon": -86.4284662}, {"type": "node", "id": 9357585264, "lat": 39.1171011, "lon": -86.4285954}, {"type": "node", "id": 9357602908, "lat": 39.2346774, "lon": -86.6242007}, {"type": "node", "id": 9357602909, "lat": 39.234775, "lon": -86.6243398}, {"type": "node", "id": 9357602910, "lat": 39.234796, "lon": -86.6243152}, {"type": "node", "id": 9357602911, "lat": 39.2347848, "lon": -86.6242992}, {"type": "node", "id": 9357602912, "lat": 39.2348679, "lon": -86.6242019}, {"type": "node", "id": 9357602913, "lat": 39.2347815, "lon": -86.6240789}, {"type": "node", "id": 9357707667, "lat": 39.1647526, "lon": -86.4724208}, {"type": "node", "id": 9357707668, "lat": 39.1646204, "lon": -86.4724194}, {"type": "node", "id": 9357707669, "lat": 39.1646198, "lon": -86.4725141}, {"type": "node", "id": 9359837121, "lat": 39.1672859, "lon": -86.5354899}, {"type": "node", "id": 9359837122, "lat": 39.1672831, "lon": -86.5350111}, {"type": "node", "id": 9360439782, "lat": 39.2987244, "lon": -86.6509445}, {"type": "node", "id": 9360439783, "lat": 39.2985707, "lon": -86.6509129}, {"type": "node", "id": 9360439784, "lat": 39.298555, "lon": -86.6510401}, {"type": "node", "id": 9506686612, "lat": 39.164784, "lon": -86.559725}, {"type": "node", "id": 9506686613, "lat": 39.165146, "lon": -86.55973}, {"type": "node", "id": 9506686614, "lat": 39.165144, "lon": -86.559912}, {"type": "node", "id": 9506686615, "lat": 39.164834, "lon": -86.559908}, {"type": "node", "id": 9506686616, "lat": 39.164834, "lon": -86.559878}, {"type": "node", "id": 9510926615, "lat": 39.1673439, "lon": -86.53501}, {"type": "node", "id": 9514255719, "lat": 39.1638838, "lon": -86.4979104}, {"type": "node", "id": 9514255720, "lat": 39.1638572, "lon": -86.4979101}, {"type": "node", "id": 9545610476, "lat": 39.1534735, "lon": -86.5385155, "tags": {"addr:city": "Bloomington", "addr:housenumber": "405", "addr:postcode": "47403", "addr:state": "IN", "addr:street": "W Patterson Road", "amenity": "restaurant"}}, {"type": "node", "id": 9594388410, "lat": 39.1676685, "lon": -86.5234548, "tags": {"amenity": "cafe", "cuisine": "cake;coffee_shop;bakery", "indoor": "amenity", "level": "0", "name": "Sugar and Spice", "phone": "+1 812-855-1777", "smoking": "no", "takeaway": "only", "website": "https://catering.indiana.edu/sugar-spice/index.html"}}, {"type": "node", "id": 9604381089, "lat": 39.1621377, "lon": -86.4955558, "tags": {"amenity": "restaurant", "cuisine": "asian", "name": "Judy's Kitchen"}}, {"type": "node", "id": 9604381097, "lat": 39.1613333, "lon": -86.496501}, {"type": "node", "id": 9604381101, "lat": 39.161442, "lon": -86.4966766}, {"type": "node", "id": 9604381102, "lat": 39.1614535, "lon": -86.4965164}, {"type": "node", "id": 9604381103, "lat": 39.1621165, "lon": -86.496621}, {"type": "node", "id": 9604381104, "lat": 39.1617834, "lon": -86.4965816}, {"type": "node", "id": 9604381108, "lat": 39.162153, "lon": -86.4961057}, {"type": "node", "id": 9604381109, "lat": 39.1620247, "lon": -86.4960914}, {"type": "node", "id": 9604381111, "lat": 39.1620308, "lon": -86.496}, {"type": "node", "id": 9604405423, "lat": 39.162162, "lon": -86.4960146}, {"type": "node", "id": 9605876398, "lat": 39.1617419, "lon": -86.4959009}, {"type": "node", "id": 9605876399, "lat": 39.1617462, "lon": -86.4958444}, {"type": "node", "id": 9605876400, "lat": 39.1616753, "lon": -86.4958356}, {"type": "node", "id": 9605876401, "lat": 39.1616711, "lon": -86.4958921}, {"type": "node", "id": 9605885597, "lat": 39.1618145, "lon": -86.4957916}, {"type": "node", "id": 9605885598, "lat": 39.1618456, "lon": -86.4953392}, {"type": "node", "id": 9605885599, "lat": 39.1621421, "lon": -86.495701}, {"type": "node", "id": 9605885600, "lat": 39.1621243, "lon": -86.4956463}, {"type": "node", "id": 9605885601, "lat": 39.1620939, "lon": -86.4956018}, {"type": "node", "id": 9605885602, "lat": 39.1620541, "lon": -86.495572}, {"type": "node", "id": 9605885603, "lat": 39.162009, "lon": -86.4955601}, {"type": "node", "id": 9605885604, "lat": 39.1619634, "lon": -86.4955673}, {"type": "node", "id": 9605885605, "lat": 39.1619219, "lon": -86.4955929}, {"type": "node", "id": 9605885606, "lat": 39.1618755, "lon": -86.4956481}, {"type": "node", "id": 9605885607, "lat": 39.161865, "lon": -86.4957986}, {"type": "node", "id": 9605885608, "lat": 39.1618913, "lon": -86.4958583}, {"type": "node", "id": 9605885609, "lat": 39.1619271, "lon": -86.4958998}, {"type": "node", "id": 9605885610, "lat": 39.1619715, "lon": -86.4959236}, {"type": "node", "id": 9605885611, "lat": 39.1620195, "lon": -86.495927}, {"type": "node", "id": 9605885612, "lat": 39.1620657, "lon": -86.4959096}, {"type": "node", "id": 9605885613, "lat": 39.1621048, "lon": -86.4958735}, {"type": "node", "id": 9605885614, "lat": 39.1621324, "lon": -86.4958227}, {"type": "node", "id": 9605885615, "lat": 39.1621453, "lon": -86.4957629}, {"type": "node", "id": 9605885616, "lat": 39.1618246, "lon": -86.495642}, {"type": "node", "id": 9605889517, "lat": 39.1618849, "lon": -86.4955165}, {"type": "node", "id": 9605889518, "lat": 39.1618335, "lon": -86.4955105}, {"type": "node", "id": 9605889519, "lat": 39.1619176, "lon": -86.4954896}, {"type": "node", "id": 9605889520, "lat": 39.1619275, "lon": -86.4953488}, {"type": "node", "id": 9605889521, "lat": 39.161986, "lon": -86.4954976}, {"type": "node", "id": 9605889522, "lat": 39.1619958, "lon": -86.4953568}, {"type": "node", "id": 9605889523, "lat": 39.1620382, "lon": -86.4955017}, {"type": "node", "id": 9605889524, "lat": 39.1620487, "lon": -86.4953664}, {"type": "node", "id": 9605889525, "lat": 39.1620897, "lon": -86.4955084}, {"type": "node", "id": 9605889528, "lat": 39.1622047, "lon": -86.4954846}, {"type": "node", "id": 9605889529, "lat": 39.1620928, "lon": -86.4954696}, {"type": "node", "id": 9605889530, "lat": 39.1620855, "lon": -86.4955541}, {"type": "node", "id": 9605889531, "lat": 39.1621977, "lon": -86.4955691}, {"type": "node", "id": 9609322940, "lat": 39.1651428, "lon": -86.4942168}, {"type": "node", "id": 9609322941, "lat": 39.1651427, "lon": -86.494385}, {"type": "node", "id": 9609322942, "lat": 39.1650529, "lon": -86.4942175}, {"type": "node", "id": 9609322944, "lat": 39.1671187, "lon": -86.4945667}, {"type": "node", "id": 9609322945, "lat": 39.1671202, "lon": -86.4943847}, {"type": "node", "id": 9609322958, "lat": 39.1650537, "lon": -86.4943858}, {"type": "node", "id": 10017002894, "lat": 39.1887129, "lon": -86.5484321}, {"type": "node", "id": 10017002895, "lat": 39.1886776, "lon": -86.5484305}, {"type": "node", "id": 10019233463, "lat": 39.1657504, "lon": -86.4984813, "tags": {"amenity": "restaurant", "cuisine": "italian", "name": "Buccetto's Pizza Pasta"}}, {"type": "node", "id": 10054989582, "lat": 39.1671787, "lon": -86.5295757}, {"type": "node", "id": 10054989583, "lat": 39.1671905, "lon": -86.5295757}, {"type": "node", "id": 10054989584, "lat": 39.1671905, "lon": -86.5296261}, {"type": "node", "id": 10054989585, "lat": 39.1671737, "lon": -86.5296261}, {"type": "node", "id": 10067554999, "lat": 39.169323, "lon": -86.5342128}, {"type": "node", "id": 10067601956, "lat": 39.1658111, "lon": -86.5294114}, {"type": "node", "id": 10067601957, "lat": 39.1658113, "lon": -86.5294633}, {"type": "node", "id": 10085863037, "lat": 39.1664195, "lon": -86.528637, "tags": {"amenity": "restaurant", "cuisine": "japanese", "name": "Z & C Teriyaki & Sushi"}}, {"type": "node", "id": 10085863038, "lat": 39.1652736, "lon": -86.5286742}, {"type": "node", "id": 10085863045, "lat": 39.1654718, "lon": -86.5284672}, {"type": "node", "id": 10085863046, "lat": 39.1654298, "lon": -86.5284663}, {"type": "node", "id": 10085863047, "lat": 39.1654327, "lon": -86.5295225, "tags": {"amenity": "restaurant", "cuisine": "asian", "name": "Do Asian Fusion"}}, {"type": "node", "id": 10085863049, "lat": 39.1653851, "lon": -86.5292379}, {"type": "node", "id": 10085863050, "lat": 39.165385, "lon": -86.529247}, {"type": "node", "id": 10085863051, "lat": 39.1653328, "lon": -86.5294023}, {"type": "node", "id": 10085863052, "lat": 39.1654061, "lon": -86.5294032}, {"type": "node", "id": 10085863053, "lat": 39.1654063, "lon": -86.5293795}, {"type": "node", "id": 10085863054, "lat": 39.1654324, "lon": -86.5293799}, {"type": "node", "id": 10085863066, "lat": 39.1667091, "lon": -86.5295601, "tags": {"addr:city": "Bloomington", "addr:housenumber": "405", "addr:state": "IN", "addr:street": "East Kirkwood Avenue", "amenity": "restaurant", "cuisine": "pizza", "name": "Cafe Pizzaria", "opening_hours": "Mo-Th 11:00-21:00; Fr,Sa 11:00-22:00; Mo-Th 11:00-22:00; Fr-Sa 11:00-23:00; Su 16:00-22:00", "phone": "+1-812-332-2111"}}, {"type": "node", "id": 10085863072, "lat": 39.164484, "lon": -86.532775, "tags": {"amenity": "fast_food", "cuisine": "juice", "name": "Inbloom Eats"}}, {"type": "node", "id": 10085863074, "lat": 39.1647318, "lon": -86.532548, "tags": {"amenity": "restaurant", "cuisine": "pizza", "name": "Da Vinci Pizza & Pasta"}}, {"type": "node", "id": 10085863075, "lat": 39.1648834, "lon": -86.5325503, "tags": {"amenity": "restaurant", "cuisine": "asian", "name": "Lan Ramen & Aqua Tea"}}, {"type": "node", "id": 10115489969, "lat": 39.1673076, "lon": -86.5359139}, {"type": "node", "id": 10115489971, "lat": 39.1673462, "lon": -86.5354895}, {"type": "node", "id": 10115489996, "lat": 39.1704149, "lon": -86.5359683}, {"type": "node", "id": 10553787251, "lat": 39.1684139, "lon": -86.5359805, "tags": {"addr:city": "Bloomington", "addr:housenumber": "238", "addr:postcode": "47404", "addr:state": "IN", "addr:street": "North Morton Street", "amenity": "restaurant", "cuisine": "bagel", "name": "Bloomington Bagel Company", "opening_hours": "Tu-Sa 07:30-14:00; Su 08:00-14:00", "phone": "+1-812-349-4653", "website": "https://bbcbagel.com/"}}, {"type": "node", "id": 10553787252, "lat": 39.1683568, "lon": -86.5350595, "tags": {"amenity": "restaurant", "name": "Coaches Bar & Grill"}}, {"type": "node", "id": 10553787253, "lat": 39.167743, "lon": -86.5346885, "tags": {"addr:city": "Bloomington", "addr:housenumber": "122", "addr:postcode": "47404", "addr:state": "IN", "addr:street": "West 6th Street", "amenity": "restaurant", "cuisine": "juice", "name": "Soul + Juice", "opening_hours": "Mo-Th 09:00-18:00; Fr-Su 09:00-18:30", "phone": "+1-812-717-7685", "website": "https://www.juicemysoul.com/"}}, {"type": "node", "id": 10553787268, "lat": 39.1682427, "lon": -86.5334269, "tags": {"addr:city": "Bloomington", "addr:housenumber": "222", "addr:postcode": "47404", "addr:state": "IN", "addr:street": "North Walnut Street", "amenity": "restaurant", "cuisine": "pizza", "name": "Rockit's Famous Pizza", "phone": "+1-812-994-4717", "website": "https://www.rockitsfamouspizza.com/"}}, {"type": "node", "id": 10553787270, "lat": 39.1674227, "lon": -86.5334337, "tags": {"addr:city": "Bloomington", "addr:housenumber": "124", "addr:postcode": "47404", "addr:state": "IN", "addr:street": "North Walnut Street", "amenity": "restaurant", "cuisine": "indian", "name": "Amrit India", "phone": "+1-812-650-3812", "takeaway": "yes", "website": "https://www.amritbloomington.com/"}}, {"type": "node", "id": 10553787276, "lat": 39.1669205, "lon": -86.5334527}, {"type": "node", "id": 10553787277, "lat": 39.1669177, "lon": -86.5329765}, {"type": "node", "id": 10553787278, "lat": 39.1668016, "lon": -86.5329776}, {"type": "node", "id": 10553787279, "lat": 39.1668044, "lon": -86.5334538}, {"type": "node", "id": 10553787286, "lat": 39.1689343, "lon": -86.5334063, "tags": {"amenity": "restaurant", "cuisine": "asian", "name": "Homey Hot Pot"}}, {"type": "node", "id": 10553787289, "lat": 39.1674675, "lon": -86.5354893}, {"type": "node", "id": 10553787290, "lat": 39.1674649, "lon": -86.5350085}, {"type": "node", "id": 10558531190, "lat": 39.1748636, "lon": -86.5333357}, {"type": "node", "id": 10558531191, "lat": 39.1749098, "lon": -86.5333404}, {"type": "node", "id": 10558531192, "lat": 39.1749272, "lon": -86.5330524}, {"type": "node", "id": 10583023869, "lat": 39.1788239, "lon": -86.5344776, "tags": {"addr:city": "Bloomington", "addr:housenumber": "1280", "addr:postcode": "47404", "addr:state": "IN", "addr:street": "North College Avenue", "amenity": "fast_food", "cuisine": "donut", "name": "Square Donuts", "phone": "+1-812-337-0100", "website": "https://squaredonuts.com/"}}, {"type": "node", "id": 10583023878, "lat": 39.1820747, "lon": -86.5355055, "tags": {"addr:city": "Bloomington", "addr:housenumber": "1713", "addr:postcode": "47404", "addr:state": "IN", "addr:street": "North College Avenue", "addr:unit": "Suite 3", "amenity": "restaurant", "cuisine": "pizza", "email": "info@rockyspizza.org", "name": "Rocky's Pizza", "opening_hours": "Su-Th 11:00-22:00; Fr-Sa 11:00-24:00", "phone": "+1-812-822-3190", "website": "https://rockyspizzaonline.com/"}}, {"type": "node", "id": 10583023885, "lat": 39.1820135, "lon": -86.5362361, "tags": {"addr:city": "Bloomington", "addr:housenumber": "1709", "addr:postcode": "47404", "addr:state": "IN", "addr:street": "North College Avenue", "amenity": "restaurant", "name": "La Bonita Restaurant & Market", "shop": "supermarket"}}, {"type": "node", "id": 10611489152, "lat": 39.2140857, "lon": -86.5903054, "tags": {"addr:city": "Bloomington", "addr:housenumber": "4264", "addr:postcode": "47404", "addr:state": "IN", "addr:street": "North Cypress Lane", "amenity": "restaurant", "brand": "Pizza Hut", "brand:wikidata": "Q191615", "contact:website": "https://locations.pizzahut.com/in/bloomington/4264-n-cypress-ln", "cuisine": "pizza", "name": "Pizza Hut"}}, {"type": "node", "id": 10866465138, "lat": 39.1382592, "lon": -86.529819}, {"type": "node", "id": 10885609815, "lat": 39.1694276, "lon": -86.5333143}, {"type": "node", "id": 10885609816, "lat": 39.1692506, "lon": -86.5333143}, {"type": "node", "id": 10901049389, "lat": 39.168045, "lon": -86.5338227}, {"type": "node", "id": 10901049390, "lat": 39.1676795, "lon": -86.5338246}, {"type": "node", "id": 10901049391, "lat": 39.1680453, "lon": -86.5339457}, {"type": "node", "id": 10901049392, "lat": 39.1676793, "lon": -86.5339509}, {"type": "node", "id": 10901049396, "lat": 39.1678813, "lon": -86.5346155}, {"type": "node", "id": 10901049397, "lat": 39.1678823, "lon": -86.5345454}, {"type": "node", "id": 10901049398, "lat": 39.1679388, "lon": -86.5339472}, {"type": "node", "id": 10901049399, "lat": 39.1679365, "lon": -86.5338233}, {"type": "node", "id": 10901063105, "lat": 39.1692883, "lon": -86.5338462}, {"type": "node", "id": 10901063110, "lat": 39.16917, "lon": -86.5337538}, {"type": "node", "id": 10901063112, "lat": 39.1694082, "lon": -86.5339103}, {"type": "node", "id": 10996416472, "lat": 39.1627982, "lon": -86.4974703}, {"type": "node", "id": 10996416494, "lat": 39.1627996, "lon": -86.497712}, {"type": "node", "id": 10996457513, "lat": 39.162645, "lon": -86.4977202}, {"type": "node", "id": 10996457522, "lat": 39.1625667, "lon": -86.4975697}, {"type": "node", "id": 10996457529, "lat": 39.1625724, "lon": -86.4975166}, {"type": "node", "id": 10996457530, "lat": 39.1625763, "lon": -86.497477}, {"type": "node", "id": 10996457544, "lat": 39.1626747, "lon": -86.4974492}, {"type": "node", "id": 11006706591, "lat": 39.1603922, "lon": -86.5333577}, {"type": "node", "id": 11006706592, "lat": 39.1603746, "lon": -86.533358}, {"type": "node", "id": 11006706593, "lat": 39.1603078, "lon": -86.533359}, {"type": "node", "id": 11006706594, "lat": 39.1602959, "lon": -86.5333593}, {"type": "node", "id": 11016914382, "lat": 39.1745504, "lon": -86.5180445}, {"type": "node", "id": 11016914383, "lat": 39.1745836, "lon": -86.5181182}, {"type": "node", "id": 11016914387, "lat": 39.1742053, "lon": -86.5180411}, {"type": "node", "id": 11016914412, "lat": 39.1744253, "lon": -86.518624}, {"type": "node", "id": 11016914413, "lat": 39.1742665, "lon": -86.5179952}, {"type": "node", "id": 11016914419, "lat": 39.1744664, "lon": -86.5178584}, {"type": "node", "id": 11016914420, "lat": 39.1744744, "lon": -86.5178763}, {"type": "node", "id": 11016914424, "lat": 39.1745336, "lon": -86.5180074}, {"type": "node", "id": 11033624987, "lat": 39.1711908, "lon": -86.5004213, "tags": {"amenity": "restaurant", "cuisine": "chinese", "name": "Oasis Chinese"}}, {"type": "node", "id": 11033624991, "lat": 39.1707802, "lon": -86.5008779, "tags": {"amenity": "fast_food", "brand": "Jersey Mike's Subs", "brand:wikidata": "Q6184897", "cuisine": "sandwich", "name": "Jersey Mike's Subs", "short_name": "Jersey Mike's", "takeaway": "yes"}}, {"type": "node", "id": 11033624992, "lat": 39.1707872, "lon": -86.5007139, "tags": {"amenity": "restaurant", "cuisine": "wings", "name": "Wings Xtreme U"}}, {"type": "way", "id": 29550035, "nodes": [5371884271, 325686962, 325686963, 325686964, 5371884271], "tags": {"air_conditioning": "yes", "amenity": "fast_food", "brand": "Five Guys", "brand:wikidata": "Q1131810", "brand:wikipedia": "en:Five Guys", "building": "yes", "cuisine": "burger", "indoor_seating": "yes", "name": "Five Guys", "official_name": "Five Guys Burgers and Fries", "opening_hours": "Mo-Su 11:00-20:00", "outdoor_seating": "no", "smoking": "no", "takeaway": "yes"}}, {"type": "way", "id": 77362919, "nodes": [910652394, 910652395, 910652396, 910652397, 910652394], "tags": {"addr:city": "Bloomington", "addr:housenumber": "2846", "addr:postcode": "47401", "addr:state": "IN", "addr:street": "East 3rd Street", "amenity": "restaurant", "brand": "Red Robin", "brand:wikidata": "Q7304886", "brand:wikipedia": "en:Red Robin", "building": "yes", "cuisine": "burger", "name": "Red Robin", "official_name": "Red Robin Gourmet Burgers and Brews", "opening_hours": "Su-Th 11:00-22:00; Fr-Sa 11:00-23:00", "phone": "+1-812-727-3884"}}, {"type": "way", "id": 104949418, "nodes": [1210080927, 1210080999, 1210081019, 1210081057, 1210081000, 1210081033, 1210081054, 1210080957, 1210081055, 1210081014, 1210080927], "tags": {"amenity": "fast_food", "brand": "Wendy's", "brand:wikidata": "Q550258", "brand:wikipedia": "en:Wendy's", "cuisine": "burger", "name": "Wendy's", "opening_hours": "Mo-Su 06:30-01:00", "takeaway": "yes"}}, {"type": "way", "id": 154762537, "nodes": [1672491823, 1672491901, 1672492009, 1672492094, 11016914383, 11016914382, 9338516895, 11016914424, 11016914420, 9338516897, 11016914419, 1672491884, 11016914413, 11016914387, 1672491396, 1672491365, 1672491434, 11016914412, 1672491894, 4751887700, 1672491823], "tags": {"amenity": "food_court", "building": "yes", "name": "Gresham Dining Hall", "outdoor_seating": "yes"}}, {"type": "way", "id": 154884467, "nodes": [1673473388, 1673473374, 1673473382, 1673473409, 1673473388], "tags": {"addr:city": "Bloomington", "addr:housenumber": "502", "addr:postcode": "47408", "addr:state": "IN", "addr:street": "East Kirkwood Avenue", "amenity": "bar", "building": "yes", "name": "Kilroy's"}}, {"type": "way", "id": 174411499, "nodes": [6468253785, 1851064928, 1851064871, 1851064891, 6468253785], "tags": {"addr:city": "Bloomington", "addr:housenumber": "3297", "addr:postcode": "47401", "addr:state": "IN", "addr:street": "East Covenanter Drive", "air_conditioning": "yes", "amenity": "restaurant", "building": "yes", "cuisine": "japanese", "diet:vegetarian": "yes", "name": "Toto's Uncle Cafe", "opening_hours": "Tu-Su 11:00-21:00"}}, {"type": "way", "id": 244867406, "nodes": [2521374942, 2521374943, 2521374941, 2521374940, 5959964095, 2521374942], "tags": {"addr:city": "Bloomington", "addr:housenumber": "1428", "addr:postcode": "47401", "addr:state": "IN", "addr:street": "East 3rd Street", "amenity": "restaurant", "building": "yes", "cuisine": "pizza;salad", "diet:vegetarian": "yes", "name": "Mother Bear's Pizza", "opening_hours": "Su-Th 11:00-22:00; Fr-Sa 11-23:00", "phone": "(812) 332-4495", "website": "https://motherbearspizza.com/"}}, {"type": "way", "id": 270361091, "nodes": [6595482539, 2753880841, 2753880842, 2753880843, 6595482539], "tags": {"addr:city": "Bloomington", "addr:housenumber": "113", "addr:state": "IN", "addr:street": "North Dunn Street", "amenity": "restaurant", "building": "yes", "cuisine": "bagel", "name": "Bloomington Bagel Company;Bloomingon Bagel Company", "opening_hours": "Mo-Su 06:00-16:00", "phone": "+1-812-333-4653"}}, {"type": "way", "id": 270361098, "nodes": [2753880867, 2753880868, 2753880869, 2753880870, 2753880871, 2753880872, 2753880873, 2753880874, 2753880867], "tags": {"addr:city": "Bloomington", "addr:housenumber": "322", "addr:postcode": "47408", "addr:state": "IN", "addr:street": "East Kirkwood Avenue", "amenity": "cafe", "building": "yes", "name": "Soma Coffeehouse And Juice Bar", "not:brand:wikidata": "Q69882213"}}, {"type": "way", "id": 271048689, "nodes": [2760033893, 6590112981, 2760033894, 2760033895, 2760033896, 2760033893], "tags": {"addr:city": "Bloomington", "addr:housenumber": "420", "addr:postcode": "47408", "addr:state": "IN", "addr:street": "East Kirkwood Avenue", "alt_name": "Chipotle Mexican Grill", "amenity": "fast_food", "brand": "Chipotle", "brand:wikidata": "Q465751", "brand:wikipedia": "en:Chipotle Mexican Grill", "building": "yes", "contact:website": "https://chipotle.com/", "cuisine": "mexican", "diet:vegan": "yes", "diet:vegetarian": "yes", "name": "Chipotle", "official_name": "Chipotle Mexican Grill", "takeaway": "yes"}}, {"type": "way", "id": 271373574, "nodes": [2763315924, 2763315925, 2763315926, 2763315927, 2763315928, 2763315929, 2763315930, 2763315931, 2763315932, 2763315933, 2763315934, 2763315924], "tags": {"addr:city": "Bloomington", "addr:housenumber": "1402", "addr:postcode": "47404", "addr:state": "IN", "addr:street": "North Walnut Street", "amenity": "restaurant", "area": "yes", "building": "retail", "cuisine": "chinese", "name": "Red Restaurant", "opening_hours": "Mo 11:00-21:30; We-Su 11:00-21:30", "phone": "+1-812-650-3807", "website": "https://www.redbloomingtonin.com/"}}, {"type": "way", "id": 274898765, "nodes": [2795665950, 2795665951, 2795665947, 2795665946, 2795665948, 2795665949, 2795665950], "tags": {"addr:city": "Bloomington", "addr:housenumber": "2617", "addr:postcode": "47401", "addr:state": "IN", "addr:street": "East 3rd Street", "amenity": "restaurant", "brand": "Red Lobster", "brand:wikidata": "Q846301", "brand:wikipedia": "en:Red Lobster", "building": "yes", "cuisine": "seafood", "name": "Red Lobster"}}, {"type": "way", "id": 274901610, "nodes": [2795697395, 2795697396, 2795697397, 2795697398, 2795697395], "tags": {"addr:city": "Bloomington", "addr:housenumber": "300", "addr:postcode": "47401", "addr:state": "IN", "addr:street": "S College Mall Rd", "alt_name": "Dunkin' Donuts", "amenity": "fast_food", "brand": "Dunkin'", "brand:wikidata": "Q847743", "brand:wikipedia": "en:Dunkin' Donuts", "building": "retail", "building:levels": "1", "contact:website": "https://locations.dunkindonuts.com/en/in/bloomington/300-s-college-mall-rd/359688", "cuisine": "donut;coffee_shop", "drive_through": "yes", "name": "Dunkin'", "takeaway": "yes", "toilets:access": "customers"}}, {"type": "way", "id": 274901611, "nodes": [2795697399, 2795697400, 2795697401, 2795697402, 2795697399], "tags": {"amenity": "fast_food", "brand": "Fazoli's", "brand:wikidata": "Q1399195", "brand:wikipedia": "en:Fazoli's", "building": "yes", "building:levels": "1", "cuisine": "italian", "name": "Fazoli's", "takeaway": "yes"}}, {"type": "way", "id": 282513996, "nodes": [2864633801, 2864633802, 2864633803, 2864633804, 2864633801], "tags": {"addr:city": "Bloomington", "addr:housenumber": "250", "addr:postcode": "47408", "addr:state": "IN", "addr:street": "South Pete Ellis Drive", "amenity": "restaurant", "brand": "Pizza Hut", "brand:wikidata": "Q191615", "brand:wikipedia": "en:Pizza Hut", "building": "yes", "contact:website": "https://locations.pizzahut.com/in/bloomington/250-s-pete-ellis-dr", "cuisine": "pizza", "name": "Pizza Hut"}}, {"type": "way", "id": 282513997, "nodes": [2864633805, 2864633806, 2864633807, 2864633808, 2864633805], "tags": {"addr:city": "Bloomington", "addr:housenumber": "2819", "addr:postcode": "47401", "addr:state": "IN", "addr:street": "East 3rd Street", "amenity": "fast_food", "brand": "McDonald's", "brand:wikidata": "Q38076", "brand:wikipedia": "en:McDonald's", "building": "yes", "cuisine": "burger", "name": "McDonald's", "takeaway": "yes"}}, {"type": "way", "id": 282513998, "nodes": [2864633809, 2864633810, 2864633811, 2864633812, 2864633813, 2864633814, 2864633815, 2864633816, 2864633817, 2864633818, 2864633819, 2864633820, 2864633809], "tags": {"addr:city": "Bloomington", "addr:housenumber": "2811", "addr:postcode": "47401", "addr:state": "IN", "addr:street": "East 3rd Street", "amenity": "restaurant", "brand": "Chili's", "brand:wikidata": "Q1072948", "brand:wikipedia": "en:Chili's", "building": "yes", "cuisine": "tex-mex", "name": "Chili's", "official_name": "Chili's Grill & Bar"}}, {"type": "way", "id": 282513999, "nodes": [2864633821, 2864633822, 2864633823, 2864633824, 2864633825, 2864633826, 2864633821], "tags": {"addr:city": "Bloomington", "addr:housenumber": "2713", "addr:postcode": "47401", "addr:state": "IN", "addr:street": "East 3rd Street", "amenity": "fast_food", "brand": "Arby's", "brand:wikidata": "Q630866", "brand:wikipedia": "en:Arby's", "building": "commercial", "cuisine": "sandwich", "name": "Arby's", "takeaway": "yes"}}, {"type": "way", "id": 282514002, "nodes": [2864633859, 2864633860, 2864633861, 2864633862, 2864633863, 2864633864, 2864633865, 2864633866, 2864633859], "tags": {"addr:city": "Bloomington", "addr:housenumber": "2901", "addr:postcode": "47401", "addr:state": "IN", "addr:street": "East 3rd Street", "alt_name": "Kentucky Fried Chicken", "amenity": "fast_food", "brand": "KFC", "brand:wikidata": "Q524757", "brand:wikipedia": "en:KFC", "building": "yes", "cuisine": "chicken", "name": "KFC", "takeaway": "yes"}}, {"type": "way", "id": 282514003, "nodes": [2864633867, 2864633868, 2864633869, 2864633870, 2864633867], "tags": {"addr:city": "Bloomington", "addr:housenumber": "3001", "addr:postcode": "47401", "addr:state": "IN", "addr:street": "East 3rd Street", "amenity": "fast_food", "brand": "Taco Bell", "brand:wikidata": "Q752941", "brand:wikipedia": "en:Taco Bell", "building": "yes", "cuisine": "tex-mex", "name": "Taco Bell", "takeaway": "yes"}}, {"type": "way", "id": 282514007, "nodes": [2864634104, 2864634105, 9514255719, 9514255720, 2864634111, 2864634113, 2864634104], "tags": {"amenity": "fast_food", "brand": "Burger King", "brand:wikidata": "Q177054", "brand:wikipedia": "en:Burger King", "building": "yes", "cuisine": "burger", "name": "Burger King", "takeaway": "yes"}}, {"type": "way", "id": 282514023, "nodes": [2864634372, 2864634380, 2864634379, 2864634381, 2864634378, 2864634373, 2864634374, 2864634375, 2864634376, 2864634377, 2864634372], "tags": {"addr:city": "Bloomington", "addr:housenumber": "721", "addr:postcode": "47401", "addr:state": "IN", "addr:street": "South College Mall Rd", "air_conditioning": "yes", "amenity": "restaurant", "brand": "LongHorn Steakhouse", "brand:wikidata": "Q3259007", "brand:wikipedia": "en:LongHorn Steakhouse", "building": "commercial", "cuisine": "steak_house", "name": "LongHorn Steakhouse", "opening_hours": "Su-Th 11:00-22:00; Fr-Sa 11:00-23:00", "phone": "+1-812-334-1600", "website": "https://www.longhornsteakhouse.com/locations/in/bloomington/bloomington/5270"}}, {"type": "way", "id": 282521321, "nodes": [2864671505, 2864671506, 2864671507, 2864671508, 2864671505], "tags": {"addr:city": "Bloomington", "addr:housenumber": "2800", "addr:postcode": "47401", "addr:state": "IN", "addr:street": "East Buick Cadillac Boulevard", "amenity": "restaurant", "building": "yes", "name": "The bowl - noodle restaurant"}}, {"type": "way", "id": 282521869, "nodes": [5706470836, 2864675388, 2864675389, 2864675390, 2864675391, 2864675392, 5706470836], "tags": {"addr:city": "Bloomington", "addr:housenumber": "3020", "addr:postcode": "47401", "addr:state": "IN", "addr:street": "East 3rd Street", "amenity": "fast_food", "brand": "Chick-fil-A", "brand:wikidata": "Q491516", "brand:wikipedia": "en:Chick-fil-A", "building": "commercial", "cuisine": "chicken", "name": "Chick-fil-A", "takeaway": "yes"}}, {"type": "way", "id": 282521872, "nodes": [2864675397, 2864675398, 2864675399, 2864675400, 2864675397], "tags": {"amenity": "restaurant", "building": "yes", "cuisine": "chicken", "name": "Joella's"}}, {"type": "way", "id": 282527730, "nodes": [2864748660, 2864748661, 2864748662, 2864748663, 2864748660], "tags": {"addr:city": "Bloomington", "addr:housenumber": "2101", "addr:postcode": "47403", "addr:state": "IN", "addr:street": "South Liberty Drive", "amenity": "fast_food", "brand": "Steak 'n Shake", "brand:wikidata": "Q7605233", "brand:wikipedia": "en:Steak 'n Shake", "building": "retail", "cuisine": "burger", "name": "Steak 'n Shake", "phone": "+1-812-339-7222", "takeaway": "yes", "website": "https://www.steaknshake.com/"}}, {"type": "way", "id": 282534010, "nodes": [2864782237, 2864782239, 3628663063, 4659347685, 2864782240, 2864782241, 4659347684, 2864782242, 2864782243, 2864782244, 2864782237], "tags": {"addr:city": "Bloomington", "addr:housenumber": "3301", "addr:postcode": "47403", "addr:state": "IN", "addr:street": "West 3rd Street", "amenity": "fast_food", "brand": "Hardee's", "brand:wikidata": "Q1585088", "brand:wikipedia": "en:Hardee's", "building": "yes", "cuisine": "burger", "drive_through": "yes", "name": "Hardee's", "takeaway": "yes"}}, {"type": "way", "id": 282534011, "nodes": [2864782245, 2864782246, 2864782247, 2864782248, 2864782245], "tags": {"addr:city": "Bloomington", "addr:housenumber": "3233", "addr:postcode": "47401", "addr:state": "IN", "addr:street": "Whitehall Pike", "amenity": "restaurant", "brand": "Bob Evans", "brand:wikidata": "Q4932386", "brand:wikipedia": "en:Bob Evans Restaurants", "building": "commercial", "cuisine": "american", "name": "Bob Evans", "phone": "+1-812-334-2515", "website": "https://www.bobevans.com/"}}, {"type": "way", "id": 282534012, "nodes": [2864782249, 2864782250, 2864782251, 2864782252, 2864782249], "tags": {"addr:city": "Bloomington", "addr:housenumber": "3201", "addr:postcode": "47404", "addr:state": "IN", "addr:street": "West 3rd Street", "amenity": "restaurant", "brand": "Outback Steakhouse", "brand:wikidata": "Q1064893", "brand:wikipedia": "en:Outback Steakhouse", "building": "commercial", "cuisine": "american;steak", "name": "Outback Steakhouse"}}, {"type": "way", "id": 282534013, "nodes": [2864782253, 2864782254, 2864782255, 2864782256, 2864782253], "tags": {"addr:city": "Bloomington", "addr:housenumber": "3151", "addr:postcode": "47404", "addr:state": "IN", "addr:street": "West 3rd Street", "amenity": "restaurant", "building": "commercial", "cuisine": "pizza", "name": "Monroe County Pizza"}}, {"type": "way", "id": 282534016, "nodes": [2864782273, 2864782274, 2864782275, 2864782276, 2864782277, 2864782278, 2864782279, 2864782280, 2864782273], "tags": {"addr:city": "Bloomington", "addr:housenumber": "3300", "addr:postcode": "47404", "addr:state": "IN", "addr:street": "West 3rd Street", "amenity": "fast_food", "brand": "Arby's", "brand:wikidata": "Q630866", "brand:wikipedia": "en:Arby's", "building": "commercial", "cuisine": "sandwich", "drive_through": "yes", "name": "Arby's", "phone": "+1-812-334-1657", "takeaway": "yes"}}, {"type": "way", "id": 282534017, "nodes": [7239563085, 2864782282, 2864782283, 2864782284, 7239563085], "tags": {"addr:city": "Bloomington", "addr:housenumber": "3316", "addr:postcode": "47404", "addr:state": "IN", "addr:street": "West 3rd Street", "amenity": "restaurant", "building": "commercial", "cuisine": "thai", "name": "My Thai Cafe & Sushi Bar"}}, {"type": "way", "id": 282534029, "nodes": [2864782468, 2864782469, 2864782470, 2864782471, 2864782468], "tags": {"addr:city": "Bloomington", "addr:housenumber": "3233", "addr:postcode": "47404", "addr:state": "IN", "addr:street": "West Jacob Drive", "amenity": "fast_food", "brand": "White Castle", "brand:wikidata": "Q1244034", "brand:wikipedia": "en:White Castle (restaurant)", "building": "yes", "cuisine": "burger", "name": "White Castle", "takeaway": "yes"}}, {"type": "way", "id": 282534030, "nodes": [2864782474, 2864782475, 2864782476, 2864782477, 2864782478, 2864782479, 2864782480, 2864782481, 2864782482, 2864782483, 2864782474], "tags": {"addr:city": "Bloomington", "addr:housenumber": "3285", "addr:postcode": "47404", "addr:state": "IN", "addr:street": "West Jacob Drive", "amenity": "fast_food", "brand": "Wendy's", "brand:wikidata": "Q550258", "brand:wikipedia": "en:Wendy's", "building": "yes", "cuisine": "burger", "drive_through": "yes", "name": "Wendy's", "phone": "+1 812 339 5632", "takeaway": "yes", "website": "https://www.wendys.com/"}}, {"type": "way", "id": 282534034, "nodes": [2864782608, 2864782609, 2864782610, 2864782611, 2864782612, 2864782613, 2864782614, 5579268904, 5579268905, 5579268906, 5579268907, 2864782615, 5579268910, 5579268908, 5579268909, 5579268903, 2864782616, 2864782617, 2864782618, 2864782619, 2864782608], "tags": {"addr:city": "Bloomington", "addr:housenumber": "320", "addr:postcode": "47404", "addr:state": "IN", "addr:street": "North Jacob Drive", "amenity": "restaurant", "brand": "Olive Garden", "brand:wikidata": "Q3045312", "brand:wikipedia": "en:Olive Garden", "building": "yes", "cuisine": "italian", "name": "Olive Garden"}}, {"type": "way", "id": 282534038, "nodes": [2864782654, 2864782655, 2864782656, 2864782657, 2864782658, 2864782659, 2864782660, 2864782661, 2864782662, 2864782663, 2864782654], "tags": {"addr:city": "Bloomington", "addr:housenumber": "360", "addr:postcode": "47404", "addr:state": "IN", "addr:street": "North Jacob Drive", "amenity": "restaurant", "brand": "O'Charley's", "brand:wikidata": "Q7071703", "brand:wikipedia": "en:O'Charley's", "building": "yes", "cuisine": "american", "name": "O'Charley's"}}, {"type": "way", "id": 282534043, "nodes": [2864782802, 2864782803, 2864782804, 2864782805, 2864782802], "tags": {"addr:city": "Bloomington", "addr:housenumber": "380", "addr:postcode": "47404", "addr:state": "IN", "addr:street": "North Jacob Drive", "amenity": "restaurant", "brand": "Cracker Barrel", "brand:wikidata": "Q4492609", "brand:wikipedia": "en:Cracker Barrel", "building": "yes", "cuisine": "american", "name": "Cracker Barrel", "official_name": "Cracker Barrel Old Country Store"}}, {"type": "way", "id": 282534045, "nodes": [2864782812, 5570228430, 5570228431, 5570228429, 5570228432, 2864782813, 2864782814, 2864782815, 5579231112, 5579231113, 5579231114, 5579231115, 2864782816, 2864782817, 2864782812], "tags": {"amenity": "restaurant", "building": "yes", "cuisine": "pizza", "name": "Mother Bear's Pizza West"}}, {"type": "way", "id": 282540142, "nodes": [2864824929, 2864824930, 2864824931, 2864824932, 2864824929], "tags": {"amenity": "fast_food", "area": "yes", "brand": "Burger King", "brand:wikidata": "Q177054", "brand:wikipedia": "en:Burger King", "building": "yes", "cuisine": "burger", "drive_through": "yes", "name": "Burger King", "takeaway": "yes"}}, {"type": "way", "id": 282540145, "nodes": [2864824933, 2864824934, 2864824935, 2864824936, 2864824937, 2864824938, 2864824939, 2864824940, 2864824933], "tags": {"amenity": "fast_food", "area": "yes", "brand": "Taco Bell", "brand:wikidata": "Q752941", "brand:wikipedia": "en:Taco Bell", "building": "yes", "cuisine": "tex-mex", "drive_through": "yes", "name": "Taco Bell", "takeaway": "yes"}}, {"type": "way", "id": 282540148, "nodes": [2864824941, 2864824942, 2864824943, 2864824944, 2864824945, 2864824946, 2864824941], "tags": {"addr:city": "Bloomington", "addr:housenumber": "3700", "addr:postcode": "47404", "addr:state": "IN", "addr:street": "West 3rd Street", "alt_name": "Kentucky Fried Chicken", "amenity": "fast_food", "area": "yes", "brand": "KFC", "brand:wikidata": "Q524757", "brand:wikipedia": "en:KFC", "building": "yes", "cuisine": "chicken", "drive_through": "yes", "name": "KFC", "phone": "+1-812-339-5172", "takeaway": "yes", "website": "https://www.kfc.com/"}}, {"type": "way", "id": 282540157, "nodes": [2864824955, 2864824956, 2864824957, 2864824958, 2864824955], "tags": {"addr:city": "Bloomington", "addr:housenumber": "3811", "addr:postcode": "47404", "addr:state": "IN", "addr:street": "West 3rd Street", "amenity": "fast_food", "area": "yes", "brand": "Long John Silver's", "brand:wikidata": "Q1535221", "brand:wikipedia": "en:Long John Silver's", "building": "yes", "cuisine": "seafood", "drive_through": "yes", "name": "Long John Silver's", "phone": "+1-812-336-0544", "takeaway": "yes", "website": "http://www.longjohnsilvers.com/"}}, {"type": "way", "id": 282540175, "nodes": [4874771021, 2864824995, 2864824996, 2864824997, 4874771021], "tags": {"addr:city": "Bloomington", "addr:housenumber": "350", "addr:postcode": "47403", "addr:state": "IN", "addr:street": "South Liberty Drive", "amenity": "restaurant", "building": "commercial", "name": "Bucceto's Pizza & Pasta", "name:en": "Bucceto's Smiling Teeth"}}, {"type": "way", "id": 282540203, "nodes": [2864825301, 2864825302, 2864825303, 2864825304, 2864825305, 2864825306, 2864825307, 2864825308, 2864825301], "tags": {"addr:city": "Bloomington", "addr:housenumber": "2910", "addr:postcode": "47404", "addr:state": "IN", "addr:street": "West 3rd Street", "amenity": "fast_food", "brand": "McDonald's", "brand:wikidata": "Q38076", "brand:wikipedia": "en:McDonald's", "building": "yes", "cuisine": "burger", "drive_through": "yes", "name": "McDonald's", "takeaway": "yes"}}, {"type": "way", "id": 282540211, "nodes": [2864825325, 2864825326, 2864825327, 2864825328, 2864825329, 654381206, 2864825330, 2864825325], "tags": {"addr:city": "Bloomington", "addr:housenumber": "125", "addr:postcode": "47404", "addr:state": "IN", "addr:street": "South Franklin Road", "amenity": "restaurant", "brand": "Pizza Hut", "brand:wikidata": "Q191615", "brand:wikipedia": "en:Pizza Hut", "building": "yes", "contact:website": "https://locations.pizzahut.com/in/bloomington/125-franklin", "cuisine": "pizza", "name": "Pizza Hut"}}, {"type": "way", "id": 282540226, "nodes": [654381244, 2864825362, 2864825363, 2864825364, 2864825365, 2864825366, 2864825367, 2864825368, 654381244], "tags": {"addr:city": "Bloomington", "addr:housenumber": "110", "addr:postcode": "47404", "addr:state": "IN", "addr:street": "South Franklin Road", "amenity": "restaurant", "brand": "Texas Roadhouse", "brand:wikidata": "Q7707945", "brand:wikipedia": "en:Texas Roadhouse", "building": "yes", "cuisine": "steak_house", "name": "Texas Roadhouse"}}, {"type": "way", "id": 282540229, "nodes": [654396314, 2864825370, 2864825371, 2864825372, 654396314], "tags": {"addr:city": "Bloomington", "addr:housenumber": "106", "addr:postcode": "47404", "addr:state": "IN", "addr:street": "South Franklin Road", "amenity": "restaurant", "building": "yes", "cuisine": "japanese", "name": "Domo Steak & Sushi"}}, {"type": "way", "id": 282544285, "nodes": [999988690, 2864846601, 2864846602, 2864846603, 999988690], "tags": {"addr:city": "Bloomington", "addr:postcode": "47404", "addr:state": "IN", "amenity": "fast_food", "brand": "McDonald's", "brand:wikidata": "Q38076", "brand:wikipedia": "en:McDonald's", "building": "yes", "cuisine": "burger", "name": "McDonald's", "takeaway": "yes"}}, {"type": "way", "id": 282544294, "nodes": [2864846698, 2864846699, 2864846700, 2864846801, 2864846802, 2864846803, 2864846804, 2864846805, 2864846698], "tags": {"addr:city": "Bloomington", "addr:postcode": "47404", "addr:state": "IN", "amenity": "restaurant", "area": "yes", "brand": "Denny's", "brand:wikidata": "Q1189695", "brand:wikipedia": "en:Denny's", "building": "yes", "cuisine": "american", "name": "Denny's"}}, {"type": "way", "id": 282562752, "nodes": [2865040996, 2865040997, 471951782, 4730678526, 2865040996], "tags": {"addr:city": "Bloomington", "addr:housenumber": "212", "addr:postcode": "47404", "addr:state": "IN", "addr:street": "West Kirkwood Avenue", "amenity": "restaurant", "building": "commercial", "email": "info@irishlion.com", "name": "The Irish Lion Restaurant & Pub", "phone": "+1-812-336-9076"}}, {"type": "way", "id": 282562753, "nodes": [6573687775, 2865041000, 2865041301, 10115489969, 2865041306, 6573687775], "tags": {"amenity": "restaurant", "building": "yes", "cuisine": "steak_house", "name": "Janko's Little Zagreb"}}, {"type": "way", "id": 302621443, "nodes": [3068689329, 10901063112, 3068689330, 10901063105, 3068689331, 3068689332, 10901063110, 3068695633, 3068695634, 3068695635, 10067554999, 3068695636, 3068695637, 3068689329], "tags": {"addr:housenumber": "319", "addr:street": "North Walnut Street", "amenity": "pub", "area": "yes", "building": "yes", "name": "Kilroy's Sports Bar"}}, {"type": "way", "id": 302747081, "nodes": [2865040969, 2865040970, 2865040971, 2865040972, 2865040969], "tags": {"addr:city": "Bloomington", "addr:housenumber": "309", "addr:postcode": "47404", "addr:state": "IN", "addr:street": "North Walnut Street", "amenity": "fast_food", "brand": "Taco Bell", "brand:wikidata": "Q752941", "brand:wikipedia": "en:Taco Bell", "building": "retail", "cuisine": "tex-mex", "drive_through": "yes", "name": "Taco Bell", "opening_hours": "Mo-Su 09:00-24:00", "phone": "+1-812-339-7828", "takeaway": "yes", "website": "https://locations.tacobell.com/in/bloomington/309-north-walnut-street.html"}}, {"type": "way", "id": 313436312, "nodes": [6566924274, 3194146564, 4766685821, 4766677820, 3194146565, 9357015356, 9357015355, 3194146568, 6566924274], "tags": {"addr:city": "Bloomington", "addr:housenumber": "350", "addr:postcode": "47404", "addr:state": "IN", "addr:street": "West 11th Street", "amenity": "restaurant", "building": "yes", "building:material": "brick", "craft": "brewery", "name": "Upland Brewing Company", "phone": "+1-812-336-2337", "roof:colour": "black", "smoking": "isolated", "tourism": "attraction", "website": "https://www.uplandbeer.com/", "wheelchair": "yes"}}, {"type": "way", "id": 376923727, "nodes": [3803010056, 3803010049, 3803010050, 3803010051, 3803010056], "tags": {"amenity": "restaurant", "building": "yes", "cuisine": "chinese", "name": "Lucky Express"}}, {"type": "way", "id": 376923728, "nodes": [3803010757, 3803010053, 3803010054, 3803010055, 3803010757], "tags": {"amenity": "restaurant", "building": "yes", "cuisine": "turkish", "name": "Turkuaz Cafe"}}, {"type": "way", "id": 378333212, "nodes": [3817482586, 3817482587, 3817482588, 3817482589, 3817482586], "tags": {"amenity": "restaurant", "building": "yes", "cuisine": "american", "name": "Runcible Spoon"}}, {"type": "way", "id": 378334330, "nodes": [3817517020, 3817517021, 3817517022, 3817517023, 3817517020], "tags": {"amenity": "restaurant", "building": "yes", "name": "King Gyros"}}, {"type": "way", "id": 426719858, "nodes": [977115566, 4259887010, 4259887011, 4259887012, 4259887013, 4259887014, 4259887015, 4259887016, 4259887017, 4259887008, 977115566], "tags": {"addr:city": "Bloomington", "addr:housenumber": "5700", "addr:postcode": "47404", "addr:state": "IN", "addr:street": "West State Road 46", "amenity": "restaurant", "building": "yes", "cuisine": "pizza", "name": "Pizza Pantry"}}, {"type": "way", "id": 426719874, "nodes": [977115610, 4259887085, 4259887086, 4259887087, 977115610], "tags": {"addr:city": "Bloomington", "addr:housenumber": "5621", "addr:postcode": "47404", "addr:state": "IN", "addr:street": "State Road 46", "amenity": "restaurant", "building": "yes", "cuisine": "pizza", "name": "Chicago's Pizza"}}, {"type": "way", "id": 426719880, "nodes": [977115607, 4259887109, 4259887110, 4259887111, 977115607], "tags": {"addr:state": "IN", "amenity": "fast_food", "brand": "Domino's", "brand:wikidata": "Q839466", "brand:wikipedia": "en:Domino's", "building": "commercial", "cuisine": "pizza", "name": "Domino's", "short_name": "Domino's", "takeaway": "yes"}}, {"type": "way", "id": 426719897, "nodes": [901096153, 4259887259, 4259887260, 4259887261, 4259887262, 4259887263, 901096153], "tags": {"addr:city": "Bloomington", "addr:housenumber": "4727", "addr:postcode": "47404", "addr:state": "IN", "addr:street": "W State Road 46", "amenity": "restaurant", "building": "commercial", "cuisine": "ice_cream", "name": "Jiffy Treat", "phone": "+1-812-876-7770"}}, {"type": "way", "id": 426916386, "nodes": [2258220685, 4261692720, 4261692721, 4261692719, 2258220685], "tags": {"addr:city": "Bloomington", "addr:housenumber": "3811", "addr:postcode": "47404", "addr:state": "IN", "addr:street": "West State Road 46;W State Road 46", "amenity": "fast_food", "brand": "Taco Bell", "brand:wikidata": "Q752941", "brand:wikipedia": "en:Taco Bell", "building": "commercial", "cuisine": "tex-mex", "name": "Taco Bell", "phone": "+1-812-876-7057", "takeaway": "yes"}}, {"type": "way", "id": 426916388, "nodes": [677752477, 4261692735, 4261692736, 4261692737, 4261692738, 4261692739, 4261692740, 4261692741, 677752477], "tags": {"addr:city": "Bloomington", "addr:housenumber": "3601", "addr:postcode": "47403;47404", "addr:state": "IN", "addr:street": "West State Road 46;W State Road 46", "amenity": "fast_food", "brand": "Arby's", "brand:wikidata": "Q630866", "brand:wikipedia": "en:Arby's", "building": "commercial", "cuisine": "sandwich", "name": "Arby's", "phone": "+1-812-935-8686", "takeaway": "yes"}}, {"type": "way", "id": 427162973, "nodes": [7826582526, 677746622, 4264058866, 4264058867, 4264058868, 4264058869, 4264058870, 4264058871, 7826582526], "tags": {"addr:city": "Bloomington", "addr:housenumber": "4618", "addr:postcode": "47404", "addr:state": "IN", "addr:street": "West Richland Plaza", "amenity": "restaurant", "building": "yes", "name": "Wee Willie's"}}, {"type": "way", "id": 429351619, "nodes": [4284749510, 4284749511, 4284749512, 4284749513, 4284749514, 4284749515, 4284749510], "tags": {"addr:city": "Ellettsville", "addr:housenumber": "206", "addr:postcode": "47429", "addr:state": "IN", "addr:street": "North Sale Street", "amenity": "cafe", "building": "yes", "cuisine": "coffee_shop", "name": "Heritage Trail Cafe and Coffee Roasters", "opening_hours": "Mo-Sa 07:00-14:00", "phone": "+1-812-935-5335", "website": "http://www.heritagetrailcafeandcoffeeroaster.com/"}}, {"type": "way", "id": 469322440, "nodes": [6951949348, 4636730791, 9098421111, 9098421112, 9098421113, 9098421114, 4636730792, 4636730793, 6951949348], "tags": {"addr:city": "Bloomington", "addr:housenumber": "614", "addr:postcode": "47401", "addr:state": "IN", "addr:street": "East 2nd Street", "amenity": "restaurant", "building": "yes", "name": "The Elm Restaurant", "opening_hours": "Tu-Fr 07:30-14:30, We-Sa 17:00-22:00"}}, {"type": "way", "id": 472484588, "nodes": [4666793389, 4666793390, 4666793391, 4666793392, 4666793389], "tags": {"addr:city": "Bloomington", "addr:housenumber": "1827", "addr:postcode": "47408", "addr:state": "IN", "addr:street": "East 10th Street", "amenity": "fast_food", "brand": "Jimmy John's", "brand:wikidata": "Q1689380", "brand:wikipedia": "en:Jimmy John's", "building": "yes", "cuisine": "sandwich", "delivery": "yes", "name": "Jimmy John's", "official_name": "Jimmy John's Gourmet Sandwiches", "outdoor_seating": "yes", "takeaway": "yes"}}, {"type": "way", "id": 477190176, "nodes": [4705799881, 10996416494, 4705799989, 4705799990, 4705799994, 4705799992, 4705799991, 10996457513, 4705799995, 4705799996, 4705799993, 4705799882, 10996457522, 10996457529, 10996457530, 4705799883, 4705799884, 4705799885, 10996457544, 10996416472, 4705799886, 4705799887, 4705799888, 4705799881], "tags": {"amenity": "restaurant", "brand": "BJ's", "brand:wikidata": "Q4835755", "brand:wikipedia": "en:BJ's Restaurants", "building": "yes", "cuisine": "american", "name": "BJ's", "official_name": "BJ's Restaurant & Brewhouse"}}, {"type": "way", "id": 477190180, "nodes": [4705800037, 4705800038, 4705800039, 4705800040, 4705800041, 4705800042, 4705800043, 4705800044, 4705800037], "tags": {"addr:housenumber": "2748", "addr:street": "East 3rd Street", "amenity": "fast_food", "brand": "Panera Bread", "brand:wikidata": "Q7130852", "brand:wikipedia": "en:Panera Bread", "building": "commercial", "building:levels": "1", "cuisine": "sandwich;bakery", "diet:vegan": "yes", "diet:vegetarian": "yes", "name": "Panera Bread", "opening_hours": "Mo-Su 07:00-21:00", "short_name": "Panera", "takeaway": "yes", "wheelchair": "yes"}}, {"type": "way", "id": 480041778, "nodes": [4730678207, 1562676282, 4730678211, 4730678208, 4730678207], "tags": {"addr:city": "Bloomington", "addr:housenumber": "107", "addr:postcode": "47404", "addr:state": "IN", "addr:street": "North College Avenue", "addr:unit": "#001", "amenity": "restaurant", "building": "commercial", "building:levels": "2", "cuisine": "thai", "name": "Blooming Thai", "wheelchair": "yes"}}, {"type": "way", "id": 480041779, "nodes": [1562676282, 4730678523, 4730678216, 4730678213, 4730678214, 4730678211, 1562676282], "tags": {"addr:city": "Bloomington", "addr:housenumber": "103", "addr:postcode": "47404", "addr:state": "IN", "addr:street": "North College Avenue", "amenity": "cafe", "building": "commercial", "building:levels": "2", "name": "The Inkwell"}}, {"type": "way", "id": 480041780, "nodes": [4730678214, 4730678217, 471951781, 4730678522, 4730678216, 4730678213, 4730678214], "tags": {"addr:city": "Bloomington", "addr:housenumber": "101", "addr:postcode": "47404", "addr:state": "IN", "addr:street": "North College Avenue", "amenity": "restaurant", "building": "commercial", "building:levels": "2", "cuisine": "american", "microbrewery": "yes", "name": "The Tap", "opening_hours": "Su-Th 11:00-01:00; Fr-Sa 11:00-02:00", "phone": "+1-812-287-8579", "roof:shape": "flat", "website": "http://www.thetapbeerbar.com/"}}, {"type": "way", "id": 480041781, "nodes": [4730678216, 4730678523, 4730678521, 4730678522, 4730678216], "tags": {"addr:city": "Bloomington", "addr:housenumber": "210", "addr:postcode": "47408", "addr:state": "IN", "addr:street": "West Kirkwood Avenue", "amenity": "bar", "building": "commercial", "name": "Alley bar"}}, {"type": "way", "id": 480041782, "nodes": [2865040996, 471951783, 4730678525, 2865040997, 2865040996], "tags": {"addr:city": "Bloomington", "addr:housenumber": "214", "addr:postcode": "47404", "addr:state": "IN", "addr:street": "West Kirkwood Avenue", "amenity": "restaurant", "building": "commercial", "name": "Crazy Horse", "opening_hours": "Su-We 11:00-01:00; Th-Sa 11:00-02:00", "phone": "+1-812.336.8877", "website": "https://www.crazyhorseindiana.com/", "wheelchair": "limited"}}, {"type": "way", "id": 516192871, "nodes": [2865040582, 5039466209, 10901049396, 5039466210, 5039466211, 10901049397, 2865040582], "tags": {"addr:city": "Bloomington", "addr:housenumber": "118", "addr:postcode": "47408", "addr:state": "IN", "addr:street": "West 6th Street", "amenity": "restaurant", "area": "yes", "delivery": "no", "diet:vegetarian": "yes", "name": "The Owlery Restaurant", "opening_hours": "Mo-Sa 11:00-22:00,Su 10:00-15:00", "phone": "+1 812-333-7344", "smoking": "no", "takeaway": "yes", "website": "https://theowleryrestaurant.com/"}}, {"type": "way", "id": 522289025, "nodes": [5087333862, 5087333863, 5087333864, 5087333865, 5087333862], "tags": {"addr:city": "Bloomington", "addr:housenumber": "340", "addr:postcode": "47401", "addr:state": "IN", "addr:street": "South Walnut Street", "amenity": "restaurant", "building": "yes", "name": "Sofra Cafe"}}, {"type": "way", "id": 556926921, "nodes": [5371871423, 5371870216, 5371870217, 5371870218, 5371871423], "tags": {"addr:city": "Bloomington", "addr:postcode": "47401", "addr:state": "IN", "addr:street": "South Walnut Street", "amenity": "cafe", "brand": "Starbucks", "brand:wikidata": "Q37158", "brand:wikipedia": "en:Starbucks", "building": "yes", "contact:website": "https://www.starbucks.com/store-locator/store/7217/walnut-miller-1921-s-walnut-st-bloomington-in-474016559-us", "cuisine": "coffee_shop", "name": "Starbucks", "official_name": "Starbucks Coffee", "takeaway": "yes"}}, {"type": "way", "id": 556926922, "nodes": [976742490, 5371870220, 5371871421, 5371871422, 976742490], "tags": {"addr:city": "Bloomington", "addr:housenumber": "1919", "addr:postcode": "47401", "addr:state": "IN", "addr:street": "South Walnut Street", "amenity": "fast_food", "brand": "McDonald's", "brand:wikidata": "Q38076", "brand:wikipedia": "en:McDonald's", "building": "yes", "cuisine": "burger", "drive_through": "yes", "name": "McDonald's", "phone": "+1-812-334-3637", "takeaway": "yes", "website": "http://www.mcdonalds.com"}}, {"type": "way", "id": 557428297, "nodes": [5376047011, 5376047012, 5376047013, 5376047014, 5376047011], "tags": {"addr:city": "Bloomington", "addr:housenumber": "126", "addr:postcode": "47404", "addr:state": "IN", "addr:street": "South Franklin Road", "amenity": "restaurant", "brand": "Cheddar's", "brand:wikidata": "Q5089187", "brand:wikipedia": "en:Cheddar's Scratch Kitchen", "building": "yes", "cuisine": "american", "name": "Cheddar's", "official_name": "Cheddar's Scratch Kitchen"}}, {"type": "way", "id": 559350174, "nodes": [678445458, 5395097727, 5395097728, 5395097729, 9356285722, 9356285723, 678445458], "tags": {"addr:city": "Bloomington", "addr:housenumber": "4001", "addr:postcode": "47401", "addr:state": "IN", "addr:street": "S Old State Road 37", "amenity": "fast_food", "brand": "Wendy's", "brand:wikidata": "Q550258", "brand:wikipedia": "en:Wendy's", "building": "yes", "cuisine": "burger", "drive_through": "yes", "name": "Wendy's", "phone": "+1-812-824-5444", "takeaway": "yes", "website": "https://www.wendys.com/"}}, {"type": "way", "id": 562372911, "nodes": [5421672134, 5421672135, 5421672136, 5421672137, 5421672134], "tags": {"addr:housenumber": "535", "addr:state": "IN", "amenity": "fast_food", "brand": "Arby's", "brand:wikidata": "Q630866", "brand:wikipedia": "en:Arby's", "building": "commercial", "cuisine": "sandwich", "drive_through": "yes", "name": "Arby's", "phone": "+1-812-332-1599", "takeaway": "yes", "website": "http://www.arbys.com"}}, {"type": "way", "id": 562372912, "nodes": [5421672138, 5421672139, 11006706594, 11006706593, 5421672140, 5421672141, 11006706592, 11006706591, 5421672138], "tags": {"addr:city": "Bloomington", "addr:housenumber": "519", "addr:postcode": "47401", "addr:state": "IN", "addr:street": "South Walnut Street", "amenity": "restaurant", "building": "yes", "name": "Happy Thai Restaurant"}}, {"type": "way", "id": 562372918, "nodes": [5421672174, 5421672175, 5421672176, 5421672177, 5421672174], "tags": {"amenity": "pub", "building": "yes"}}, {"type": "way", "id": 566822862, "nodes": [976732737, 5457875723, 5457875724, 5457875725, 976732737], "tags": {"addr:city": "Bloomington", "addr:housenumber": "2400", "addr:postcode": "47401", "addr:state": "IN", "addr:street": "South Walnut Street", "amenity": "fast_food", "brand": "Taco Bell", "brand:wikidata": "Q752941", "brand:wikipedia": "en:Taco Bell", "building": "yes", "cuisine": "tex-mex", "drive_through": "yes", "name": "Taco Bell", "phone": "+1-812-336-7944", "takeaway": "yes", "website": "https://www.tacobell.com/"}}, {"type": "way", "id": 567091385, "nodes": [4436490149, 5459706427, 5459706428, 5459706429, 4436490149], "tags": {"addr:city": "Bloomington", "addr:housenumber": "235", "addr:postcode": "47403", "addr:state": "IN", "addr:street": "West Dodds Street", "amenity": "cafe", "building": "yes", "cuisine": "coffee_shop", "internet_access": "yes", "name": "Hopscotch Coffee"}}, {"type": "way", "id": 568352699, "nodes": [976732739, 5468069682, 5468069683, 5468069684, 976732739], "tags": {"addr:city": "Bloomington", "addr:housenumber": "2498", "addr:state": "IN", "addr:street": "South Walnut Street", "amenity": "fast_food", "brand": "Burger King", "brand:wikidata": "Q177054", "brand:wikipedia": "en:Burger King", "building": "yes", "cuisine": "burger", "drive_through": "yes", "name": "Burger King", "phone": "+1-812-339-6768", "takeaway": "yes", "website": "https://www.bk.com/"}}, {"type": "way", "id": 570383682, "nodes": [5483643222, 5483643223, 5483643224, 5483643225, 5483643226, 5483643227, 5483643228, 5483643229, 5483643230, 5483643231, 5483643222], "tags": {"addr:city": "Bloomington", "addr:housenumber": "505", "addr:postcode": "47404", "addr:state": "IN", "addr:street": "West 17th Street", "amenity": "restaurant", "building": "yes", "cuisine": "barbecue", "name": "Smokin' Jack's Rib Shack", "outdoor_seating": "yes", "smoking": "no", "takeaway": "yes"}}, {"type": "way", "id": 579317910, "nodes": [975942874, 10866465138, 5548333708, 5548333709, 5548333710, 975942874], "tags": {"addr:city": "Bloomington", "addr:housenumber": "2423", "addr:postcode": "47401", "addr:state": "IN", "addr:street": "South Walnut Street", "amenity": "fast_food", "brand": "Dairy Queen", "brand:wikidata": "Q1141226", "brand:wikipedia": "en:Dairy Queen", "building": "retail", "cuisine": "ice_cream;burger", "drive_through": "yes", "name": "Dairy Queen", "phone": "+1-812-334-2423", "takeaway": "yes"}}, {"type": "way", "id": 579317915, "nodes": [5548334235, 5548334236, 5548334237, 5548334238, 5548334235], "tags": {"amenity": "restaurant", "building": "yes", "cuisine": "pizza", "name": "Pizza X"}}, {"type": "way", "id": 579317947, "nodes": [976742499, 5548334411, 5548334412, 5548334413, 976742499], "tags": {"addr:city": "Bloomington", "addr:state": "IN", "amenity": "fast_food", "brand": "Rally's", "brand:wikidata": "Q63919323", "brand:wikipedia": "en:Checkers and Rally's", "building": "retail", "cuisine": "burger", "drive_through": "yes", "name": "Rally's", "takeaway": "yes"}}, {"type": "way", "id": 616023484, "nodes": [976553242, 5824563946, 5824563947, 5824563948, 976553242], "tags": {"addr:city": "Bloomington", "addr:housenumber": "1919", "addr:postcode": "47404", "addr:state": "IN", "addr:street": "North College Avenue", "amenity": "fast_food", "brand": "Steak 'n Shake", "brand:wikidata": "Q7605233", "brand:wikipedia": "en:Steak 'n Shake", "building": "yes", "cuisine": "burger", "name": "Steak 'n Shake", "takeaway": "yes"}}, {"type": "way", "id": 631128053, "nodes": [5959964128, 2521374942, 2521374943, 5959964127, 5959964126, 5959964128], "tags": {"addr:city": "Bloomington", "addr:housenumber": "1420", "addr:postcode": "47401", "addr:state": "IN", "addr:street": "East 3rd Street", "amenity": "restaurant", "building": "yes", "name": "Sunny Poke & Tea"}}, {"type": "way", "id": 639120284, "nodes": [6022729527, 6022729529, 6022729530, 6022729531, 10067601956, 10067601957, 6022729527], "tags": {"addr:city": "Bloomington", "addr:housenumber": "405", "addr:postcode": "47408", "addr:state": "IN", "addr:street": "East 4th Street", "amenity": "restaurant", "building": "yes", "cuisine": "turkish", "name": "Anatolia Restaurant", "smoking": "no"}}, {"type": "way", "id": 639120286, "nodes": [6022729526, 6022729533, 6022729534, 6022729535, 6022729526], "tags": {"addr:city": "Bloomington", "addr:housenumber": "113", "addr:postcode": "47408", "addr:state": "IN", "addr:street": "South Grant Street", "amenity": "restaurant", "building": "yes", "cuisine": "chinese", "name": "Longfei Chinese Restaurant"}}, {"type": "way", "id": 639120289, "nodes": [6022729536, 6566934506, 6022729538, 6022729539, 6022729536], "tags": {"addr:city": "Bloomington", "addr:housenumber": "409", "addr:postcode": "47408", "addr:state": "IN", "addr:street": "East 4th Street", "amenity": "restaurant", "building": "yes", "cuisine": "korean", "name": "Korea Restaurant", "smoking": "no"}}, {"type": "way", "id": 639120293, "nodes": [6022729541, 10085863051, 10085863052, 10085863053, 10085863054, 6022729542, 10085863050, 10085863049, 6022729543, 6022729544, 6022729545, 6022729546, 6022729541], "tags": {"addr:city": "Bloomington", "addr:housenumber": "408", "addr:postcode": "47408", "addr:state": "IN", "addr:street": "East 4th Street", "amenity": "restaurant", "building": "yes", "name": "Btown Gyros", "opening_hours": "Mo-Sa 10:30-21:30; Su 10:30-19:30", "phone": "+1-812-333-1396"}}, {"type": "way", "id": 644919407, "nodes": [6063767224, 6063767223, 6063767222, 6063767221, 6063767224], "tags": {"amenity": "fast_food", "brand": "Domino's", "brand:wikidata": "Q839466", "brand:wikipedia": "en:Domino's Pizza", "building": "yes", "cuisine": "pizza", "name": "Domino's", "short_name": "Domino's", "takeaway": "yes"}}, {"type": "way", "id": 644919417, "nodes": [6063767267, 6063767266, 6063767265, 6063767264, 6063767267], "tags": {"addr:city": "Bloomington", "addr:housenumber": "415", "addr:postcode": "47404", "addr:state": "IN", "addr:street": "North Walnut Street", "amenity": "fast_food", "brand": "Papa John's", "brand:wikidata": "Q2759586", "brand:wikipedia": "en:Papa John's", "building": "yes", "cuisine": "pizza", "name": "Papa John's", "opening_hours": "Su 11:00-24:00, Mo-We 10:00-01:00, Th 10:00-02:00, Fr,Sa 10:00-03:00", "phone": "+1-812-336-7272", "takeaway": "yes"}}, {"type": "way", "id": 644919418, "nodes": [6063767279, 10885609815, 6063767273, 6063767272, 10885609816, 6063767276, 6063767279], "tags": {"addr:city": "Bloomington", "addr:housenumber": "320", "addr:postcode": "47404", "addr:state": "IN", "addr:street": "North Walnut Street", "amenity": "restaurant", "building": "yes", "name": "Kalao"}}, {"type": "way", "id": 644919459, "nodes": [6063767547, 6063767544, 7115693366, 6063767545, 6063767546, 6063767547], "tags": {"amenity": "bar", "building": "yes", "name": "Friendly Beasts Cider Company", "opening_hours": "Th-Sa 16:00-23:00", "outdoor_seating": "yes", "website": "https://friendlybeastscider.com/"}}, {"type": "way", "id": 699314360, "nodes": [2760035030, 6566924280, 6590112972, 6566924281, 6566924282, 2760035030], "tags": {"addr:city": "Bloomington", "addr:housenumber": "409", "addr:postcode": "47408", "addr:state": "IN", "addr:street": "East Kirkwood Avenue", "amenity": "restaurant", "building": "yes", "cuisine": "american;breakfast", "name": "Village Deli", "opening_hours": "Mo-Fr 07:00-18:00; Sa-Su 08:00-18:00", "phone": "+1-812-336-2303"}}, {"type": "way", "id": 699314363, "nodes": [6566934489, 6566934487, 6566934488, 5608201176, 6566934491, 6566934489], "tags": {"addr:city": "Bloomington", "addr:housenumber": "423", "addr:postcode": "47408", "addr:state": "IN", "addr:street": "East Kirkwood Avenue", "amenity": "bar", "building": "yes", "name": "Nick's English hut", "opening_hours": "Mo-Sa 11:00-02:00; Su 11:00-24:00", "outdoor_seating": "yes", "phone": "+1-812-332-4040"}}, {"type": "way", "id": 699314364, "nodes": [6566934492, 6566934493, 9355783316, 9355783315, 6566934494, 9355783313, 9355783314, 6566934495, 10054989582, 10054989583, 10054989584, 10054989585, 6566934492], "tags": {"addr:city": "Bloomington", "addr:housenumber": "116", "addr:postcode": "47408", "addr:state": "IN", "addr:street": "North Grant Street", "amenity": "restaurant", "building": "yes", "name": "Big Woods Bloomington"}}, {"type": "way", "id": 702032775, "nodes": [976732734, 6592777998, 6592777999, 6592778000, 976732734], "tags": {"addr:city": "Bloomington", "addr:housenumber": "221", "addr:postcode": "47403", "addr:state": "IN", "addr:street": "West 2nd Street", "amenity": "fast_food", "brand": "Wendy's", "brand:wikidata": "Q550258", "brand:wikipedia": "en:Wendy's", "building": "yes", "cuisine": "burger", "drive_through": "yes", "name": "Wendy's", "phone": "+1-812-332-4202", "takeaway": "yes", "website": "https://www.wendys.com/"}}, {"type": "way", "id": 702032781, "nodes": [482798886, 10085863045, 10085863046, 6592778026, 6592778027, 6592778028, 6592778029, 6592778030, 482798886], "tags": {"addr:city": "Bloomington", "addr:housenumber": "430", "addr:postcode": "47408", "addr:state": "IN", "addr:street": "East 4th Street", "amenity": "restaurant", "building": "yes", "cuisine": "asian", "name": "Siam House", "website": "http://www.siamhousebloomington.com/"}}, {"type": "way", "id": 702032782, "nodes": [6592778031, 6592778032, 10085863038, 9355879026, 6592778033, 6592778034, 6592778031], "tags": {"addr:city": "Bloomington", "addr:housenumber": "420", "addr:postcode": "47408", "addr:state": "IN", "addr:street": "East 4th Street", "amenity": "cafe", "building": "yes", "name": "A Little Downtown Caf\u00e9"}}, {"type": "way", "id": 702032786, "nodes": [3764377457, 6592778054, 6592778055, 6592778056, 3764377457], "tags": {"addr:city": "Bloomington", "addr:housenumber": "316", "addr:postcode": "47408", "addr:state": "IN", "addr:street": "East 4th Street", "amenity": "restaurant", "building": "yes", "cuisine": "indian", "name": "Taste of India"}}, {"type": "way", "id": 702177704, "nodes": [6594028821, 6594028822, 6594028823, 6594028824, 6594028821], "tags": {"addr:city": "Bloomington", "addr:housenumber": "210", "addr:postcode": "47408", "addr:state": "IN", "addr:street": "South Grant Street", "amenity": "restaurant", "building": "yes", "name": "Cafe Bali"}}, {"type": "way", "id": 702177707, "nodes": [6594028833, 6594028834, 6594028835, 6594028836, 6594028833], "tags": {"addr:city": "Bloomington", "addr:housenumber": "211", "addr:postcode": "47408", "addr:state": "IN", "addr:street": "South Grant Street", "amenity": "restaurant", "building": "yes", "name": "Healthy Hoosiers"}}, {"type": "way", "id": 702177764, "nodes": [5607905453, 6594079009, 6594079010, 6594079011, 5607905453], "tags": {"addr:city": "Bloomington", "addr:housenumber": "620", "addr:postcode": "47404", "addr:state": "IN", "addr:street": "West Kirkwood Avenue", "amenity": "restaurant", "building": "yes", "name": "Juannita's Restaurant", "opening_hours": "Mo-Th,Su 11:00-23:00; Fr,Sa 11:00-01:00", "phone": "+1-812-339-2340", "website": "https://www.juannitas.com/"}}, {"type": "way", "id": 745157575, "nodes": [6975322556, 6975322557, 9357080077, 9357080076, 6975322558, 6975322559, 6975322556], "tags": {"addr:city": "Bloomington", "addr:housenumber": "300", "addr:postcode": "47401", "addr:state": "IN", "addr:street": "East 3rd Street", "amenity": "restaurant", "building": "yes", "layer": "1", "name": "Gourmet Garden"}}, {"type": "way", "id": 798991009, "nodes": [7472496577, 7472496578, 7239500598, 7472496581, 7472496577], "tags": {"addr:city": "Bloomington", "addr:housenumber": "3307", "addr:postcode": "47404", "addr:state": "IN", "addr:street": "West 3rd Street", "amenity": "fast_food", "brand": "Freddy's", "brand:wikidata": "Q5496837", "brand:wikipedia": "en:Freddy's Frozen Custard & Steakburgers", "building": "yes", "cuisine": "ice_cream;burger", "name": "Freddy's", "official_name": "Freddy's Frozen Custard & Steakburgers", "phone": "+1-812-318-6820", "takeaway": "yes"}}, {"type": "way", "id": 812660835, "nodes": [7590463114, 7590463115, 7590463116, 7590463117, 7590463114], "tags": {"addr:city": "Bloomington", "addr:housenumber": "2522", "addr:postcode": "47408", "addr:state": "IN", "addr:street": "East 10th Street", "amenity": "restaurant", "building": "yes", "name": "Sushi Bar Bloomington"}}, {"type": "way", "id": 837449361, "nodes": [7816135845, 7816135840, 7816135841, 7816135842, 7816135843, 7816135844, 7816135845], "tags": {"addr:city": "Bloomington", "addr:housenumber": "413", "addr:postcode": "47408", "addr:state": "IN", "addr:street": "East 4th Street", "amenity": "restaurant", "building": "yes", "cuisine": "burmese", "name": "Burma Garden", "phone": "+1 812 339 7334", "website": "https://burmagarden.com"}}, {"type": "way", "id": 837449362, "nodes": [7816135852, 7816135847, 7816135848, 7816135849, 7816135850, 7816135851, 7816135852], "tags": {"addr:city": "Bloomington", "addr:housenumber": "415", "addr:postcode": "47408", "addr:state": "IN", "addr:street": "East 4th Street", "amenity": "restaurant", "building": "yes", "cuisine": "tibetan", "name": "Anyetsang's Little Tibet Restaurant", "name:bo": "\u0f68\u0f0b\u0f58\u0f84\u0f7a\u0f66\u0f0b\u0f5a\u0f44\u0f0b\u0f56\u0f7c\u0f51\u0f0b\u0f40\u0fb2\u0f72\u0f0b\u0f47\u0f0b\u0f41\u0f44\u0f0b\u0f66", "name:en": "Anyetsang's Little Tibet Restaurant", "phone": "+1 812 331 0122", "website": "https://www.anyetsangs.com"}}, {"type": "way", "id": 866681630, "nodes": [8078200738, 8078200739, 8078200740, 8078200741, 8078200738], "tags": {"addr:city": "Bloomington", "addr:housenumber": "110", "addr:postcode": "47401", "addr:state": "IN", "addr:street": "East Winslow Road", "amenity": "restaurant", "building": "yes", "cuisine": "mexican", "name": "El Ranchero", "phone": "+18128221302"}}, {"type": "way", "id": 887712906, "nodes": [8253464458, 8253464459, 8253464460, 8253464461, 8253464458], "tags": {"addr:city": "Bloomington", "addr:housenumber": "3900", "addr:postcode": "47401", "addr:state": "IN", "addr:street": "East 3rd Street", "amenity": "bar", "building": "yes", "name": "The Office Lounge & Liquor Store", "source": "microsoft/BuildingFootprints"}}, {"type": "way", "id": 887712909, "nodes": [3137680729, 8253464485, 8253464486, 8253464487, 8253464488, 8253464489, 8253464490, 8253464491, 8253464492, 8253464493, 3137680729], "tags": {"addr:city": "Bloomington", "addr:housenumber": "4400", "addr:postcode": "47401", "addr:state": "IN", "addr:street": "East 3rd Street", "amenity": "restaurant", "building": "yes", "cuisine": "asian", "name": "Mr. Hibachi Buffet", "source": "microsoft/BuildingFootprints"}}, {"type": "way", "id": 896860029, "nodes": [8336517106, 8336517107, 5919565135, 1672484016, 8336517106], "tags": {"addr:city": "Bloomington", "addr:housenumber": "114", "addr:postcode": "47408", "addr:state": "IN", "addr:street": "South Indiana Avenue", "air_conditioning": "yes", "amenity": "restaurant", "building": "commercial", "name": "BuffaLouie's", "opening_hours": "Su-Th 10:30-22:00; Fr-Sa 10:30-23:00"}}, {"type": "way", "id": 904437582, "nodes": [8399652123, 8399652122, 8399652121, 8399652120, 8399652123], "tags": {"addr:city": "Bloomington", "addr:housenumber": "340", "addr:postcode": "47403", "addr:state": "IN", "addr:street": "South Patterson Drive", "amenity": "restaurant", "building": "yes", "name": "3 Amigos Taqueria"}}, {"type": "way", "id": 905070134, "nodes": [8405203451, 8405203450, 8405203449, 8405203448, 10115489996, 8405203451], "tags": {"addr:city": "Bloomington", "addr:housenumber": "480", "addr:postcode": "47404", "addr:state": "IN", "addr:street": "North Morton Street", "amenity": "restaurant", "building": "yes", "cuisine": "burger", "name": "Bub's Burgers and Ice Cream", "phone": "+1-812-331-2827", "website": "https://bubsburgers.com/bubs-bloomington/", "website:menu": "https://bubsburgers.com/bubs-burgers-ice-cream-menu/"}}, {"type": "way", "id": 911646338, "nodes": [8464788753, 10558531190, 10558531191, 10558531192, 8464788755, 8464788756, 8464788753], "tags": {"addr:city": "Bloomington", "addr:housenumber": "908", "addr:postcode": "47404", "addr:state": "IN", "addr:street": "North Walnut Street", "amenity": "fast_food", "brand": "Domino's", "brand:wikidata": "Q839466", "building": "retail", "cuisine": "pizza", "name": "Domino's", "takeaway": "yes"}}, {"type": "way", "id": 983941507, "nodes": [2742771547, 9098047876, 9098047877, 9098047878, 9098047879, 9098047880, 9098047881, 9098047882, 9098047883, 2742771547], "tags": {"addr:city": "Bloomington", "addr:housenumber": "1500", "addr:postcode": "47401", "addr:state": "IN", "addr:street": "East 3rd Street", "amenity": "restaurant", "building": "yes", "cuisine": "asian", "name": "Restaurant Ami"}}, {"type": "way", "id": 997542044, "nodes": [9210815959, 9210815960, 9210815961, 9210815962, 9210815963, 9210815964, 9210815965, 9210815966, 9210815959], "tags": {"addr:city": "Bloomington", "addr:housenumber": "1505", "addr:postcode": "47401", "addr:state": "IN", "addr:street": "South Piazza Drive", "amenity": "restaurant", "building": "yes", "name": "C3 Bar", "source": "microsoft/BuildingFootprints"}}, {"type": "way", "id": 997542046, "nodes": [4948970930, 9210815974, 9210815977, 9210815978, 9210815979, 9210815980, 9210815981, 9210815982, 9210815983, 9210815984, 4948970930], "tags": {"addr:city": "Bloomington", "addr:housenumber": "1567", "addr:postcode": "47401", "addr:state": "IN", "addr:street": "South Piazza Drive", "amenity": "cafe", "building": "yes", "cuisine": "coffee_shop;pastry", "name": "Crumble Coffee and Bakery", "outdoor_seating": "yes", "source": "microsoft/BuildingFootprints;http://crumblecoffee.com/", "website": "http://crumblecoffee.com/"}}, {"type": "way", "id": 997605666, "nodes": [9211349005, 9211349006, 9211349007, 9211349008, 9211349009, 9211349010, 9211349011, 9211349012, 9211349013, 9211349014, 9211349015, 9211349016, 9211349017, 9211349018, 9211349019, 9211349020, 9211349021, 9211349022, 9211349023, 9211349005], "tags": {"addr:city": "Bloomington", "addr:housenumber": "600", "addr:postcode": "47401", "addr:state": "IN", "addr:street": "East Hillside Drive", "amenity": "restaurant", "building": "yes", "name": "Feta"}}, {"type": "way", "id": 1014020439, "nodes": [9355350472, 9355350473, 9355350474, 9355350475, 9355350476, 9355350477, 9355350478, 9355350479, 9355350472], "tags": {"addr:city": "Unionville", "addr:housenumber": "8939", "addr:postcode": "47468", "addr:state": "IN", "addr:street": "East South Shore Drive", "amenity": "bar", "building": "yes", "name": "Port Hole Inn"}}, {"type": "way", "id": 1014071619, "nodes": [1685548785, 9355818624, 9355818625, 9355818626, 9355818627, 9355818628, 9355818629, 9355818630, 9355818631, 9355818632, 9355818633, 9355818634, 9355818635, 9355818636, 1685548785], "tags": {"addr:city": "Bloomington", "addr:housename": "Scenic View", "addr:housenumber": "4600", "addr:postcode": "47401", "addr:state": "IN", "addr:street": "S State Road 446", "amenity": "restaurant", "name": "Scenic View Restaurant", "source": "http://www.scenicviewrestaurant.com/", "website": "http://www.scenicviewrestaurant.com"}}, {"type": "way", "id": 1014209955, "nodes": [9356974403, 9356974404, 9356974405, 9356974406, 9356974407, 9356974408, 9356974403], "tags": {"addr:city": "Bloomington", "addr:housenumber": "2500", "addr:postcode": "47404", "addr:state": "IN", "addr:street": "West 3rd Street", "amenity": "restaurant", "building": "yes", "name": "Cozy Table"}}, {"type": "way", "id": 1014212136, "nodes": [1635551052, 9356997941, 9356997942, 9356997943, 9356997944, 9356997945, 9356997946, 9356997947, 9356997948, 9356997949, 9356997950, 9356997951, 9356997952, 9356997953, 1635551052], "tags": {"addr:city": "Bloomington", "addr:housenumber": "8660", "addr:postcode": "47401", "addr:state": "IN", "addr:street": "South Fairfax Road", "amenity": "restaurant", "building": "commercial", "cuisine": "american", "name": "The Fairfax Bar and Grill"}}, {"type": "way", "id": 1014213969, "nodes": [9357014351, 9357014352, 9357014353, 9357014354, 9357014355, 9357014356, 9357014351], "tags": {"addr:city": "Bloomington", "addr:housenumber": "1131", "addr:postcode": "47401", "addr:state": "IN", "addr:street": "South College Mall Road", "amenity": "restaurant", "building": "yes", "name": "Truffles Fine Cuisine & 56 Degrees Bar"}}, {"type": "way", "id": 1014216157, "nodes": [4467147302, 9357018612, 9357018613, 9357018614, 9357018615, 9357018616, 9357037517, 9357037518, 9357037519, 9357037520, 4467147302], "tags": {"addr:city": "Ellettsville", "addr:housenumber": "120", "addr:postcode": "47429", "addr:state": "IN", "addr:street": "West Temperance Street", "amenity": "restaurant", "building": "yes", "name": "Vine Street BBQ"}}, {"type": "way", "id": 1014224948, "nodes": [9357101777, 9357101778, 9357101779, 9357101780, 9357101781, 9357101782, 9357101783, 9357101784, 9357101785, 9357101786, 9357101787, 9357101788, 9357101789, 9357101790, 9357101791, 9357101792, 9357101793, 9357101794, 9357101777], "tags": {"addr:city": "Bloomington", "addr:housenumber": "1720", "addr:postcode": "47404", "addr:state": "IN", "addr:street": "North Walnut Street", "amenity": "restaurant", "building": "yes", "name": "La Charreada"}}, {"type": "way", "id": 1014225220, "nodes": [9357115479, 9357115480, 2865040564, 2865040561, 9357115479], "tags": {"addr:city": "Bloomington", "addr:housenumber": "254", "addr:postcode": "47404", "addr:state": "IN", "addr:street": "North Walnut Street", "amenity": "restaurant", "building": "commercial", "name": "La Una Cantina"}}, {"type": "way", "id": 1014226172, "nodes": [9357119708, 9357119709, 9357119710, 9357119711, 9357119712, 9357119713, 9357119708], "tags": {"addr:city": "Bloomington", "addr:housenumber": "308", "addr:postcode": "47404", "addr:state": "IN", "addr:street": "West 6th Street", "amenity": "restaurant", "building": "yes", "name": "Le Petit Cafe"}}, {"type": "way", "id": 1014230425, "nodes": [10901049389, 10901049399, 10901049390, 2865040579, 2865040580, 10901049389], "tags": {"addr:city": "Bloomington", "addr:housenumber": "100", "addr:postcode": "47404", "addr:state": "IN", "addr:street": "West 6th Street", "amenity": "restaurant", "area": "yes", "cuisine": "afghan", "name": "Samira Restaurant"}}, {"type": "way", "id": 1014255761, "nodes": [9357429629, 9357429630, 9357429631, 10017002894, 10017002895, 9357429632, 9357429629], "tags": {"addr:city": "Bloomington", "addr:housenumber": "2361", "addr:postcode": "47404", "addr:state": "IN", "addr:street": "Rappel Drive", "amenity": "restaurant", "building": "yes", "name": "Pizza X"}}, {"type": "way", "id": 1014256105, "nodes": [9357409073, 9357409074, 5780534161, 5780534162, 9357409073], "tags": {"addr:city": "Bloomington", "addr:housenumber": "1610", "addr:postcode": "47404", "addr:state": "IN", "addr:street": "West 3rd Street", "amenity": "restaurant", "cuisine": "pizza", "delivery": "yes", "name": "Pizza X", "smoking": "no", "takeaway": "yes"}}, {"type": "way", "id": 1014257668, "nodes": [5910364038, 9357445878, 9357445879, 9357445880, 9357445881, 9357445882, 9357445883, 9357445884, 5910364038], "tags": {"addr:city": "Bloomington,", "addr:housenumber": "4303", "addr:postcode": "47401", "addr:state": "IN", "addr:street": "State Hwy 446", "amenity": "restaurant", "building": "yes", "cuisine": "pizza", "name": "Trailhead Pizzeria"}}, {"type": "way", "id": 1014259641, "nodes": [9357490599, 9357490600, 9357490601, 9357490602, 9357490603, 9357490604, 9357490605, 9357490606, 9357490607, 9357490608, 9357490599], "tags": {"addr:city": "Bloomington", "addr:housenumber": "615", "addr:postcode": "47404", "addr:state": "IN", "addr:street": "West Kirkwood Avenue", "amenity": "cafe", "building": "yes", "name": "BloomingTea"}}, {"type": "way", "id": 1014271634, "nodes": [5910364037, 9357585262, 9357585263, 9357585264, 5910364037], "tags": {"addr:city": "Bloomington,", "addr:housenumber": "4015", "addr:postcode": "47401", "addr:state": "IN", "addr:street": "South State Hwy 446", "amenity": "restaurant", "building": "yes", "name": "The Cabin Restaurant and Lounge"}}, {"type": "way", "id": 1014273022, "nodes": [9357602908, 9357602909, 9357602910, 9357602911, 9357602912, 9357602913, 9357602908], "tags": {"addr:city": "Ellettsville", "addr:housenumber": "602", "addr:postcode": "47429", "addr:state": "IN", "addr:street": "West Vine Street", "amenity": "bar", "building": "yes", "name": "Kenny's Tavern"}}, {"type": "way", "id": 1014282187, "nodes": [5919567604, 9357707667, 9357707668, 9357707669, 5919567604], "tags": {"addr:city": "Bloomington", "addr:housenumber": "4531", "addr:postcode": "47401", "addr:state": "IN", "addr:street": "East 3rd Street", "amenity": "ice_cream", "branch": "Real Ice Cream", "brand": "Bruster's Ice Cream", "brand:wikidata": "Q4979810", "brand:wikipedia": "en:Bruster's Ice Cream", "building": "commercial", "cuisine": "ice_cream", "name": "Bruster's Ice Cream"}}, {"type": "way", "id": 1014577684, "nodes": [1165248106, 9360439782, 9360439783, 9360439784, 1165248106], "tags": {"addr:city": "Stinesville", "addr:housenumber": "8201", "addr:postcode": "47464", "addr:state": "IN", "addr:street": "W Main St", "amenity": "restaurant", "name": "Stinesville Mercantile Cafe", "phone": "+1-812-876-6203"}}, {"type": "way", "id": 1031511987, "nodes": [6294283132, 9506686612, 9506686613, 9506686614, 9506686615, 9506686616, 6294283132], "tags": {"addr:city": "Bloomington", "addr:housenumber": "1918", "addr:postcode": "47404", "addr:state": "IN", "addr:street": "West 3rd Street", "amenity": "fast_food", "brand": "Culver's", "brand:wikidata": "Q1143589", "brand:wikipedia": "en:Culver's", "building": "yes", "cuisine": "burger", "name": "Culver's", "opening_hours": "Mo-Fr 10:00-23:00; Sa-Su 10:00-01:00", "phone": "+1-812-822-1837", "ref": "682", "source": "microsoft/BuildingFootprints", "takeaway": "yes", "website": "https://www.culvers.com/restaurants/bloomington-in-w-3rd-st"}}, {"type": "way", "id": 1032055354, "nodes": [9510926615, 10115489971, 9359837121, 9359837122, 9510926615], "tags": {"addr:city": "Bloomington", "addr:housenumber": "121", "addr:postcode": "47404", "addr:state": "IN", "addr:street": "North College Avenue", "amenity": "restaurant", "building": "commercial", "name": "Smokeworks"}}, {"type": "way", "id": 1043586092, "nodes": [9604381101, 9604381102, 9604381097, 910641300, 9604381101], "tags": {"amenity": "fast_food", "brand": "Chipotle", "brand:wikidata": "Q465751", "brand:wikipedia": "en:Chipotle Mexican Grill", "building": "yes", "cuisine": "mexican", "name": "Chipotle", "official_name": "Chipotle Mexican Grill", "takeaway": "yes"}}, {"type": "way", "id": 1043586093, "nodes": [9604381103, 9604381104, 910641294, 910641293, 9604381103], "tags": {"amenity": "restaurant", "brand": "Applebee's Neighborhood Grill & Bar", "brand:wikidata": "Q621532", "brand:wikipedia": "en:Applebee's", "building": "yes", "cuisine": "american", "name": "Applebee's", "official_name": "Applebee's Neighborhood Grill & Bar"}}, {"type": "way", "id": 1043586097, "nodes": [9604405423, 9604381111, 9604381109, 9604381108, 9604405423], "tags": {"amenity": "restaurant", "cuisine": "pizza", "name": "Azzip Pizza", "website": "https://azzippizza.com/", "wikipedia": "en:Azzip Pizza"}}, {"type": "way", "id": 1043777973, "nodes": [9605885613, 9605885614, 9605885615, 9605885599, 9605885600, 9605885601, 9605885602, 9605885603, 9605885604, 9605885605, 9605885606]}, {"type": "way", "id": 1043777974, "nodes": [9605885597, 9605885616, 9605885606, 9605885607, 9605885597], "tags": {"amenity": "fast_food", "building": "yes", "cuisine": "pizza", "name": "Luca Pizza di Roma"}}, {"type": "way", "id": 1043777975, "nodes": [9605885606, 9605885607, 9605885608, 9605885609, 9605885610, 9605885611, 9605885612, 9605885613]}, {"type": "way", "id": 1043777976, "nodes": [9605885606, 9605889517, 9605889518, 9605885616, 9605885606], "tags": {"amenity": "fast_food", "brand": "Chick-fil-A", "brand:wikidata": "Q491516", "brand:wikipedia": "en:Chick-fil-A", "building": "yes", "cuisine": "chicken", "name": "Chick-fil-A", "takeaway": "yes"}}, {"type": "way", "id": 1043777977, "nodes": [9605889517, 9605889519, 9605889520, 9605885598, 9605889518, 9605889517], "tags": {"amenity": "fast_food", "brand": "Tropical Smoothie Cafe", "brand:wikidata": "Q7845817", "brand:wikipedia": "en:Tropical Smoothie Cafe", "building": "yes", "cuisine": "juice", "name": "Tropical Smoothie Cafe", "takeaway": "yes"}}, {"type": "way", "id": 1043777978, "nodes": [9605889519, 9605889521, 9605889522, 9605889520, 9605889519], "tags": {"amenity": "restaurant", "building": "yes", "cuisine": "asian", "name": "Stir Fry 88"}}, {"type": "way", "id": 1043777979, "nodes": [9605889523, 9605889524, 910641362, 9605889529, 9605889525, 9605889523], "tags": {"amenity": "fast_food", "brand": "Subway", "brand:wikidata": "Q244457", "brand:wikipedia": "en:Subway (restaurant)", "building": "yes", "cuisine": "sandwich", "name": "Subway", "takeaway": "yes"}}, {"type": "way", "id": 1043777982, "nodes": [9605889529, 9605889525, 9605889530, 9605889531, 9605889528, 9605889529], "tags": {"amenity": "restaurant", "building": "yes", "cuisine": "asian", "name": "Judys Kitchen"}}, {"type": "way", "id": 1043780584, "nodes": [9605876398, 9605876399, 9605876400, 9605876401, 9605876398], "tags": {"amenity": "fast_food", "brand": "Auntie Anne's", "brand:wikidata": "Q4822010", "brand:wikipedia": "en:Auntie Anne's", "building": "yes", "cuisine": "pretzel", "name": "Auntie Anne's", "takeaway": "yes"}}, {"type": "way", "id": 1044297846, "nodes": [9609322940, 9609322942, 9609322958, 9609322941, 9609322940], "tags": {"addr:city": "Bloomington", "addr:housenumber": "233", "addr:postcode": "47401", "addr:state": "IN", "addr:street": "S Pete Ellis Dr", "amenity": "fast_food", "cuisine": "ice_cream", "indoor": "room", "name": "Jiffy Treat", "phone": "+1-812-339-9981", "wheelchair": "yes"}}, {"type": "way", "id": 1044297849, "nodes": [9609322944, 9609322945, 7359968093, 7359968096, 9609322944], "tags": {"addr:city": "Bloomington", "addr:housenumber": "104", "addr:postcode": "47408", "addr:state": "IN", "addr:street": "North Pete Ellis Drive", "addr:unit": "Suite E", "amenity": "cafe", "cuisine": "coffee_shop", "internet_access": "wlan", "internet_access:fee": "no", "name": "Needmore Coffee Roasters", "opening_hours": "Mo-Sa 07:00-17:15; Su 08:00-17:15", "outdoor_seating": "yes"}}, {"type": "way", "id": 1131862666, "nodes": [10553787276, 10553787277, 10553787278, 10553787279, 10553787276], "tags": {"addr:city": "Bloomington", "addr:housenumber": "106", "addr:postcode": "47404", "addr:state": "IN", "addr:street": "North Walnut Street", "amenity": "restaurant", "name": "Malibu Grill", "phone": "+1-812-332-4334", "website": "https://www.malibugrill.net/"}}, {"type": "way", "id": 1131862671, "nodes": [10553787289, 10115489971, 9510926615, 10553787290, 10553787289], "tags": {"amenity": "restaurant", "building": "commercial", "cuisine": "mexican", "name": "Social Cantina"}}, {"type": "way", "id": 1173197975, "nodes": [10901049389, 10901049391, 10901049398, 10901049392, 10901049390, 10901049399, 10901049389], "tags": {"addr:city": "Bloomington", "addr:housenumber": "106", "addr:postcode": "47404", "addr:state": "IN", "addr:street": "West 6th Street", "amenity": "restaurant", "cuisine": "italian", "name": "Che Bello", "opening_hours": "Tu-Fr 16:30-21:30; Sa-Su 11:00-21:30", "phone": "+1-812-323-0303", "website": "https://chebellokitchen.com/", "wheelchair": "yes"}}, {"type": "relation", "id": 13964380, "members": [{"type": "way", "ref": 1043777973, "role": "outer"}, {"type": "way", "ref": 1043777975, "role": "outer"}], "tags": {"amenity": "food_court", "building": "yes", "type": "multipolygon"}}]}