{"version": 0.6, "generator": "Overpass API 0.7.61.2 bd0cdeae", "osm3s": {"timestamp_osm_base": "2023-07-23T11:48:57Z", "copyright": "The data included in this document is from www.openstreetmap.org. The data is made available under ODbL."}, "elements": [{"type": "node", "id": 837147547, "lat": 39.1635088, "lon": -86.556678, "tags": {"addr:city": "Bloomington", "addr:housenumber": "350", "addr:postcode": "47403", "addr:state": "IN", "addr:street": "S Landmark Avenue", "amenity": "doctors", "healthcare": "doctor", "name": "Southern Indiana Pediatrics", "phone": "+1-812-335-2434", "website": "https://www.sipdocs.com/"}}, {"type": "node", "id": 837147595, "lat": 39.224533, "lon": -86.612249}, {"type": "node", "id": 837147820, "lat": 39.2072917, "lon": -86.5732989, "tags": {"addr:city": "Bloomington", "addr:housenumber": "4515", "addr:postcode": "47404", "addr:state": "IN", "addr:street": "Arlington Rd", "amenity": "veterinary", "name": "Arlington Heights Veterinary Hospital", "phone": "+1-812-332-6955", "website": "http://www.arlingtonheightsveterinaryhospital.vetsuite.com"}}, {"type": "node", "id": 853687799, "lat": 39.1532935, "lon": -86.5393628, "tags": {"addr:city": "Bloomington", "addr:housenumber": "1200", "addr:postcode": "47403", "addr:state": "IN", "addr:street": "South Rogers Street", "amenity": "doctors", "healthcare": "doctor", "healthcare:speciality": "dermatology", "name": "Dermatology Center of Southern Indiana", "phone": "+1-812-339-6434"}}, {"type": "node", "id": 875991428, "lat": 39.161741, "lon": -86.5396199, "tags": {"addr:city": "Bloomington", "addr:housenumber": "514", "addr:postcode": "47403", "addr:state": "IN", "addr:street": "West 2nd Street", "amenity": "doctors", "healthcare": "doctor", "name": "Cancer Care Center", "phone": "+1-812-323-1535"}}, {"type": "node", "id": 877330036, "lat": 39.1754541, "lon": -86.5041389}, {"type": "node", "id": 962574401, "lat": 39.1524314, "lon": -86.5392037, "tags": {"amenity": "doctors", "healthcare": "doctor", "name": "Southern Indiana Medical Group"}}, {"type": "node", "id": 975949652, "lat": 39.1417018, "lon": -86.5805597, "tags": {"amenity": "pharmacy", "brand": "Walmart", "brand:wikidata": "Q483551", "brand:wikipedia": "en:Walmart", "dispensing": "yes", "healthcare": "pharmacy", "name": "Walmart Pharmacy", "operator": "Walmart", "operator:wikidata": "Q483551", "operator:wikipedia": "en:Walmart"}}, {"type": "node", "id": 1109195117, "lat": 39.1200855, "lon": -86.5724675}, {"type": "node", "id": 1144039408, "lat": 39.1630971, "lon": -86.4758078, "tags": {"addr:city": "Bloomington", "addr:housenumber": "383", "addr:postcode": "47401", "addr:state": "IN", "addr:street": "S Park Ridge Rd", "amenity": "doctors", "healthcare": "doctor", "name": "Wendy Kinsey Corning", "phone": "+1-812-330-5250", "website": "https://www.wendycorningmd.com/"}}, {"type": "node", "id": 1209659807, "lat": 39.1282626, "lon": -86.5016374, "tags": {"amenity": "hospital", "emergency": "no", "healthcare": "hospital", "name": "Bloomington Internal Medicine East"}}, {"type": "node", "id": 1214407627, "lat": 39.1723874, "lon": -86.5151107}, {"type": "node", "id": 1214407636, "lat": 39.1722377, "lon": -86.5154439}, {"type": "node", "id": 1214407670, "lat": 39.1723881, "lon": -86.5149173}, {"type": "node", "id": 1214407677, "lat": 39.1720385, "lon": -86.5154435}, {"type": "node", "id": 1214407680, "lat": 39.1718287, "lon": -86.5151239}, {"type": "node", "id": 1214407682, "lat": 39.172238, "lon": -86.5151105}, {"type": "node", "id": 1214407688, "lat": 39.1718288, "lon": -86.5149217}, {"type": "node", "id": 1214407689, "lat": 39.1719825, "lon": -86.515124}, {"type": "node", "id": 1214418044, "lat": 39.1724317, "lon": -86.5150645}, {"type": "node", "id": 1375297547, "lat": 39.162378, "lon": -86.5544411, "tags": {"addr:city": "Bloomington", "addr:housenumber": "455", "addr:postcode": "47403", "addr:state": "IN", "addr:street": "South Landmark Avenue", "amenity": "clinic", "healthcare": "clinic", "healthcare:for": "veterans", "name": "Bloomington Community Based Outpatient Clinic", "opening_hours": "Mo-Fr 08:00-16:00; PH off", "operator": "VA", "operator:wikidata": "Q6580225", "phone": "+1 812 336 5723", "short_name": "VA", "website": "https://www.indianapolis.va.gov/locations/Bloomington_CBOC.asp"}}, {"type": "node", "id": 1375298108, "lat": 39.1606926, "lon": -86.5550396, "tags": {"addr:city": "Bloomington", "addr:housenumber": "550", "addr:postcode": "47403", "addr:street": "South Landmark Avenue", "amenity": "doctors", "healthcare": "doctor", "name": "Premier Healthcare Same Day Appointment / Walk In Clinic", "old_name": "IMA Walk in Clinic", "opening_hours": "Mo-Fr 08:00-18:00; Sa 08:00-12:00", "operator": "Premier Healthcare", "phone": "+1 812 355 6900", "website": "http://premierhealthcare.org/service.walkin.html"}}, {"type": "node", "id": 1375302277, "lat": 39.1350998, "lon": -86.5708991, "tags": {"amenity": "clinic", "fixme": "still open?", "healthcare": "clinic", "name": "Surgery Center"}}, {"type": "node", "id": 1596350613, "lat": 39.2074047, "lon": -86.5786466, "tags": {"addr:city": "Bloomington", "addr:housenumber": "4935", "addr:postcode": "47404", "addr:state": "IN", "addr:street": "West Arlington Road", "amenity": "doctors", "healthcare": "doctor", "healthcare:speciality": "paediatrics ", "name": "Southern Indiana Pediatrics", "phone": "+1 812 353 3800", "website": "https://www.sipdocs.com/"}}, {"type": "node", "id": 1596370325, "lat": 39.1599902, "lon": -86.490383, "tags": {"addr:city": "Bloomington", "addr:housename": "651", "addr:postcode": "47401", "addr:state": "IN", "addr:street": "South Clarizz Boulevard", "amenity": "doctors", "healthcare": "doctor", "name": "Southern Indiana Pediatrics", "phone": "+1-812-333-2304", "website": "https://www.sipdocs.com/"}}, {"type": "node", "id": 1831171744, "lat": 39.1654556, "lon": -86.570335}, {"type": "node", "id": 1831171746, "lat": 39.1654612, "lon": -86.5706699}, {"type": "node", "id": 1831171748, "lat": 39.1652653, "lon": -86.5703377}, {"type": "node", "id": 1831171750, "lat": 39.1652716, "lon": -86.5706735}, {"type": "node", "id": 1842151693, "lat": 39.1671763, "lon": -86.4817307}, {"type": "node", "id": 1851104367, "lat": 39.178841, "lon": -86.4999213}, {"type": "node", "id": 1851104373, "lat": 39.1789321, "lon": -86.5042884}, {"type": "node", "id": 2380426235, "lat": 39.1618556, "lon": -86.5538257, "tags": {"addr:city": "Bloomington", "addr:housenumber": "485", "addr:postcode": "47403", "addr:state": "IN", "addr:street": "S Landmark Avenue", "amenity": "doctors", "fax": "+1-812-334-1199", "healthcare": "doctor", "healthcare:speciality": "allergology", "name": "Family Allergy & Asthma", "phone": "+1-812-334-1198", "website": "http://www.allergyasthmasi.com/"}}, {"type": "node", "id": 2380472585, "lat": 39.121546, "lon": -86.5743466, "tags": {"addr:city": "Bloomington", "addr:housenumber": "3209", "addr:postcode": "47403", "addr:state": "IN", "addr:street": "West Fullerton Pike", "amenity": "doctors", "healthcare": "doctor", "healthcare:speciality": "internal", "name": "William J Schmalz MD", "phone": "+1-812-825-6102"}}, {"type": "node", "id": 2380472597, "lat": 39.1343712, "lon": -86.5704257, "tags": {"addr:city": "Bloomington", "addr:housenumber": "2920", "addr:postcode": "47403", "addr:state": "IN", "addr:street": "McIntire Drive", "addr:unit": "Suite 350", "amenity": "doctors", "healthcare": "doctor", "healthcare:speciality": "otolaryngology", "name": "Ear Nose & Throat Associates of Southern Indiana", "phone": "+1-812-332-7337"}}, {"type": "node", "id": 2561545143, "lat": 39.1756165, "lon": -86.5003109}, {"type": "node", "id": 2864782650, "lat": 39.1698501, "lon": -86.5722591}, {"type": "node", "id": 2864782651, "lat": 39.1697366, "lon": -86.5723527}, {"type": "node", "id": 2864782652, "lat": 39.1696435, "lon": -86.5721702}, {"type": "node", "id": 2864782653, "lat": 39.1697477, "lon": -86.5720694}, {"type": "node", "id": 3817485568, "lat": 39.1235858, "lon": -86.5299987}, {"type": "node", "id": 3817485569, "lat": 39.1232323, "lon": -86.5300332}, {"type": "node", "id": 3817485570, "lat": 39.123216, "lon": -86.5297556}, {"type": "node", "id": 3817485571, "lat": 39.1235695, "lon": -86.5297211}, {"type": "node", "id": 4750192978, "lat": 39.1605454, "lon": -86.554144}, {"type": "node", "id": 4750192979, "lat": 39.1607995, "lon": -86.554157}, {"type": "node", "id": 4750192980, "lat": 39.1610133, "lon": -86.5542089}, {"type": "node", "id": 4750192981, "lat": 39.1611945, "lon": -86.5543127}, {"type": "node", "id": 4750192982, "lat": 39.1613228, "lon": -86.554436}, {"type": "node", "id": 4750192983, "lat": 39.1614108, "lon": -86.554569}, {"type": "node", "id": 4750192984, "lat": 39.1617077, "lon": -86.555192}, {"type": "node", "id": 4750192985, "lat": 39.1614611, "lon": -86.5553737}, {"type": "node", "id": 4750192986, "lat": 39.1614636, "lon": -86.5563113}, {"type": "node", "id": 4750192987, "lat": 39.1603668, "lon": -86.5562984}, {"type": "node", "id": 4750192988, "lat": 39.1603643, "lon": -86.5564995}, {"type": "node", "id": 4750192989, "lat": 39.1598511, "lon": -86.556493}, {"type": "node", "id": 4750192990, "lat": 39.1598762, "lon": -86.5553575}, {"type": "node", "id": 4750192991, "lat": 39.1601228, "lon": -86.5552958}, {"type": "node", "id": 4750192992, "lat": 39.1601781, "lon": -86.5552179}, {"type": "node", "id": 4750192993, "lat": 39.1604498, "lon": -86.5541505}, {"type": "node", "id": 4750193002, "lat": 39.1194616, "lon": -86.5719042}, {"type": "node", "id": 4750193003, "lat": 39.1197449, "lon": -86.5721489}, {"type": "node", "id": 4750193004, "lat": 39.1202874, "lon": -86.5727705}, {"type": "node", "id": 4750193005, "lat": 39.1205646, "lon": -86.5730268}, {"type": "node", "id": 4750193006, "lat": 39.1207394, "lon": -86.5731706}, {"type": "node", "id": 4750193007, "lat": 39.1208841, "lon": -86.5732133}, {"type": "node", "id": 4750193008, "lat": 39.1215927, "lon": -86.5732104}, {"type": "node", "id": 4750193009, "lat": 39.1215983, "lon": -86.5715779}, {"type": "node", "id": 4750193010, "lat": 39.1215139, "lon": -86.5714148}, {"type": "node", "id": 4750193011, "lat": 39.1210378, "lon": -86.5710535}, {"type": "node", "id": 4750193012, "lat": 39.1208931, "lon": -86.5710885}, {"type": "node", "id": 4750193013, "lat": 39.1207575, "lon": -86.5710962}, {"type": "node", "id": 4750193014, "lat": 39.120429, "lon": -86.570801}, {"type": "node", "id": 4750193015, "lat": 39.1201578, "lon": -86.5707389}, {"type": "node", "id": 4750193016, "lat": 39.1198896, "lon": -86.5707777}, {"type": "node", "id": 4750193017, "lat": 39.1196276, "lon": -86.5708867}, {"type": "node", "id": 4750193018, "lat": 39.1192131, "lon": -86.5716225}, {"type": "node", "id": 5012217257, "lat": 39.0523886, "lon": -86.4312177}, {"type": "node", "id": 5012217258, "lat": 39.0523532, "lon": -86.431395}, {"type": "node", "id": 5012217259, "lat": 39.0522641, "lon": -86.4313655}, {"type": "node", "id": 5012217260, "lat": 39.0522995, "lon": -86.4311882}, {"type": "node", "id": 5371870186, "lat": 39.1476329, "lon": -86.5286741}, {"type": "node", "id": 5371870187, "lat": 39.1470994, "lon": -86.5286841}, {"type": "node", "id": 5371870188, "lat": 39.1470975, "lon": -86.5284652}, {"type": "node", "id": 5371870189, "lat": 39.1476304, "lon": -86.5284556}, {"type": "node", "id": 5394355004, "lat": 39.1474795, "lon": -86.5299698}, {"type": "node", "id": 5394355005, "lat": 39.147475, "lon": -86.5296639}, {"type": "node", "id": 5394355006, "lat": 39.1471252, "lon": -86.5296655}, {"type": "node", "id": 5394355007, "lat": 39.147126, "lon": -86.5299666}, {"type": "node", "id": 5402096533, "lat": 39.1673758, "lon": -86.4819733}, {"type": "node", "id": 5402096534, "lat": 39.1673796, "lon": -86.4817392}, {"type": "node", "id": 5402096535, "lat": 39.1671028, "lon": -86.4817284}, {"type": "node", "id": 5402096536, "lat": 39.1671003, "lon": -86.481884}, {"type": "node", "id": 5402096537, "lat": 39.1672118, "lon": -86.4818869}, {"type": "node", "id": 5402096538, "lat": 39.1672105, "lon": -86.4819689}, {"type": "node", "id": 5444644005, "lat": 39.1763172, "lon": -86.5339608}, {"type": "node", "id": 5444644006, "lat": 39.1765487, "lon": -86.5339625}, {"type": "node", "id": 5444644007, "lat": 39.1762782, "lon": -86.5340267}, {"type": "node", "id": 5444644008, "lat": 39.1762762, "lon": -86.5344723}, {"type": "node", "id": 5444644009, "lat": 39.1765463, "lon": -86.5344743}, {"type": "node", "id": 5459658310, "lat": 39.1637205, "lon": -86.5031889}, {"type": "node", "id": 5459658311, "lat": 39.1637206, "lon": -86.5026885}, {"type": "node", "id": 5459658312, "lat": 39.1640512, "lon": -86.5026886}, {"type": "node", "id": 5459658313, "lat": 39.1640512, "lon": -86.502767}, {"type": "node", "id": 5459658314, "lat": 39.1641015, "lon": -86.502767}, {"type": "node", "id": 5459658315, "lat": 39.1641015, "lon": -86.5028704}, {"type": "node", "id": 5459658316, "lat": 39.1640478, "lon": -86.5028704}, {"type": "node", "id": 5459658317, "lat": 39.1640478, "lon": -86.5030733}, {"type": "node", "id": 5459658318, "lat": 39.1639799, "lon": -86.5030733}, {"type": "node", "id": 5459658319, "lat": 39.1639799, "lon": -86.5031889}, {"type": "node", "id": 5522665717, "lat": 39.1525759, "lon": -86.5395342}, {"type": "node", "id": 5522665718, "lat": 39.1523726, "lon": -86.5395281}, {"type": "node", "id": 5522665719, "lat": 39.1523678, "lon": -86.5389996}, {"type": "node", "id": 5522665720, "lat": 39.1525712, "lon": -86.5390057}, {"type": "node", "id": 5522666921, "lat": 39.1535339, "lon": -86.5395332}, {"type": "node", "id": 5522666922, "lat": 39.1533069, "lon": -86.5398536}, {"type": "node", "id": 5522666923, "lat": 39.1529605, "lon": -86.5394561}, {"type": "node", "id": 5522666924, "lat": 39.1532161, "lon": -86.5391141}, {"type": "node", "id": 5522666925, "lat": 39.1533571, "lon": -86.5392836}, {"type": "node", "id": 5522666926, "lat": 39.153424, "lon": -86.5391973}, {"type": "node", "id": 5522666927, "lat": 39.153467, "lon": -86.539262}, {"type": "node", "id": 5522666928, "lat": 39.1534025, "lon": -86.5393606}, {"type": "node", "id": 5548334348, "lat": 39.1474804, "lon": -86.5298904}, {"type": "node", "id": 5548334349, "lat": 39.1472935, "lon": -86.5299663}, {"type": "node", "id": 5559804274, "lat": 39.1282943, "lon": -86.5019215}, {"type": "node", "id": 5559804275, "lat": 39.1282942, "lon": -86.5017883}, {"type": "node", "id": 5559804276, "lat": 39.1284968, "lon": -86.5017879}, {"type": "node", "id": 5559804277, "lat": 39.1284963, "lon": -86.5013487}, {"type": "node", "id": 5559804278, "lat": 39.1282695, "lon": -86.5013491}, {"type": "node", "id": 5559804279, "lat": 39.1282693, "lon": -86.5012302}, {"type": "node", "id": 5559804280, "lat": 39.128177, "lon": -86.5012304}, {"type": "node", "id": 5559804281, "lat": 39.1281771, "lon": -86.5013457}, {"type": "node", "id": 5559804282, "lat": 39.1280542, "lon": -86.501346}, {"type": "node", "id": 5559804283, "lat": 39.1280544, "lon": -86.5014325}, {"type": "node", "id": 5559804284, "lat": 39.1280327, "lon": -86.5014395}, {"type": "node", "id": 5559804285, "lat": 39.1280328, "lon": -86.501612}, {"type": "node", "id": 5559804286, "lat": 39.1280565, "lon": -86.501612}, {"type": "node", "id": 5559804287, "lat": 39.1280567, "lon": -86.5017846}, {"type": "node", "id": 5559804288, "lat": 39.1281963, "lon": -86.5017843}, {"type": "node", "id": 5559804289, "lat": 39.1281965, "lon": -86.5019217}, {"type": "node", "id": 5600935972, "lat": 39.1192739, "lon": -86.5717104}, {"type": "node", "id": 5600935973, "lat": 39.1197555, "lon": -86.5708107}, {"type": "node", "id": 5780534166, "lat": 39.1653234, "lon": -86.5534638}, {"type": "node", "id": 5780534167, "lat": 39.1650344, "lon": -86.553465}, {"type": "node", "id": 5780534168, "lat": 39.165034, "lon": -86.5533017}, {"type": "node", "id": 5780534169, "lat": 39.165323, "lon": -86.5533005}, {"type": "node", "id": 6022712534, "lat": 39.1617245, "lon": -86.5377627, "tags": {"amenity": "doctors", "healthcare": "doctor"}}, {"type": "node", "id": 6022723677, "lat": 39.1682616, "lon": -86.5304147}, {"type": "node", "id": 6022723679, "lat": 39.1684242, "lon": -86.530414}, {"type": "node", "id": 6022723680, "lat": 39.1684239, "lon": -86.5303197}, {"type": "node", "id": 6022723681, "lat": 39.1683885, "lon": -86.5303199}, {"type": "node", "id": 6022723682, "lat": 39.1683884, "lon": -86.530257}, {"type": "node", "id": 6022723684, "lat": 39.1682612, "lon": -86.5302575}, {"type": "node", "id": 6399809979, "lat": 39.1619192, "lon": -86.4987884, "tags": {"addr:city": "Bloomington", "addr:housenumber": "510", "addr:postcode": "47401", "addr:state": "IN", "addr:street": "South College Mall Road", "amenity": "pharmacy", "brand": "CVS Pharmacy", "brand:wikidata": "Q2078880", "brand:wikipedia": "en:CVS Pharmacy", "dispensing": "yes", "healthcare": "pharmacy", "name": "CVS Pharmacy", "ref": "8671", "short_name": "CVS"}}, {"type": "node", "id": 6431955855, "lat": 39.1777061, "lon": -86.5053452}, {"type": "node", "id": 6503431042, "lat": 39.2067767, "lon": -86.5513238}, {"type": "node", "id": 6503431043, "lat": 39.2067767, "lon": -86.5506479}, {"type": "node", "id": 6503431044, "lat": 39.206519, "lon": -86.5506479}, {"type": "node", "id": 6503431045, "lat": 39.2062218, "lon": -86.5502992}, {"type": "node", "id": 6503431046, "lat": 39.2056294, "lon": -86.5502992}, {"type": "node", "id": 6503431047, "lat": 39.2056336, "lon": -86.5518307}, {"type": "node", "id": 6503431048, "lat": 39.2066166, "lon": -86.5518763}, {"type": "node", "id": 6503431049, "lat": 39.20644, "lon": -86.5515303}, {"type": "node", "id": 6503431050, "lat": 39.2065501, "lon": -86.5513238}, {"type": "node", "id": 6503431051, "lat": 39.2065366, "lon": -86.5516953}, {"type": "node", "id": 6566934518, "lat": 39.166768, "lon": -86.5325283, "tags": {"amenity": "pharmacy", "brand": "CVS Pharmacy", "brand:wikidata": "Q2078880", "brand:wikipedia": "en:CVS Pharmacy", "dispensing": "yes", "healthcare": "pharmacy", "name": "CVS Pharmacy", "opening_hours": "Mo-Fr 09:00-18:00", "short_name": "CVS"}}, {"type": "node", "id": 6772569937, "lat": 39.134066, "lon": -86.5319841, "tags": {"amenity": "pharmacy", "brand": "CVS Pharmacy", "brand:wikidata": "Q2078880", "brand:wikipedia": "en:CVS Pharmacy", "dispensing": "yes", "healthcare": "pharmacy", "name": "CVS Pharmacy", "short_name": "CVS"}}, {"type": "node", "id": 7156976269, "lat": 39.1755132, "lon": -86.4996506}, {"type": "node", "id": 7472496572, "lat": 39.1661028, "lon": -86.5821488, "tags": {"amenity": "veterinary", "name": "Bloomfield Veterinary Clini"}}, {"type": "node", "id": 7616888230, "lat": 39.1783034, "lon": -86.5054414}, {"type": "node", "id": 7826582527, "lat": 39.2150736, "lon": -86.5916508, "tags": {"addr:city": "Bloomington", "addr:housenumber": "4444", "addr:postcode": "47404", "addr:state": "IN", "addr:street": "West State Road 46", "amenity": "pharmacy", "brand": "CVS Pharmacy", "brand:wikidata": "Q2078880", "brand:wikipedia": "en:CVS Pharmacy", "dispensing": "yes", "healthcare": "pharmacy", "name": "CVS Pharmacy", "phone": "+1-812-876-2915", "ref": "6713", "short_name": "CVS", "smoking": "separated", "source": "bing", "website": "http://www.cvs.com/stores/cvs-pharmacy-address/4444+State+Road+West+46-Bloomington-IN-47404/storeid=6713", "wheelchair": "yes"}}, {"type": "node", "id": 7881761473, "lat": 39.1654495, "lon": -86.5176582, "tags": {"addr:city": "Bloomington", "addr:housenumber": "200", "addr:postcode": "47405", "addr:state": "IN", "addr:street": "South Jordan Avenue", "amenity": "clinic", "healthcare": "clinic", "name": "Robert L. Milisen Speech, Language, and Hearing Clinic", "operator": "Indiana University", "operator:type": "public", "phone": "+1 812 855 7439"}}, {"type": "node", "id": 8379817220, "lat": 39.2065505, "lon": -86.5517267}, {"type": "node", "id": 8403257654, "lat": 39.1371762, "lon": -86.5549912}, {"type": "node", "id": 8403257655, "lat": 39.1371734, "lon": -86.5557729}, {"type": "node", "id": 8403257656, "lat": 39.1372725, "lon": -86.5557735}, {"type": "node", "id": 8403257657, "lat": 39.1372709, "lon": -86.5562208}, {"type": "node", "id": 8403257658, "lat": 39.1367443, "lon": -86.5562176}, {"type": "node", "id": 8403257659, "lat": 39.1367486, "lon": -86.5550306}, {"type": "node", "id": 8405806092, "lat": 39.1601847, "lon": -86.5384864}, {"type": "node", "id": 8405806093, "lat": 39.1601837, "lon": -86.537942}, {"type": "node", "id": 8405806094, "lat": 39.159747, "lon": -86.5379433}, {"type": "node", "id": 8405806095, "lat": 39.159748, "lon": -86.5384878}, {"type": "node", "id": 8510620974, "lat": 39.1775212, "lon": -86.5043888}, {"type": "node", "id": 8510620975, "lat": 39.1764342, "lon": -86.5039817}, {"type": "node", "id": 8510620976, "lat": 39.1765216, "lon": -86.5037331}, {"type": "node", "id": 8510620977, "lat": 39.1773662, "lon": -86.5039196}, {"type": "node", "id": 8510620978, "lat": 39.1775954, "lon": -86.504021}, {"type": "node", "id": 8510620979, "lat": 39.177863, "lon": -86.5014671}, {"type": "node", "id": 8510620980, "lat": 39.1774791, "lon": -86.5016219}, {"type": "node", "id": 8510620981, "lat": 39.1774584, "lon": -86.5015439}, {"type": "node", "id": 8510620982, "lat": 39.1773336, "lon": -86.5015941}, {"type": "node", "id": 8510620983, "lat": 39.1774752, "lon": -86.5025742}, {"type": "node", "id": 8510620985, "lat": 39.1773917, "lon": -86.5025436}, {"type": "node", "id": 8510620986, "lat": 39.1773304, "lon": -86.5027673}, {"type": "node", "id": 8510620987, "lat": 39.1770677, "lon": -86.5027796}, {"type": "node", "id": 8510620988, "lat": 39.1769172, "lon": -86.5032756}, {"type": "node", "id": 8510620989, "lat": 39.1771871, "lon": -86.5034081}, {"type": "node", "id": 8510620990, "lat": 39.1770605, "lon": -86.5038382}, {"type": "node", "id": 8510620991, "lat": 39.1774856, "lon": -86.5035036}, {"type": "node", "id": 8510620992, "lat": 39.1780923, "lon": -86.5037871}, {"type": "node", "id": 8510620993, "lat": 39.1781448, "lon": -86.5035868}, {"type": "node", "id": 8510620994, "lat": 39.1781162, "lon": -86.5035498}, {"type": "node", "id": 8510620995, "lat": 39.1782523, "lon": -86.5030415}, {"type": "node", "id": 8510620996, "lat": 39.1781878, "lon": -86.5030168}, {"type": "node", "id": 8510620997, "lat": 39.1781998, "lon": -86.5029891}, {"type": "node", "id": 8510620998, "lat": 39.1778391, "lon": -86.5028011}, {"type": "node", "id": 8510620999, "lat": 39.1777746, "lon": -86.5025362}, {"type": "node", "id": 8510621000, "lat": 39.1780684, "lon": -86.502416}, {"type": "node", "id": 8510621001, "lat": 39.177949, "lon": -86.5019076}, {"type": "node", "id": 8510621002, "lat": 39.178109, "lon": -86.5018429}, {"type": "node", "id": 8510621003, "lat": 39.1780278, "lon": -86.5015225}, {"type": "node", "id": 8510621004, "lat": 39.177894, "lon": -86.501578}, {"type": "node", "id": 8510648286, "lat": 39.1788191, "lon": -86.4991745}, {"type": "node", "id": 8510648287, "lat": 39.17744, "lon": -86.4991998}, {"type": "node", "id": 8510648288, "lat": 39.1773336, "lon": -86.4983758}, {"type": "node", "id": 8510648289, "lat": 39.1771859, "lon": -86.4980125}, {"type": "node", "id": 8510648290, "lat": 39.1769009, "lon": -86.4977866}, {"type": "node", "id": 8510648291, "lat": 39.1757985, "lon": -86.4973968}, {"type": "node", "id": 8510648292, "lat": 39.1755177, "lon": -86.4987303}, {"type": "node", "id": 8510648293, "lat": 39.1756574, "lon": -86.5031245}, {"type": "node", "id": 8510648294, "lat": 39.1757266, "lon": -86.5026817}, {"type": "node", "id": 8629800230, "lat": 39.165112, "lon": -86.4732163}, {"type": "node", "id": 8629800231, "lat": 39.1649561, "lon": -86.473211}, {"type": "node", "id": 8629800232, "lat": 39.164954, "lon": -86.4734899}, {"type": "node", "id": 8629800233, "lat": 39.1651079, "lon": -86.4734926}, {"type": "node", "id": 9000525077, "lat": 39.1337486, "lon": -86.5275286}, {"type": "node", "id": 9000525078, "lat": 39.1337687, "lon": -86.5273345}, {"type": "node", "id": 9000525079, "lat": 39.1336333, "lon": -86.5273112}, {"type": "node", "id": 9000525080, "lat": 39.1336132, "lon": -86.5275052}, {"type": "node", "id": 9363943073, "lat": 39.1774047, "lon": -86.5015691, "tags": {"entrance": "emergency"}}, {"type": "node", "id": 9363943148, "lat": 39.1773615, "lon": -86.5026456, "tags": {"entrance": "main"}}, {"type": "node", "id": 9509482441, "lat": 39.1651954, "lon": -86.5824339, "tags": {"addr:city": "Bloomington", "addr:housenumber": "3910", "addr:postcode": "47404", "addr:state": "IN", "addr:street": "West 3rd Street", "amenity": "pharmacy", "brand": "CVS Pharmacy", "brand:wikidata": "Q2078880", "brand:wikipedia": "en:CVS Pharmacy", "dispensing": "yes", "healthcare": "pharmacy", "name": "CVS Pharmacy", "ref": "8665", "short_name": "CVS"}}, {"type": "node", "id": 9509533723, "lat": 39.1648003, "lon": -86.4974508, "tags": {"addr:city": "Bloomington", "addr:housenumber": "2701", "addr:postcode": "47401", "addr:state": "IN", "addr:street": "East 3rd Street", "amenity": "pharmacy", "brand": "CVS Pharmacy", "brand:wikidata": "Q2078880", "brand:wikipedia": "en:CVS Pharmacy", "dispensing": "yes", "healthcare": "pharmacy", "name": "CVS Pharmacy", "ref": "6697", "short_name": "CVS"}}, {"type": "node", "id": 9960404310, "lat": 39.20731, "lon": -86.573215}, {"type": "node", "id": 9960404311, "lat": 39.20731, "lon": -86.573268}, {"type": "node", "id": 9960404312, "lat": 39.207331, "lon": -86.573268}, {"type": "node", "id": 9960404313, "lat": 39.207331, "lon": -86.573346}, {"type": "node", "id": 9960404314, "lat": 39.207308, "lon": -86.573346}, {"type": "node", "id": 9960404315, "lat": 39.207308, "lon": -86.573394}, {"type": "node", "id": 9960404316, "lat": 39.207256, "lon": -86.573395}, {"type": "node", "id": 9960411217, "lat": 39.207256, "lon": -86.573374}, {"type": "node", "id": 9960411218, "lat": 39.207091, "lon": -86.573375}, {"type": "node", "id": 9960411219, "lat": 39.207091, "lon": -86.573215}, {"type": "node", "id": 10028443867, "lat": 39.224467, "lon": -86.612139}, {"type": "node", "id": 10028443868, "lat": 39.224645, "lon": -86.611959}, {"type": "node", "id": 10028443869, "lat": 39.224709, "lon": -86.612064}, {"type": "node", "id": 10028443870, "lat": 39.224608, "lon": -86.612165}, {"type": "node", "id": 10028443871, "lat": 39.224638, "lon": -86.612215}, {"type": "node", "id": 10028443872, "lat": 39.22458, "lon": -86.612274}, {"type": "node", "id": 10028443873, "lat": 39.224553, "lon": -86.612229}, {"type": "node", "id": 10179261989, "lat": 39.1720387, "lon": -86.5152082}, {"type": "node", "id": 10179261990, "lat": 39.1720301, "lon": -86.5152082}, {"type": "node", "id": 10179261991, "lat": 39.1720175, "lon": -86.5152259}, {"type": "node", "id": 10179261992, "lat": 39.1719654, "lon": -86.5151642}, {"type": "node", "id": 10179261993, "lat": 39.1719825, "lon": -86.5151402}, {"type": "node", "id": 10179261996, "lat": 39.1723874, "lon": -86.5150644}, {"type": "node", "id": 10179261997, "lat": 39.1724318, "lon": -86.5149932}, {"type": "node", "id": 10179261998, "lat": 39.172388, "lon": -86.5149932}, {"type": "node", "id": 10179261999, "lat": 39.1721878, "lon": -86.514922}, {"type": "node", "id": 10179262000, "lat": 39.1721878, "lon": -86.5149321}, {"type": "node", "id": 10179262001, "lat": 39.1723358, "lon": -86.5149323}, {"type": "node", "id": 10179262002, "lat": 39.1723358, "lon": -86.5149172}, {"type": "node", "id": 10179262003, "lat": 39.1724317, "lon": -86.5150342}, {"type": "node", "id": 10763047760, "lat": 39.1784855, "lon": -86.5053566}, {"type": "node", "id": 10763047761, "lat": 39.178713, "lon": -86.5051444}, {"type": "node", "id": 10763047762, "lat": 39.1788618, "lon": -86.5048713}, {"type": "node", "id": 10763047763, "lat": 39.1789203, "lon": -86.5045799}, {"type": "node", "id": 10763047764, "lat": 39.17543, "lon": -86.5040803}, {"type": "node", "id": 10763047765, "lat": 39.1754148, "lon": -86.5040124}, {"type": "node", "id": 10763047766, "lat": 39.1754278, "lon": -86.5039215}, {"type": "node", "id": 10763047767, "lat": 39.1754551, "lon": -86.5038561}, {"type": "node", "id": 10763047768, "lat": 39.1755151, "lon": -86.5036732}, {"type": "node", "id": 10763047769, "lat": 39.175593, "lon": -86.5034013}, {"type": "node", "id": 10763047770, "lat": 39.1757588, "lon": -86.5020892}, {"type": "node", "id": 10763047771, "lat": 39.175757, "lon": -86.5024052}, {"type": "node", "id": 10763047772, "lat": 39.1757439, "lon": -86.5016277}, {"type": "node", "id": 10763047773, "lat": 39.1757146, "lon": -86.5011224}, {"type": "node", "id": 10763047774, "lat": 39.1754882, "lon": -86.4990436}, {"type": "node", "id": 10763047775, "lat": 39.1754935, "lon": -86.4993484}, {"type": "node", "id": 10763047884, "lat": 39.1770886, "lon": -86.5037428}, {"type": "node", "id": 10763047887, "lat": 39.1771596, "lon": -86.5035016}, {"type": "node", "id": 10951047147, "lat": 39.1773541, "lon": -86.5016894}, {"type": "node", "id": 10951047148, "lat": 39.1772734, "lon": -86.5017258}, {"type": "node", "id": 10951047329, "lat": 39.1721043, "lon": -86.5154436}, {"type": "node", "id": 10951047335, "lat": 39.172133, "lon": -86.5154437}, {"type": "node", "id": 10951047336, "lat": 39.1724125, "lon": -86.5150645}, {"type": "node", "id": 11030753718, "lat": 39.1671172, "lon": -86.4817288}, {"type": "node", "id": 11030753719, "lat": 39.1671174, "lon": -86.4817138}, {"type": "node", "id": 11030753720, "lat": 39.1671511, "lon": -86.4817147}, {"type": "node", "id": 11030753721, "lat": 39.1671509, "lon": -86.48173}, {"type": "node", "id": 11030753722, "lat": 39.1671766, "lon": -86.4817123}, {"type": "node", "id": 11030753723, "lat": 39.1672208, "lon": -86.4817135}, {"type": "node", "id": 11030753724, "lat": 39.1672205, "lon": -86.481735}, {"type": "node", "id": 11036485058, "lat": 39.1368081, "lon": -86.5549605}, {"type": "node", "id": 11036485059, "lat": 39.1368815, "lon": -86.5549609}, {"type": "node", "id": 11036485060, "lat": 39.1368816, "lon": -86.5549264}, {"type": "node", "id": 11036485061, "lat": 39.1370285, "lon": -86.5549273}, {"type": "node", "id": 11036485062, "lat": 39.1370284, "lon": -86.5549551}, {"type": "node", "id": 11036485063, "lat": 39.1371065, "lon": -86.5549556}, {"type": "node", "id": 11036485064, "lat": 39.1371064, "lon": -86.5549908}, {"type": "node", "id": 11036485065, "lat": 39.1368078, "lon": -86.5550309}, {"type": "node", "id": 11036532388, "lat": 39.1371618, "lon": -86.5560034}, {"type": "node", "id": 11036532389, "lat": 39.1371616, "lon": -86.5559273}, {"type": "node", "id": 11036532390, "lat": 39.1370652, "lon": -86.5559277}, {"type": "node", "id": 11036532391, "lat": 39.1370649, "lon": -86.5558119}, {"type": "node", "id": 11036532392, "lat": 39.1370766, "lon": -86.5558118}, {"type": "node", "id": 11036532393, "lat": 39.1370765, "lon": -86.5557849}, {"type": "node", "id": 11036532394, "lat": 39.1368296, "lon": -86.5557861}, {"type": "node", "id": 11036532395, "lat": 39.1368298, "lon": -86.5558472}, {"type": "node", "id": 11036532396, "lat": 39.1368783, "lon": -86.555847}, {"type": "node", "id": 11036532397, "lat": 39.1368785, "lon": -86.555918}, {"type": "node", "id": 11036532398, "lat": 39.1368548, "lon": -86.5559181}, {"type": "node", "id": 11036532399, "lat": 39.136855, "lon": -86.5560049}, {"type": "node", "id": 11036532400, "lat": 39.1370106, "lon": -86.5559341}, {"type": "node", "id": 11036532401, "lat": 39.1370104, "lon": -86.5558479}, {"type": "node", "id": 11036532402, "lat": 39.1369411, "lon": -86.5558481}, {"type": "node", "id": 11036532403, "lat": 39.1369412, "lon": -86.5559343}, {"type": "node", "id": 11036532404, "lat": 39.1370084, "lon": -86.5556623}, {"type": "node", "id": 11036532405, "lat": 39.1370044, "lon": -86.5551637}, {"type": "node", "id": 11036532406, "lat": 39.1369895, "lon": -86.5551639}, {"type": "node", "id": 11036532407, "lat": 39.1369899, "lon": -86.5552045}, {"type": "node", "id": 11036532408, "lat": 39.1369017, "lon": -86.5552056}, {"type": "node", "id": 11036532409, "lat": 39.1369014, "lon": -86.5551668}, {"type": "node", "id": 11036532410, "lat": 39.1368927, "lon": -86.555167}, {"type": "node", "id": 11036532411, "lat": 39.1368968, "lon": -86.5556651}, {"type": "node", "id": 11036532412, "lat": 39.1369096, "lon": -86.5556649}, {"type": "node", "id": 11036532413, "lat": 39.1369094, "lon": -86.5556458}, {"type": "node", "id": 11036532414, "lat": 39.1369953, "lon": -86.5556447}, {"type": "node", "id": 11036532415, "lat": 39.1369954, "lon": -86.5556624}, {"type": "way", "id": 105429335, "nodes": [1214407670, 10179262002, 10179262001, 10179262000, 10179261999, 1214407688, 1214407680, 1214407689, 10179261993, 10179261992, 10179261991, 10179261990, 10179261989, 1214407677, 10951047329, 10951047335, 1214407636, 1214407682, 1214407627, 10179261996, 10951047336, 1214418044, 10179262003, 10179261997, 10179261998, 1214407670], "tags": {"addr:city": "Bloomington", "addr:housenumber": "600", "addr:postcode": "47405", "addr:state": "IN", "addr:street": "North Eagleson Avenue", "amenity": "hospital", "building": "yes", "healthcare": "hospital", "layer": "1", "name": "Indiana University Student Health Center", "operator": "Indiana University", "short_name": "IU Student Health Center", "website": "https://healthcenter.indiana.edu/"}}, {"type": "way", "id": 172185270, "nodes": [1831171746, 1831171750, 1831171748, 1831171744, 1831171746], "tags": {"addr:city": "Bloomington", "addr:housenumber": "123", "addr:postcode": "47404", "addr:state": "IN", "addr:street": "South Franklin Road", "amenity": "clinic", "building": "yes", "cuisine": "chinese", "healthcare": "clinic", "name": "MedExpress", "operator": "MedExpress", "operator:wikidata": "Q102183820"}}, {"type": "way", "id": 282534037, "nodes": [2864782650, 2864782651, 2864782652, 2864782653, 2864782650], "tags": {"amenity": "dentist", "brand": "Aspen Dental", "brand:wikidata": "Q4807808", "brand:wikipedia": "en:Aspen Dental", "building": "yes", "healthcare": "dentist", "name": "Aspen Dental"}}, {"type": "way", "id": 378333639, "nodes": [3817485568, 3817485569, 3817485570, 3817485571, 3817485568], "tags": {"amenity": "veterinary", "building": "yes"}}, {"type": "way", "id": 482163050, "nodes": [4750192993, 4750192992, 4750192991, 4750192990, 4750192989, 4750192988, 4750192987, 4750192986, 4750192985, 4750192984, 4750192983, 4750192982, 4750192981, 4750192980, 4750192979, 4750192978, 4750192993], "tags": {"addr:city": "Bloomington", "addr:housenumber": "550", "addr:postcode": "47403", "addr:street": "South Landmark Avenue", "amenity": "clinic", "healthcare": "clinic", "name": "Premier Healthcare", "operator": "Premier Healthcare", "phone": "+1 812 355 6900", "website": "http://premierhealthcare.org/location.LMC.html"}}, {"type": "way", "id": 482163054, "nodes": [4750193018, 4750193017, 5600935973, 4750193016, 4750193015, 4750193014, 4750193013, 4750193012, 4750193011, 4750193010, 4750193009, 4750193008, 4750193007, 4750193006, 4750193005, 4750193004, 1109195117, 4750193003, 4750193002, 5600935972, 4750193018], "tags": {"addr:city": "Bloomington", "addr:housenumber": "4011", "addr:postcode": "47403", "addr:state": "IN", "addr:street": "South Monroe Medical Park Boulevard", "amenity": "hospital", "emergency": "yes", "healthcare": "hospital", "name": "Monroe Hospital", "opening_hours": "24/7", "phone": "+1 812 825 1111", "website": "https://www.monroehospital.com/", "wikidata": "Q87931989"}}, {"type": "way", "id": 512605761, "nodes": [5012217257, 5012217258, 5012217259, 5012217260, 5012217257], "tags": {"amenity": "clinic", "building": "yes", "healthcare": "clinic", "healthcare:speciality": "general", "name": "Health Lodge", "opening_hours": "24/7"}}, {"type": "way", "id": 556926915, "nodes": [5371870186, 5371870187, 5371870188, 5371870189, 5371870186], "tags": {"amenity": "doctors", "building": "yes", "healthcare": "doctor"}}, {"type": "way", "id": 559248221, "nodes": [5394355004, 5548334348, 5394355005, 5394355006, 5394355007, 5548334349, 5394355004], "tags": {"amenity": "social_facility", "building": "yes", "social_facility": "nursing_home", "social_facility:for": "senior"}}, {"type": "way", "id": 560170106, "nodes": [5402096533, 5402096534, 11030753724, 11030753723, 11030753722, 1842151693, 11030753721, 11030753720, 11030753719, 11030753718, 5402096535, 5402096536, 5402096537, 5402096538, 5402096533], "tags": {"addr:city": "Bloomington", "addr:housenumber": "115", "addr:postcode": "47408", "addr:state": "IN", "addr:street": "North Smith Road", "amenity": "veterinary", "building": "commercial"}}, {"type": "way", "id": 565273818, "nodes": [5444644007, 5444644005, 5444644006, 5444644009, 5444644008, 5444644007], "tags": {"amenity": "pharmacy", "brand": "CVS Pharmacy", "brand:wikidata": "Q2078880", "brand:wikipedia": "en:CVS Pharmacy", "building": "yes", "dispensing": "yes", "healthcare": "pharmacy", "name": "CVS Pharmacy", "short_name": "CVS"}}, {"type": "way", "id": 567086788, "nodes": [5459658310, 5459658311, 5459658312, 5459658313, 5459658314, 5459658315, 5459658316, 5459658317, 5459658318, 5459658319, 5459658310], "tags": {"amenity": "clinic", "building": "yes", "healthcare": "clinic", "name": "IU Health Urgent Care"}}, {"type": "way", "id": 575563495, "nodes": [5522665717, 5522665718, 5522665719, 5522665720, 5522665717], "tags": {"amenity": "doctors", "building": "yes", "healthcare": "doctor"}}, {"type": "way", "id": 575563498, "nodes": [5522666921, 5522666922, 5522666923, 5522666924, 5522666925, 5522666926, 5522666927, 5522666928, 5522666921], "tags": {"amenity": "doctors", "building": "yes", "healthcare": "doctor"}}, {"type": "way", "id": 580937340, "nodes": [5559804274, 5559804275, 5559804276, 5559804277, 5559804278, 5559804279, 5559804280, 5559804281, 5559804282, 5559804283, 5559804284, 5559804285, 5559804286, 5559804287, 5559804288, 5559804289, 5559804274], "tags": {"amenity": "clinic", "building": "yes", "healthcare": "clinic"}}, {"type": "way", "id": 610338429, "nodes": [5780534166, 5780534167, 5780534168, 5780534169, 5780534166], "tags": {"amenity": "social_facility", "building": "yes", "name": "Wheeler Misson Center For Men", "social_facility": "shelter", "social_facility:for": "homeless"}}, {"type": "way", "id": 639119544, "nodes": [6022723677, 6022723679, 6022723680, 6022723681, 6022723682, 6022723684, 6022723677], "tags": {"addr:city": "Bloomington", "addr:housenumber": "314", "addr:state": "IN", "addr:street": "East 7th Street", "amenity": "dentist", "building": "yes", "healthcare": "dentist", "name": "Sallee Dental Studio"}}, {"type": "way", "id": 692719420, "nodes": [6503431042, 6503431043, 6503431044, 6503431045, 6503431046, 6503431047, 6503431048, 8379817220, 6503431051, 6503431049, 6503431050, 6503431042], "tags": {"amenity": "hospital", "healthcare": "hospital", "name": "Bloomington Meadows Hospital", "wikidata": "Q87932477"}}, {"type": "way", "id": 766299740, "nodes": [6431955855, 877330036, 10763047764, 10763047765, 10763047766, 10763047767, 10763047768, 10763047769, 8510648293, 8510648294, 10763047771, 10763047770, 10763047772, 10763047773, 2561545143, 7156976269, 10763047775, 10763047774, 8510648292, 8510648291, 8510648290, 8510648289, 8510648288, 8510648287, 8510648286, 1851104367, 1851104373, 10763047763, 10763047762, 10763047761, 10763047760, 7616888230, 6431955855], "tags": {"amenity": "hospital", "healthcare": "hospital", "name": "IU Health Bloomington"}}, {"type": "way", "id": 904857085, "nodes": [8403257654, 8403257655, 8403257656, 8403257657, 8403257658, 8403257659, 11036485065, 11036485058, 11036485059, 11036485060, 11036485061, 11036485062, 11036485063, 11036485064, 8403257654]}, {"type": "way", "id": 905149608, "nodes": [8405806092, 8405806093, 8405806094, 8405806095, 8405806092], "tags": {"amenity": "clinic", "building": "yes", "healthcare": "clinic"}}, {"type": "way", "id": 916296334, "nodes": [8510620990, 8510620976, 8510620975, 8510620974, 8510620978, 8510620977, 8510620991, 8510620992, 8510620993, 8510620994, 8510620995, 8510620996, 8510620997, 8510620998, 8510620999, 8510621000, 8510621001, 8510621002, 8510621003, 8510621004, 8510620979, 8510620980, 8510620981, 9363943073, 8510620982, 10951047147, 10951047148, 8510620983, 8510620985, 9363943148, 8510620986, 8510620987, 8510620988, 8510620989, 10763047887, 10763047884, 8510620990], "tags": {"addr:city": "Bloomington", "addr:housenumber": "2651", "addr:postcode": "47408", "addr:state": "IN", "addr:street": "East Discovery Parkway", "amenity": "hospital", "building": "hospital", "emergency": "yes", "healthcare": "hospital", "name": "IU Health Bloomington", "operator": "IU Health", "operator:type": "private", "phone": "+1-812-353-5252", "website": "https://iuhealth.org/find-locations/iu-health-bloomington-hospital", "wikidata": "Q87932480"}}, {"type": "way", "id": 930740055, "nodes": [8629800233, 8629800230, 8629800231, 8629800232, 8629800233], "tags": {"addr:city": "Bloomington", "addr:housenumber": "4517", "addr:postcode": "47408", "addr:state": "IN", "addr:street": "East Morningside Drive", "amenity": "veterinary", "building": "commercial", "name": "Collegee Mall Veterinary Hospital"}}, {"type": "way", "id": 972470352, "nodes": [9000525077, 9000525078, 9000525079, 9000525080, 9000525077], "tags": {"amenity": "dentist", "building": "yes", "healthcare": "dentist"}}, {"type": "way", "id": 1087088862, "nodes": [9960404310, 9960404311, 9960404312, 9960404313, 9960404314, 9960404315, 9960404316, 9960411217, 9960411218, 9960411219, 9960404310], "tags": {"amenity": "veterinary", "building": "yes", "source": "microsoft/BuildingFootprints"}}, {"type": "way", "id": 1095033685, "nodes": [837147595, 10028443867, 10028443868, 10028443869, 10028443870, 10028443871, 10028443872, 10028443873, 837147595], "tags": {"addr:city": "Ellettsville", "addr:housenumber": "5915", "addr:postcode": "47429", "addr:state": "IN", "addr:street": "West State Road 46", "amenity": "dentist", "building": "yes", "healthcare": "dentist", "name": "Ellettsville Dental Center", "phone": "+1-812-876-7330", "source": "microsoft/BuildingFootprints", "website": "http://ellettsvilledental.com"}}, {"type": "way", "id": 1188555850, "nodes": [11036532388, 11036532389, 11036532390, 11036532391, 11036532392, 11036532393, 11036532394, 11036532395, 11036532396, 11036532397, 11036532398, 11036532399, 11036532388]}, {"type": "way", "id": 1188555851, "nodes": [11036532400, 11036532401, 11036532402, 11036532403, 11036532400]}, {"type": "way", "id": 1188555852, "nodes": [11036532404, 11036532405, 11036532406, 11036532407, 11036532408, 11036532409, 11036532410, 11036532411, 11036532412, 11036532413, 11036532414, 11036532415, 11036532404]}, {"type": "relation", "id": 16073912, "members": [{"type": "way", "ref": 904857085, "role": "outer"}, {"type": "way", "ref": 1188555852, "role": "inner"}, {"type": "way", "ref": 1188555850, "role": "inner"}, {"type": "way", "ref": 1188555851, "role": "inner"}], "tags": {"addr:city": "Bloomington", "addr:housenumber": "2770", "addr:postcode": "47403", "addr:state": "IN", "addr:street": "South Adams Street", "amenity": "social_facility", "building": "yes", "name": "Monroe Place", "social_facility": "nursing_home", "social_facility:for": "senior", "type": "multipolygon"}}]}