{"version": 0.6, "generator": "Overpass API 0.7.61.2 bd0cdeae", "osm3s": {"timestamp_osm_base": "2023-07-21T17:02:13Z", "copyright": "The data included in this document is from www.openstreetmap.org. The data is made available under ODbL."}, "elements": [{"type": "node", "id": 1209721885, "lat": 39.1499629, "lon": -86.5134556, "tags": {"amenity": "post_box", "operator": "United States Postal Service", "operator:short": "USPS", "operator:type": "public", "operator:wikidata": "Q668687"}}, {"type": "node", "id": 1209892501, "lat": 39.1642285, "lon": -86.5312707}, {"type": "node", "id": 1209892512, "lat": 39.1644658, "lon": -86.5317584}, {"type": "node", "id": 1209892546, "lat": 39.1644656, "lon": -86.5312761}, {"type": "node", "id": 1209892552, "lat": 39.1642326, "lon": -86.5317589}, {"type": "node", "id": 1210132963, "lat": 39.1791922, "lon": -86.5131986}, {"type": "node", "id": 1210132977, "lat": 39.1793657, "lon": -86.5134844}, {"type": "node", "id": 1210132989, "lat": 39.179363, "lon": -86.5131959}, {"type": "node", "id": 1210132994, "lat": 39.1791949, "lon": -86.513487}, {"type": "node", "id": 1375291863, "lat": 39.1654385, "lon": -86.5697131}, {"type": "node", "id": 1562673635, "lat": 39.1697339, "lon": -86.5366772, "tags": {"addr:city": "Bloomington", "addr:housenumber": "401", "addr:postcode": "47404", "addr:state": "IN", "addr:street": "North Morton Street", "amenity": "townhall", "name": "Bloomington City Hall"}}, {"type": "node", "id": 1657195928, "lat": 39.1531849, "lon": -86.5359279}, {"type": "node", "id": 1657195929, "lat": 39.1531849, "lon": -86.5360773}, {"type": "node", "id": 1657195930, "lat": 39.1529752, "lon": -86.5359371}, {"type": "node", "id": 1657195931, "lat": 39.1529776, "lon": -86.5360739}, {"type": "node", "id": 1842151698, "lat": 39.1711988, "lon": -86.4937292}, {"type": "node", "id": 2350408946, "lat": 39.1604212, "lon": -86.533956}, {"type": "node", "id": 2350408947, "lat": 39.1604235, "lon": -86.5343847}, {"type": "node", "id": 2350408948, "lat": 39.1605838, "lon": -86.5339546}, {"type": "node", "id": 2350408949, "lat": 39.1605861, "lon": -86.5343833}, {"type": "node", "id": 2528695285, "lat": 39.1672106, "lon": -86.5341242}, {"type": "node", "id": 2528695286, "lat": 39.1672528, "lon": -86.534324}, {"type": "node", "id": 2528695287, "lat": 39.1670061, "lon": -86.5343489}, {"type": "node", "id": 2528695288, "lat": 39.1669351, "lon": -86.5341635}, {"type": "node", "id": 2528695289, "lat": 39.1669701, "lon": -86.5343488}, {"type": "node", "id": 2528695290, "lat": 39.167006, "lon": -86.5344364}, {"type": "node", "id": 2528695291, "lat": 39.1672112, "lon": -86.534324}, {"type": "node", "id": 2528695292, "lat": 39.1672112, "lon": -86.5344367}, {"type": "node", "id": 2528695293, "lat": 39.1669703, "lon": -86.5341636}, {"type": "node", "id": 2528695294, "lat": 39.1670163, "lon": -86.5340323}, {"type": "node", "id": 2528695295, "lat": 39.1669349, "lon": -86.5343191}, {"type": "node", "id": 2528695296, "lat": 39.1672525, "lon": -86.534124}, {"type": "node", "id": 2528695297, "lat": 39.1669704, "lon": -86.5341287}, {"type": "node", "id": 2528695298, "lat": 39.1670162, "lon": -86.5341288}, {"type": "node", "id": 2528695299, "lat": 39.1669701, "lon": -86.5343191}, {"type": "node", "id": 2528695300, "lat": 39.1672103, "lon": -86.5340319}, {"type": "node", "id": 2528700560, "lat": 39.1694501, "lon": -86.535045}, {"type": "node", "id": 2528700561, "lat": 39.1687351, "lon": -86.5354094}, {"type": "node", "id": 2528700562, "lat": 39.1694498, "lon": -86.5354105}, {"type": "node", "id": 2528700563, "lat": 39.1687354, "lon": -86.5350439}, {"type": "node", "id": 4766246654, "lat": 39.1671049, "lon": -86.5344366}, {"type": "node", "id": 4766246658, "lat": 39.16725, "lon": -86.5342423, "tags": {"entrance": "yes"}}, {"type": "node", "id": 5329682283, "lat": 39.1739227, "lon": -86.523316}, {"type": "node", "id": 5366827993, "lat": 39.1455466, "lon": -86.5265989}, {"type": "node", "id": 5366827994, "lat": 39.1454373, "lon": -86.5265999}, {"type": "node", "id": 5366827995, "lat": 39.1454358, "lon": -86.5263208}, {"type": "node", "id": 5366827996, "lat": 39.1455451, "lon": -86.5263198}, {"type": "node", "id": 5570228411, "lat": 39.1655696, "lon": -86.5697132}, {"type": "node", "id": 5570228413, "lat": 39.1654384, "lon": -86.5697636}, {"type": "node", "id": 5570228414, "lat": 39.1652085, "lon": -86.5697635}, {"type": "node", "id": 5570228415, "lat": 39.1652085, "lon": -86.5697188}, {"type": "node", "id": 5570228416, "lat": 39.1651508, "lon": -86.5697188}, {"type": "node", "id": 5570228417, "lat": 39.1651508, "lon": -86.5695259}, {"type": "node", "id": 5570228418, "lat": 39.1655697, "lon": -86.5695261}, {"type": "node", "id": 5743521648, "lat": 39.1671074, "lon": -86.5340324}, {"type": "node", "id": 6585584932, "lat": 39.1654243, "lon": -86.5309867}, {"type": "node", "id": 6585584933, "lat": 39.1654619, "lon": -86.5306847}, {"type": "node", "id": 6585584934, "lat": 39.1653985, "lon": -86.5306858}, {"type": "node", "id": 6585584935, "lat": 39.165399, "lon": -86.5307344}, {"type": "node", "id": 6585584936, "lat": 39.1653248, "lon": -86.5307357}, {"type": "node", "id": 6585584937, "lat": 39.1653254, "lon": -86.5307872}, {"type": "node", "id": 6585584938, "lat": 39.1652456, "lon": -86.5308519}, {"type": "node", "id": 6585584939, "lat": 39.1652007, "lon": -86.5309139}, {"type": "node", "id": 6585584940, "lat": 39.1651565, "lon": -86.5309147}, {"type": "node", "id": 6585584941, "lat": 39.1651573, "lon": -86.5309914}, {"type": "node", "id": 6604180623, "lat": 39.1706972, "lon": -86.4931936}, {"type": "node", "id": 6604180624, "lat": 39.1711798, "lon": -86.4931975}, {"type": "node", "id": 8477538929, "lat": 39.164431, "lon": -86.506422}, {"type": "node", "id": 8477538930, "lat": 39.164653, "lon": -86.506416}, {"type": "node", "id": 8477538931, "lat": 39.164658, "lon": -86.506735}, {"type": "node", "id": 8705418885, "lat": 39.1738347, "lon": -86.523315}, {"type": "node", "id": 8705418886, "lat": 39.1738346, "lon": -86.5233337}, {"type": "node", "id": 8705418887, "lat": 39.173768, "lon": -86.5233329}, {"type": "node", "id": 8705418888, "lat": 39.1737699, "lon": -86.5230559}, {"type": "node", "id": 8705418889, "lat": 39.1739823, "lon": -86.5230583}, {"type": "node", "id": 8705418890, "lat": 39.1739804, "lon": -86.5233329}, {"type": "node", "id": 8705418891, "lat": 39.1739226, "lon": -86.5233322}, {"type": "node", "id": 9085262620, "lat": 39.164435, "lon": -86.506741}, {"type": "node", "id": 9601805963, "lat": 39.1704774, "lon": -86.5161088, "tags": {"amenity": "post_box", "collection_times": "Mo-Sa 10:00; PH closed", "operator": "United States Postal Service", "operator:short": "USPS", "operator:type": "public", "operator:wikidata": "Q668687", "operator:wikipedia": "en:United States Postal Service", "ref": "4740500002"}}, {"type": "node", "id": 9875038941, "lat": 39.1706804, "lon": -86.4937247}, {"type": "node", "id": 9875038942, "lat": 39.1706808, "lon": -86.4936563}, {"type": "node", "id": 9875038943, "lat": 39.1706949, "lon": -86.4936564}, {"type": "node", "id": 9875038944, "lat": 39.171201, "lon": -86.4933022}, {"type": "node", "id": 9875038945, "lat": 39.1711793, "lon": -86.493302}, {"type": "node", "id": 10067601952, "lat": 39.1652, "lon": -86.5308527}, {"type": "node", "id": 10067601953, "lat": 39.1652449, "lon": -86.5307886}, {"type": "node", "id": 10067601954, "lat": 39.1654632, "lon": -86.5307999}, {"type": "node", "id": 10067601955, "lat": 39.1654224, "lon": -86.5308006}, {"type": "node", "id": 10553767537, "lat": 39.166935, "lon": -86.5342467, "tags": {"entrance": "yes"}}, {"type": "node", "id": 10553787230, "lat": 39.1663914, "lon": -86.5349777, "tags": {"amenity": "post_box", "brand": "UPS", "brand:wikidata": "Q155026", "official_name": "United Parcel Service", "operator": "UPS", "operator:type": "private", "operator:wikidata": "Q155026"}}, {"type": "node", "id": 10553787254, "lat": 39.1683643, "lon": -86.5347197, "tags": {"amenity": "post_box", "operator": "United States Postal Service", "operator:short": "USPS", "operator:type": "public", "operator:wikidata": "Q668687"}}, {"type": "node", "id": 10901049387, "lat": 39.1672503, "lon": -86.5342269}, {"type": "node", "id": 10901049388, "lat": 39.166935, "lon": -86.5342385}, {"type": "way", "id": 104932506, "nodes": [1209892512, 1209892552, 1209892501, 1209892546, 1209892512], "tags": {"addr:city": "Bloomington", "addr:state": "IN", "amenity": "police", "building": "public", "name": "Bloomington Police Department"}}, {"type": "way", "id": 104955699, "nodes": [1210132977, 1210132994, 1210132963, 1210132989, 1210132977], "tags": {"addr:city": "Bloomington", "addr:housenumber": "1469", "addr:postcode": "47408", "addr:state": "IN", "addr:street": "East 17th Street", "amenity": "police", "building": "university", "name": "Indiana University Police Department"}}, {"type": "way", "id": 152954838, "nodes": [1657195929, 1657195931, 1657195930, 1657195928, 1657195929], "tags": {"amenity": "police", "building": "yes", "name": "Bloomington Police Station"}}, {"type": "way", "id": 226185950, "nodes": [2350408949, 2350408948, 2350408946, 2350408947, 2350408949], "tags": {"addr:city": "Bloomington", "addr:state": "IN", "amenity": "post_office", "building": "public", "name": "Bloomington Post Office", "operator": "United States Postal Service", "operator:short": "USPS", "operator:type": "public", "operator:wikidata": "Q668687", "operator:wikipedia": "en:United States Postal Service", "short_name": "USPS"}}, {"type": "way", "id": 245731138, "nodes": [2528695292, 4766246654, 2528695290, 2528695287, 2528695289, 2528695299, 2528695295, 10553767537, 10901049388, 2528695288, 2528695293, 2528695297, 2528695298, 2528695294, 5743521648, 2528695300, 2528695285, 2528695296, 10901049387, 4766246658, 2528695286, 2528695291, 2528695292], "tags": {"addr:city": "Bloomington", "addr:housenumber": "100", "addr:postcode": "47404", "addr:state": "IN", "addr:street": "West Kirkwood Avenue", "amenity": "courthouse", "building": "public", "name": "Monroe County Courthouse", "wikidata": "Q6902157", "wikipedia": "en:Monroe County Courthouse (Indiana)"}}, {"type": "way", "id": 245732006, "nodes": [2528700562, 2528700560, 2528700563, 2528700561, 2528700562], "tags": {"addr:housenumber": "301", "addr:postcode": "47404", "addr:street": "North College Avenue", "amenity": "prison", "building": "public", "name": "Monroe County Justice Building"}}, {"type": "way", "id": 556349229, "nodes": [5366827993, 5366827994, 5366827995, 5366827996, 5366827993], "tags": {"amenity": "fire_station", "building": "yes"}}, {"type": "way", "id": 582421453, "nodes": [5570228411, 1375291863, 5570228413, 5570228414, 5570228415, 5570228416, 5570228417, 5570228418, 5570228411], "tags": {"addr:city": "Bloomington", "addr:housenumber": "209", "addr:postcode": "47404", "addr:state": "IN", "addr:street": "South Fairfield Drive", "amenity": "fire_station", "building": "yes", "name": "Bloomington Fire Dept"}}, {"type": "way", "id": 701218625, "nodes": [6585584932, 10067601955, 10067601954, 6585584933, 6585584934, 6585584935, 6585584936, 6585584937, 10067601953, 6585584938, 10067601952, 6585584939, 6585584940, 6585584941, 6585584932], "tags": {"addr:city": "Bloomington", "addr:housenumber": "300", "addr:postcode": "47408", "addr:state": "IN", "addr:street": "East 4th Street", "amenity": "fire_station", "building": "public", "layer": "1", "name": "Bloomington Fire Department", "operator": "Bloomington Fire Department"}}, {"type": "way", "id": 703246484, "nodes": [1842151698, 9875038941, 9875038942, 9875038943, 6604180623, 6604180624, 9875038945, 9875038944, 1842151698], "tags": {"addr:city": "Bloomington", "addr:housenumber": "3210", "addr:postcode": "47408", "addr:state": "IN", "addr:street": "East 10th Street", "amenity": "post_office", "building": "yes", "operator": "United States Postal Service", "operator:short": "USPS", "operator:type": "public", "operator:wikidata": "Q668687"}}, {"type": "way", "id": 912592603, "nodes": [9085262620, 8477538929, 8477538930, 8477538931, 9085262620], "tags": {"addr:city": "Bloomington", "addr:housenumber": "2201", "addr:postcode": "47401", "addr:state": "IN", "addr:street": "East 3rd Street", "amenity": "fire_station", "building": "yes", "source": "microsoft/BuildingFootprints", "source:addr": "SwiftAddress"}}, {"type": "way", "id": 939834078, "nodes": [5329682283, 8705418885, 8705418886, 8705418887, 8705418888, 8705418889, 8705418890, 8705418891, 5329682283], "tags": {"addr:city": "Bloomington", "addr:housenumber": "810", "addr:postcode": "47408", "addr:state": "IN", "addr:street": "North Woodlawn Avenue", "amenity": "fire_station", "building": "yes", "name": "Indiana University Fire Station"}}]}